{"type":"FeatureCollection", "features": [
{"type":"Feature","geometry":{"type":"Polygon","coordinates":[[[-120.55625,-73.756055],[-122.435693,-73.681641],[-123.112158,-73.682227],[-123.034668,-73.837598],[-122.624707,-73.965527],[-122.880762,-74.099023],[-122.859082,-74.342676],[-122.286621,-74.403125],[-121.062402,-74.337305],[-120.989502,-74.157031],[-120.272461,-73.98916],[-120.55625,-73.756055]]]},"properties":{"scalerank":0,"featurecla":"Land","min_zoom":1}},
{"type":"Feature","geometry":{"type":"Polygon","coordinates":[[[-126.329883,-73.28623],[-127.267627,-73.304004],[-127.414355,-73.516309],[-126.496094,-73.700195],[-126.47168,-73.812109],[-124.872998,-74.208301],[-123.836719,-74.225684],[-123.800439,-74.07627],[-124.151807,-73.944238],[-124.128516,-73.833984],[-124.53999,-73.739746],[-124.993408,-73.829785],[-125.735791,-73.405664],[-126.329883,-73.28623]]]},"properties":{"scalerank":0,"featurecla":"Land","min_zoom":1}},
{"type":"Feature","geometry":{"type":"Polygon","coordinates":[[[-66.173633,-80.077832],[-65.504443,-79.954297],[-65.579248,-79.770801],[-66.01416,-79.624414],[-66.978906,-79.568652],[-67.719141,-79.620215],[-67.077246,-79.761816],[-66.904199,-79.908887],[-66.173633,-80.077832]]]},"properties":{"scalerank":0,"featurecla":"Land","min_zoom":2}},
{"type":"Feature","geometry":{"type":"Polygon","coordinates":[[[-57.845996,-64.053906],[-57.779492,-63.868262],[-57.925684,-63.806055],[-58.274805,-63.916211],[-58.424951,-64.067773],[-58.14707,-64.097363],[-58.304443,-64.314551],[-57.70332,-64.293262],[-57.327637,-64.237793],[-57.249463,-64.09707],[-57.59292,-63.96709],[-57.845996,-64.053906]]]},"properties":{"scalerank":0,"featurecla":"Land","min_zoom":0}},
{"type":"Feature","geometry":{"type":"Polygon","coordinates":[[[-63.180566,-64.469531],[-63.333594,-64.266211],[-64.171094,-64.581934],[-64.27207,-64.697559],[-63.646875,-64.803027],[-63.025586,-64.610938],[-63.180566,-64.469531]]]},"properties":{"scalerank":0,"featurecla":"Land","min_zoom":2}},
{"type":"Feature","geometry":{"type":"Polygon","coordinates":[[[-73.706641,-70.635156],[-74.03833,-70.55293],[-75.007471,-70.608887],[-75.21001,-70.772559],[-76.03457,-70.835938],[-76.500244,-70.941406],[-76.176318,-71.132422],[-74.805811,-71.012305],[-74.205029,-70.924121],[-73.550342,-70.723438],[-73.706641,-70.635156]]]},"properties":{"scalerank":0,"featurecla":"Land","min_zoom":2}},
{"type":"Feature","geometry":{"type":"Polygon","coordinates":[[[-74.987109,-69.727832],[-75.681348,-69.881641],[-75.726758,-70.096094],[-74.848828,-70.179297],[-74.437988,-69.949609],[-74.987109,-69.727832]]]},"properties":{"scalerank":0,"featurecla":"Land","min_zoom":2}},
{"type":"Feature","geometry":{"type":"Polygon","coordinates":[[[-98.091113,-71.9125],[-98.61543,-71.76377],[-99.254102,-71.972168],[-99.833203,-72.046094],[-100.084619,-71.836914],[-102.128125,-71.985449],[-102.264795,-72.135254],[-100.195215,-72.272656],[-99.148828,-72.471973],[-98.407812,-72.547656],[-97.250293,-72.520898],[-96.051758,-72.577246],[-96.078174,-72.453809],[-95.575391,-72.409961],[-95.609375,-72.068457],[-96.79873,-72.259473],[-96.714941,-72.131641],[-96.298193,-72.045117],[-96.125,-71.895508],[-96.869434,-71.850977],[-97.473486,-72.000293],[-98.091113,-71.9125]]]},"properties":{"scalerank":0,"featurecla":"Land","min_zoom":1}},
{"type":"Feature","geometry":{"type":"Polygon","coordinates":[[[-74.354443,-73.098438],[-74.473877,-72.89375],[-75.376855,-72.82041],[-75.439453,-72.994238],[-76.017676,-73.085449],[-75.90083,-73.332617],[-74.574658,-73.611328],[-74.366113,-73.464258],[-74.667676,-73.275293],[-74.354443,-73.098438]]]},"properties":{"scalerank":0,"featurecla":"Land","min_zoom":2}},
{"type":"Feature","geometry":{"type":"Polygon","coordinates":[[[-67.988477,-67.474414],[-68.175146,-67.344141],[-67.687842,-67.147363],[-67.968408,-67.032227],[-67.932373,-66.844531],[-67.681152,-66.708984],[-67.830518,-66.624316],[-68.335938,-66.802051],[-68.819922,-67.233594],[-69.082422,-67.403125],[-69.097559,-67.602734],[-68.901367,-67.744238],[-68.58042,-67.732813],[-68.381299,-67.555371],[-67.988477,-67.474414]]]},"properties":{"scalerank":0,"featurecla":"Land","min_zoom":2}},
{"type":"Feature","geometry":{"type":"Polygon","coordinates":[[[-159.05293,-79.807422],[-158.996582,-79.735156],[-159.684082,-79.402441],[-161.642969,-78.900977],[-162.390039,-78.760156],[-163.256104,-78.72207],[-164.125537,-78.995313],[-164.225781,-79.320801],[-163.712402,-79.441992],[-161.865527,-79.703516],[-160.3021,-79.844531],[-159.05293,-79.807422]]]},"properties":{"scalerank":0,"featurecla":"Land","min_zoom":1}},
{"type":"Feature","geometry":{"type":"Polygon","coordinates":[[[-70.334082,-79.679883],[-69.731738,-79.618359],[-69.686475,-79.443359],[-69.250879,-79.210352],[-67.480957,-78.682422],[-66.728076,-78.383691],[-67.478516,-78.3625],[-70.543994,-78.883691],[-71.254492,-79.059668],[-71.66748,-79.245703],[-71.783545,-79.444336],[-71.525781,-79.623633],[-70.334082,-79.679883]]]},"properties":{"scalerank":0,"featurecla":"Land","min_zoom":1.5}},
{"type":"Feature","geometry":{"type":"Polygon","coordinates":[[[-45.222656,-78.810742],[-45.067822,-78.661426],[-43.947217,-78.597559],[-43.808594,-78.286523],[-44.339844,-78.092871],[-45.530273,-77.881445],[-46.825684,-77.785254],[-47.69209,-77.840137],[-49.08125,-78.047461],[-50.219629,-78.605273],[-50.733057,-79.282715],[-50.339258,-79.479492],[-51.711328,-79.989844],[-52.297168,-80.141211],[-53.482324,-80.188965],[-54.347168,-80.569434],[-54.1625,-80.870117],[-49.773047,-80.78418],[-49.1875,-80.642773],[-43.52793,-80.191406],[-43.758203,-80.020508],[-43.267285,-79.978613],[-42.98999,-79.80127],[-42.965381,-79.477051],[-43.544336,-78.901953],[-43.72207,-78.818457],[-45.222656,-78.810742]]]},"properties":{"scalerank":0,"featurecla":"Land","min_zoom":0}},
{"type":"Feature","geometry":{"type":"Polygon","coordinates":[[[-59.733936,-80.344141],[-59.706348,-79.875293],[-60.578809,-79.741016],[-61.343115,-79.886816],[-61.694336,-80.134375],[-61.312842,-80.306543],[-62.518799,-80.37334],[-65.980078,-80.384473],[-66.18374,-80.441992],[-64.268262,-80.748535],[-64.065039,-80.650391],[-63.143994,-80.594824],[-62.940381,-80.76582],[-62.02334,-80.889063],[-60.582812,-80.948145],[-59.825488,-80.733301],[-59.733936,-80.344141]]]},"properties":{"scalerank":0,"featurecla":"Land","min_zoom":1}},
{"type":"Feature","geometry":{"type":"Polygon","coordinates":[[[-70.051123,-69.189063],[-70.105469,-68.959375],[-70.416992,-68.788965],[-71.391553,-68.873535],[-71.868994,-68.941016],[-72.137891,-69.114551],[-72.080664,-69.267188],[-71.74292,-69.422754],[-71.853613,-69.969336],[-71.696094,-70.067773],[-71.120508,-70.196484],[-70.719531,-70.139453],[-70.327637,-70.159668],[-70.328076,-70.36123],[-71.061084,-70.537109],[-71.049414,-70.762109],[-70.298682,-70.836133],[-70.267676,-70.964746],[-71.194043,-70.984766],[-71.718506,-71.145117],[-72.356348,-71.074805],[-73.0604,-71.126953],[-72.905469,-71.223145],[-72.430078,-71.275],[-72.621582,-71.388379],[-73.397412,-71.321191],[-73.604492,-71.350781],[-73.545361,-71.573047],[-74.187207,-71.383008],[-75.292578,-71.614941],[-75.353076,-71.878418],[-74.78584,-72.063574],[-74.429297,-72.055566],[-73.899268,-72.152344],[-73.537109,-72.022363],[-73.63291,-71.834961],[-72.927637,-71.92168],[-72.412207,-71.662305],[-71.816162,-71.821875],[-70.820996,-71.906543],[-71.106641,-72.04707],[-71.897559,-72.120801],[-71.412549,-72.284473],[-70.641406,-72.169629],[-70.427686,-72.322559],[-70.872607,-72.366406],[-72.134961,-72.331348],[-72.618213,-72.275098],[-73.086377,-72.407813],[-72.887646,-72.54668],[-72.36748,-72.669727],[-70.731348,-72.622949],[-70.543457,-72.664453],[-69.209326,-72.53418],[-69.149268,-72.426563],[-68.640039,-72.209766],[-68.241016,-71.822168],[-68.27793,-71.09707],[-68.335986,-70.856055],[-68.730566,-70.408105],[-69.09126,-70.090332],[-69.416943,-69.583203],[-69.707568,-69.320898],[-70.051123,-69.189063]]]},"properties":{"scalerank":0,"featurecla":"Land","min_zoom":1}},
{"type":"Feature","geometry":{"type":"Polygon","coordinates":[[[-66.36552268929556,-55],[-66.67318618695619,-55],[-66.511133,-55.032129],[-66.36552268929556,-55]]]},"properties":{"scalerank":0,"featurecla":"Land","min_zoom":0}},
{"type":"Feature","geometry":{"type":"Polygon","coordinates":[[[-67.575195,-55.889648],[-67.544824,-55.825977],[-67.762061,-55.816113],[-67.831543,-55.864844],[-67.575195,-55.889648]]]},"properties":{"scalerank":0,"featurecla":"Land","min_zoom":3}},
{"type":"Feature","geometry":{"type":"Polygon","coordinates":[[[163.975977,-74.832715],[164.208496,-74.607715],[163.741699,-74.711523],[163.975977,-74.832715]]]},"properties":{"scalerank":0,"featurecla":"Land","min_zoom":3}},
{"type":"Feature","geometry":{"type":"Polygon","coordinates":[[[164.833594,-67.54043],[164.918652,-67.447461],[164.825,-67.326074],[164.638965,-67.500098],[164.833594,-67.54043]]]},"properties":{"scalerank":0,"featurecla":"Land","min_zoom":3}},
{"type":"Feature","geometry":{"type":"Polygon","coordinates":[[[167.642773,-78.141406],[166.863672,-78.196387],[166.111133,-78.089648],[166.121875,-78.274609],[167.376953,-78.249023],[167.642773,-78.141406]]]},"properties":{"scalerank":0,"featurecla":"Land","min_zoom":3}},
{"type":"Feature","geometry":{"type":"Polygon","coordinates":[[[163.301953,-66.821191],[163.237891,-66.708789],[163.089648,-66.700586],[163.163867,-66.819141],[163.301953,-66.821191]]]},"properties":{"scalerank":0,"featurecla":"Land","min_zoom":3}},
{"type":"Feature","geometry":{"type":"Polygon","coordinates":[[[167.084082,-77.32168],[166.626367,-77.376758],[166.236816,-77.547461],[166.729004,-77.850977],[167.392285,-77.648633],[168.322559,-77.68252],[169.352734,-77.524707],[168.450781,-77.386133],[167.460938,-77.394336],[167.084082,-77.32168]]]},"properties":{"scalerank":0,"featurecla":"Land","min_zoom":2}},
{"type":"Feature","geometry":{"type":"Polygon","coordinates":[[[169.843652,-73.60498],[169.960352,-73.514355],[169.783203,-73.324219],[169.479492,-73.539453],[169.843652,-73.60498]]]},"properties":{"scalerank":0,"featurecla":"Land","min_zoom":3}},
{"type":"Feature","geometry":{"type":"Polygon","coordinates":[[[162.968066,-75.56709],[162.72002,-75.59668],[162.591211,-75.668555],[162.788281,-75.696191],[162.968066,-75.56709]]]},"properties":{"scalerank":0,"featurecla":"Land","min_zoom":4}},
{"type":"Feature","geometry":{"type":"Polygon","coordinates":[[[100.981445,-65.677539],[101.220605,-65.472266],[100.883398,-65.378125],[100.409375,-65.465625],[100.270312,-65.60332],[100.546875,-65.70127],[100.981445,-65.677539]]]},"properties":{"scalerank":0,"featurecla":"Land","min_zoom":2}},
{"type":"Feature","geometry":{"type":"Polygon","coordinates":[[[85.822363,-66.95332],[85.80625,-66.774609],[85.340332,-66.72334],[85.358789,-66.854297],[85.822363,-66.95332]]]},"properties":{"scalerank":0,"featurecla":"Land","min_zoom":3}},
{"type":"Feature","geometry":{"type":"Polygon","coordinates":[[[92.601367,-65.808301],[92.633789,-65.730664],[92.301465,-65.706738],[92.333008,-65.807227],[92.601367,-65.808301]]]},"properties":{"scalerank":0,"featurecla":"Land","min_zoom":3}},
{"type":"Feature","geometry":{"type":"Polygon","coordinates":[[[86.541797,-66.76748],[86.383301,-66.674805],[86.232227,-66.73291],[86.337012,-66.787598],[86.541797,-66.76748]]]},"properties":{"scalerank":0,"featurecla":"Land","min_zoom":3}},
{"type":"Feature","geometry":{"type":"Polygon","coordinates":[[[85.328516,-66.611914],[85.121094,-66.518555],[85.06875,-66.583789],[85.136133,-66.637109],[85.328516,-66.611914]]]},"properties":{"scalerank":0,"featurecla":"Land","min_zoom":4}},
{"type":"Feature","geometry":{"type":"Polygon","coordinates":[[[69.918359,-71.917773],[69.796094,-71.893945],[69.692578,-71.968262],[69.791992,-72.04668],[69.918359,-71.917773]]]},"properties":{"scalerank":0,"featurecla":"Land","min_zoom":4}},
{"type":"Feature","geometry":{"type":"Polygon","coordinates":[[[68.461719,-72.300098],[68.817188,-72.228711],[68.66709,-72.103125],[68.461719,-72.300098]]]},"properties":{"scalerank":0,"featurecla":"Land","min_zoom":3}},
{"type":"Feature","geometry":{"type":"Polygon","coordinates":[[[96.612695,-66.03584],[96.398828,-66.080176],[96.394531,-66.225],[96.933984,-66.200781],[96.931641,-66.058398],[96.612695,-66.03584]]]},"properties":{"scalerank":0,"featurecla":"Land","min_zoom":3}},
{"type":"Feature","geometry":{"type":"Polygon","coordinates":[[[72.002246,-70.632617],[72,-70.456836],[71.659375,-70.497461],[72.002246,-70.632617]]]},"properties":{"scalerank":0,"featurecla":"Land","min_zoom":3}},
{"type":"Feature","geometry":{"type":"Polygon","coordinates":[[[162.611426,-66.477344],[162.310547,-66.25127],[162.302734,-66.399707],[162.611426,-66.477344]]]},"properties":{"scalerank":0,"featurecla":"Land","min_zoom":3}},
{"type":"Feature","geometry":{"type":"Polygon","coordinates":[[[100.264746,-66.216602],[100.290527,-66.112402],[100.07627,-66.188086],[100.264746,-66.216602]]]},"properties":{"scalerank":0,"featurecla":"Land","min_zoom":4}},
{"type":"Feature","geometry":{"type":"Polygon","coordinates":[[[98.846094,-66.469824],[98.949805,-66.420508],[98.748633,-66.369238],[98.655078,-66.45332],[98.846094,-66.469824]]]},"properties":{"scalerank":0,"featurecla":"Land","min_zoom":3}},
{"type":"Feature","geometry":{"type":"Polygon","coordinates":[[[103.397266,-65.445312],[103.186133,-65.330566],[103.136816,-65.190625],[102.892871,-65.129688],[102.78877,-65.235938],[103.112793,-65.312012],[103.138477,-65.435059],[103.397266,-65.445312]]]},"properties":{"scalerank":0,"featurecla":"Land","min_zoom":3}},
{"type":"Feature","geometry":{"type":"Polygon","coordinates":[[[-147.588281,-76.649805],[-147.899707,-76.558008],[-148.001074,-76.577148],[-147.729639,-76.653418],[-147.588281,-76.649805]]]},"properties":{"scalerank":0,"featurecla":"Land","min_zoom":4}},
{"type":"Feature","geometry":{"type":"Polygon","coordinates":[[[-145.238086,-75.71123],[-145.760791,-75.513867],[-146.042773,-75.611914],[-145.238086,-75.71123]]]},"properties":{"scalerank":0,"featurecla":"Land","min_zoom":3}},
{"type":"Feature","geometry":{"type":"Polygon","coordinates":[[[-146.606738,-76.961328],[-146.244385,-76.883105],[-147.08667,-76.837305],[-146.981445,-77.005664],[-146.606738,-76.961328]]]},"properties":{"scalerank":0,"featurecla":"Land","min_zoom":3}},
{"type":"Feature","geometry":{"type":"Polygon","coordinates":[[[-132.39126,-74.441895],[-132.55249,-74.386621],[-132.857178,-74.461719],[-132.546289,-74.498438],[-132.39126,-74.441895]]]},"properties":{"scalerank":0,"featurecla":"Land","min_zoom":3}},
{"type":"Feature","geometry":{"type":"Polygon","coordinates":[[[-148.59585,-77.006836],[-148.508936,-76.95459],[-149.238086,-76.900195],[-149.244824,-76.993066],[-148.59585,-77.006836]]]},"properties":{"scalerank":0,"featurecla":"Land","min_zoom":3}},
{"type":"Feature","geometry":{"type":"Polygon","coordinates":[[[-149.333252,-76.717383],[-148.983887,-76.845313],[-148.38418,-76.744434],[-149.333252,-76.717383]]]},"properties":{"scalerank":0,"featurecla":"Land","min_zoom":3}},
{"type":"Feature","geometry":{"type":"Polygon","coordinates":[[[-131.066699,-74.583789],[-130.981104,-74.414062],[-131.762695,-74.323828],[-132.162646,-74.425781],[-131.840869,-74.542578],[-131.066699,-74.583789]]]},"properties":{"scalerank":0,"featurecla":"Land","min_zoom":2}},
{"type":"Feature","geometry":{"type":"Polygon","coordinates":[[[-119.548926,-74.110254],[-119.058594,-73.997656],[-118.959277,-73.809473],[-119.802588,-73.814648],[-119.548926,-74.110254]]]},"properties":{"scalerank":0,"featurecla":"Land","min_zoom":1}},
{"type":"Feature","geometry":{"type":"Polygon","coordinates":[[[-116.738623,-74.165039],[-116.15498,-73.910449],[-116.381299,-73.865527],[-117.376465,-74.082813],[-117.230322,-74.192773],[-116.738623,-74.165039]]]},"properties":{"scalerank":0,"featurecla":"Land","min_zoom":2}},
{"type":"Feature","geometry":{"type":"Polygon","coordinates":[[[-127.36582,-74.622656],[-127.145166,-74.480176],[-127.852979,-74.331836],[-128.09624,-74.466211],[-127.36582,-74.622656]]]},"properties":{"scalerank":0,"featurecla":"Land","min_zoom":2}},
{"type":"Feature","geometry":{"type":"Polygon","coordinates":[[[-149.218115,-77.336328],[-149.375439,-77.27998],[-149.662354,-77.300977],[-149.438672,-77.370605],[-149.218115,-77.336328]]]},"properties":{"scalerank":0,"featurecla":"Land","min_zoom":4}},
{"type":"Feature","geometry":{"type":"Polygon","coordinates":[[[-161.993799,-83.11875],[-161.635156,-83.026953],[-162.798486,-82.864844],[-163.795947,-82.842676],[-163.046533,-83.096777],[-161.993799,-83.11875]]]},"properties":{"scalerank":0,"featurecla":"Land","min_zoom":3}},
{"type":"Feature","geometry":{"type":"Polygon","coordinates":[[[-150.23252,-76.776465],[-150.177393,-76.691309],[-150.837646,-76.71416],[-150.655176,-76.788965],[-150.23252,-76.776465]]]},"properties":{"scalerank":0,"featurecla":"Land","min_zoom":3}},
{"type":"Feature","geometry":{"type":"Polygon","coordinates":[[[-146.690137,-76.246387],[-146.949023,-76.098145],[-147.34541,-76.14668],[-146.690137,-76.246387]]]},"properties":{"scalerank":0,"featurecla":"Land","min_zoom":3}},
{"type":"Feature","geometry":{"type":"Polygon","coordinates":[[[-146.790039,-76.633105],[-147.135303,-76.531543],[-147.355322,-76.618848],[-146.790039,-76.633105]]]},"properties":{"scalerank":0,"featurecla":"Land","min_zoom":3}},
{"type":"Feature","geometry":{"type":"Polygon","coordinates":[[[-160.467139,-81.589453],[-160.937891,-81.463477],[-162.456494,-81.313281],[-163.868994,-81.324023],[-163.766064,-81.444824],[-160.467139,-81.589453]]]},"properties":{"scalerank":0,"featurecla":"Land","min_zoom":2}},
{"type":"Feature","geometry":{"type":"Polygon","coordinates":[[[-150.39707,-77.369141],[-151.021533,-77.22002],[-151.344482,-77.296289],[-150.39707,-77.369141]]]},"properties":{"scalerank":0,"featurecla":"Land","min_zoom":3}},
{"type":"Feature","geometry":{"type":"Polygon","coordinates":[[[-153.930469,-80.033301],[-155.674268,-79.765527],[-155.751172,-79.82959],[-154.94165,-79.966309],[-153.930469,-80.033301]]]},"properties":{"scalerank":0,"featurecla":"Land","min_zoom":3}},
{"type":"Feature","geometry":{"type":"Polygon","coordinates":[[[-149.230664,-77.120508],[-149.870605,-76.875],[-150.788525,-76.981641],[-150.461816,-77.075684],[-149.230664,-77.120508]]]},"properties":{"scalerank":0,"featurecla":"Land","min_zoom":2}},
{"type":"Feature","geometry":{"type":"Polygon","coordinates":[[[-157.9875,-82.10498],[-157.83457,-82.030762],[-158.26084,-81.947266],[-158.545312,-81.948828],[-157.9875,-82.10498]]]},"properties":{"scalerank":0,"featurecla":"Land","min_zoom":3}},
{"type":"Feature","geometry":{"type":"Polygon","coordinates":[[[-5.894092,-70.552246],[-6.068262,-70.404688],[-6.437988,-70.452637],[-6.156104,-70.611523],[-5.894092,-70.552246]]]},"properties":{"scalerank":0,"featurecla":"Land","min_zoom":3}},
{"type":"Feature","geometry":{"type":"Polygon","coordinates":[[[3.036914,-70.597363],[3.259863,-70.448828],[3.072168,-70.381641],[2.631445,-70.500391],[3.036914,-70.597363]]]},"properties":{"scalerank":0,"featurecla":"Land","min_zoom":3}},
{"type":"Feature","geometry":{"type":"Polygon","coordinates":[[[-2.95498,-71.21377],[-3.263037,-71.051758],[-3.403857,-71.119824],[-3.309375,-71.200879],[-2.95498,-71.21377]]]},"properties":{"scalerank":0,"featurecla":"Land","min_zoom":3}},
{"type":"Feature","geometry":{"type":"Polygon","coordinates":[[[1.299316,-70.255176],[1.412207,-70.040723],[1.026758,-70.049805],[0.990332,-70.224316],[1.299316,-70.255176]]]},"properties":{"scalerank":0,"featurecla":"Land","min_zoom":3}},
{"type":"Feature","geometry":{"type":"Polygon","coordinates":[[[-2.532812,-70.767773],[-2.749805,-70.694141],[-3.537061,-70.683301],[-3.006982,-70.851465],[-2.800537,-70.982227],[-2.368945,-71.044434],[-2.092285,-70.820898],[-2.532812,-70.767773]]]},"properties":{"scalerank":0,"featurecla":"Land","min_zoom":2}},
{"type":"Feature","geometry":{"type":"Polygon","coordinates":[[[4.525879,-70.478711],[4.49502,-70.251367],[4.069727,-70.290234],[4.12959,-70.416992],[4.525879,-70.478711]]]},"properties":{"scalerank":0,"featurecla":"Land","min_zoom":3}},
{"type":"Feature","geometry":{"type":"Polygon","coordinates":[[[48.545996,-66.78418],[48.637793,-66.700977],[48.357715,-66.703809],[48.304492,-66.797852],[48.545996,-66.78418]]]},"properties":{"scalerank":0,"featurecla":"Land","min_zoom":3}},
{"type":"Feature","geometry":{"type":"Polygon","coordinates":[[[16.222656,-70.007617],[16.246875,-69.70498],[15.699023,-69.773242],[15.613867,-69.939063],[16.222656,-70.007617]]]},"properties":{"scalerank":0,"featurecla":"Land","min_zoom":2}},
{"type":"Feature","geometry":{"type":"Polygon","coordinates":[[[26.857227,-70.381152],[26.68623,-70.114453],[26.301074,-70.072461],[25.98252,-70.199902],[26.005371,-70.372949],[26.470215,-70.447949],[26.857227,-70.381152]]]},"properties":{"scalerank":0,"featurecla":"Land","min_zoom":2}},
{"type":"Feature","geometry":{"type":"Polygon","coordinates":[[[-31.118848,-79.798438],[-31.824121,-79.849512],[-30.422119,-80.01084],[-29.614453,-79.90957],[-30.660156,-79.733105],[-31.118848,-79.798438]]]},"properties":{"scalerank":0,"featurecla":"Land","min_zoom":2}},
{"type":"Feature","geometry":{"type":"Polygon","coordinates":[[[-33.93418,-79.32041],[-34.391504,-79.222949],[-35.534668,-79.090039],[-36.481299,-79.294043],[-34.049951,-79.357129],[-33.93418,-79.32041]]]},"properties":{"scalerank":0,"featurecla":"Land","min_zoom":2}},
{"type":"Feature","geometry":{"type":"Polygon","coordinates":[[[-3.280225,-70.533789],[-2.738037,-70.507031],[-2.713525,-70.320215],[-3.287451,-70.344043],[-3.280225,-70.533789]]]},"properties":{"scalerank":0,"featurecla":"Land","min_zoom":2}},
{"type":"Feature","geometry":{"type":"Polygon","coordinates":[[[-20.607422,-73.886621],[-21.024512,-73.880078],[-21.288281,-73.989355],[-20.845654,-74.437793],[-20.42334,-74.317383],[-20.654248,-74.10498],[-20.607422,-73.886621]]]},"properties":{"scalerank":0,"featurecla":"Land","min_zoom":2}},
{"type":"Feature","geometry":{"type":"Polygon","coordinates":[[[-16.104492,-72.679102],[-16.302881,-72.478027],[-16.516553,-72.530859],[-16.453027,-72.652344],[-16.104492,-72.679102]]]},"properties":{"scalerank":0,"featurecla":"Land","min_zoom":3}},
{"type":"Feature","geometry":{"type":"Polygon","coordinates":[[[-12.508887,-72.17334],[-12.788867,-72.006543],[-12.963281,-72.064453],[-12.720166,-72.187695],[-12.508887,-72.17334]]]},"properties":{"scalerank":0,"featurecla":"Land","min_zoom":3}},
{"type":"Feature","geometry":{"type":"Polygon","coordinates":[[[-32.342529,-79.673633],[-31.933447,-79.567871],[-32.376611,-79.534668],[-32.342529,-79.673633]]]},"properties":{"scalerank":0,"featurecla":"Land","min_zoom":3}},
{"type":"Feature","geometry":{"type":"Polygon","coordinates":[[[-45.717773,-60.520898],[-45.70918,-60.64541],[-45.398047,-60.649707],[-45.499707,-60.546484],[-45.717773,-60.520898]]]},"properties":{"scalerank":0,"featurecla":"Land","min_zoom":3}},
{"type":"Feature","geometry":{"type":"Polygon","coordinates":[[[-54.070703,-61.299121],[-54.049902,-61.14209],[-54.192236,-61.246582],[-54.070703,-61.299121]]]},"properties":{"scalerank":0,"featurecla":"Land","min_zoom":4}},
{"type":"Feature","geometry":{"type":"Polygon","coordinates":[[[-67.261914,-79.452637],[-67.068652,-79.268457],[-68.032568,-79.227148],[-68.548926,-79.437402],[-67.261914,-79.452637]]]},"properties":{"scalerank":0,"featurecla":"Land","min_zoom":2}},
{"type":"Feature","geometry":{"type":"Polygon","coordinates":[[[-55.16543,-61.22041],[-55.057617,-61.168652],[-55.387012,-61.072656],[-55.297021,-61.248535],[-55.16543,-61.22041]]]},"properties":{"scalerank":0,"featurecla":"Land","min_zoom":3}},
{"type":"Feature","geometry":{"type":"Polygon","coordinates":[[[-55.528027,-63.173535],[-56.042187,-63.157129],[-56.385107,-63.234082],[-56.378516,-63.437305],[-55.750195,-63.29668],[-55.156787,-63.353125],[-55.15625,-63.204785],[-55.528027,-63.173535]]]},"properties":{"scalerank":0,"featurecla":"Land","min_zoom":2}},
{"type":"Feature","geometry":{"type":"Polygon","coordinates":[[[-55.872559,-63.535645],[-55.85791,-63.407324],[-56.209863,-63.436914],[-56.178369,-63.513281],[-55.872559,-63.535645]]]},"properties":{"scalerank":0,"featurecla":"Land","min_zoom":3}},
{"type":"Feature","geometry":{"type":"Polygon","coordinates":[[[-57.240479,-64.566797],[-56.991016,-64.467969],[-57.022559,-64.352344],[-57.445898,-64.459863],[-57.240479,-64.566797]]]},"properties":{"scalerank":0,"featurecla":"Land","min_zoom":3}},
{"type":"Feature","geometry":{"type":"Polygon","coordinates":[[[-58.837939,-62.302539],[-59.063818,-62.239063],[-59.059424,-62.347754],[-58.837939,-62.302539]]]},"properties":{"scalerank":0,"featurecla":"Land","min_zoom":3}},
{"type":"Feature","geometry":{"type":"Polygon","coordinates":[[[-57.978418,-61.911914],[-58.399463,-61.938281],[-58.683594,-62.008203],[-58.955225,-62.164258],[-58.594043,-62.247754],[-58.46665,-62.137207],[-57.962744,-62.077539],[-57.978418,-61.911914]]]},"properties":{"scalerank":0,"featurecla":"Land","min_zoom":2}},
{"type":"Feature","geometry":{"type":"Polygon","coordinates":[[[-61.952441,-64.077148],[-61.798242,-63.966602],[-61.936279,-63.990234],[-62.020752,-64.027344],[-61.952441,-64.077148]]]},"properties":{"scalerank":0,"featurecla":"Land","min_zoom":4}},
{"type":"Feature","geometry":{"type":"Polygon","coordinates":[[[-61.997607,-69.721875],[-61.815967,-69.376172],[-62.11792,-69.214746],[-62.49624,-69.288184],[-61.997607,-69.721875]]]},"properties":{"scalerank":0,"featurecla":"Land","min_zoom":2}},
{"type":"Feature","geometry":{"type":"Polygon","coordinates":[[[-63.316211,-64.861133],[-63.459277,-64.796289],[-63.55835,-64.905957],[-63.316211,-64.861133]]]},"properties":{"scalerank":0,"featurecla":"Land","min_zoom":3}},
{"type":"Feature","geometry":{"type":"Polygon","coordinates":[[[-62.325781,-64.424414],[-62.185693,-64.368848],[-62.058496,-64.138086],[-62.544971,-64.045703],[-62.479736,-64.210645],[-62.746826,-64.47168],[-62.325781,-64.424414]]]},"properties":{"scalerank":0,"featurecla":"Land","min_zoom":2}},
{"type":"Feature","geometry":{"type":"Polygon","coordinates":[[[-62.615088,-63.069336],[-62.411475,-62.971582],[-62.527051,-62.923828],[-62.615088,-63.069336]]]},"properties":{"scalerank":0,"featurecla":"Land","min_zoom":3}},
{"type":"Feature","geometry":{"type":"Polygon","coordinates":[[[-59.389014,-62.444336],[-59.39585,-62.367285],[-59.660693,-62.354297],[-59.525244,-62.451465],[-59.389014,-62.444336]]]},"properties":{"scalerank":0,"featurecla":"Land","min_zoom":3}},
{"type":"Feature","geometry":{"type":"Polygon","coordinates":[[[-56.059961,-63.078516],[-56.488574,-62.982227],[-56.354102,-63.168848],[-56.059961,-63.078516]]]},"properties":{"scalerank":0,"featurecla":"Land","min_zoom":3}},
{"type":"Feature","geometry":{"type":"Polygon","coordinates":[[[-60.625,-62.560059],[-60.378027,-62.616504],[-60.220947,-62.74541],[-60.002734,-62.618457],[-60.139893,-62.54873],[-60.625,-62.560059]]]},"properties":{"scalerank":0,"featurecla":"Land","min_zoom":2}},
{"type":"Feature","geometry":{"type":"Polygon","coordinates":[[[-57.37417,-63.807227],[-57.218018,-63.875586],[-57.16084,-63.815723],[-57.37417,-63.807227]]]},"properties":{"scalerank":0,"featurecla":"Land","min_zoom":3}},
{"type":"Feature","geometry":{"type":"Polygon","coordinates":[[[-61.158447,-69.975781],[-61.151855,-69.883105],[-61.327148,-69.856348],[-61.404346,-69.93252],[-61.158447,-69.975781]]]},"properties":{"scalerank":0,"featurecla":"Land","min_zoom":3}},
{"type":"Feature","geometry":{"type":"Polygon","coordinates":[[[-60.655908,-68.767578],[-60.813574,-68.687695],[-60.894043,-68.758887],[-60.655908,-68.767578]]]},"properties":{"scalerank":0,"featurecla":"Land","min_zoom":3}},
{"type":"Feature","geometry":{"type":"Polygon","coordinates":[[[-60.740625,-70.710547],[-60.487695,-70.64668],[-60.553662,-70.508789],[-60.975537,-70.599121],[-60.740625,-70.710547]]]},"properties":{"scalerank":0,"featurecla":"Land","min_zoom":3}},
{"type":"Feature","geometry":{"type":"Polygon","coordinates":[[[-60.552246,-71.05293],[-60.613135,-70.920117],[-60.946484,-70.967383],[-60.552246,-71.05293]]]},"properties":{"scalerank":0,"featurecla":"Land","min_zoom":3}},
{"type":"Feature","geometry":{"type":"Polygon","coordinates":[[[-60.504883,-62.967383],[-60.637402,-62.895215],[-60.69292,-62.995703],[-60.504883,-62.967383]]]},"properties":{"scalerank":0,"featurecla":"Land","min_zoom":4}},
{"type":"Feature","geometry":{"type":"Polygon","coordinates":[[[-60.653125,-63.866602],[-60.688867,-63.80791],[-60.562354,-63.695898],[-60.79668,-63.716699],[-60.810059,-63.836621],[-60.653125,-63.866602]]]},"properties":{"scalerank":0,"featurecla":"Land","min_zoom":3}},
{"type":"Feature","geometry":{"type":"Polygon","coordinates":[[[-93.795605,-72.919727],[-94.004248,-72.819727],[-94.113184,-72.860059],[-93.795605,-72.919727]]]},"properties":{"scalerank":0,"featurecla":"Land","min_zoom":4}},
{"type":"Feature","geometry":{"type":"Polygon","coordinates":[[[-91.160693,-73.182227],[-90.775586,-72.992969],[-90.807129,-72.610645],[-91.303516,-72.547363],[-91.67002,-72.62373],[-91.356885,-72.909473],[-91.51084,-73.195508],[-91.160693,-73.182227]]]},"properties":{"scalerank":0,"featurecla":"Land","min_zoom":2}},
{"type":"Feature","geometry":{"type":"Polygon","coordinates":[[[-104.537939,-73.166309],[-104.972412,-72.941016],[-105.131787,-72.991504],[-104.880957,-73.200586],[-104.537939,-73.166309]]]},"properties":{"scalerank":0,"featurecla":"Land","min_zoom":3}},
{"type":"Feature","geometry":{"type":"Polygon","coordinates":[[[-95.027051,-72.665039],[-94.426025,-72.612598],[-94.513867,-72.491699],[-95.215625,-72.599414],[-95.027051,-72.665039]]]},"properties":{"scalerank":0,"featurecla":"Land","min_zoom":3}},
{"type":"Feature","geometry":{"type":"Polygon","coordinates":[[[-71.69502,-70.265137],[-71.684668,-70.442285],[-71.340283,-70.31748],[-71.69502,-70.265137]]]},"properties":{"scalerank":0,"featurecla":"Land","min_zoom":1}},
{"type":"Feature","geometry":{"type":"Polygon","coordinates":[[[-71.985352,-69.698438],[-72.331152,-69.491797],[-72.726172,-69.413086],[-72.957324,-69.529102],[-72.776758,-69.64502],[-72.202051,-69.740137],[-71.985352,-69.698438]]]},"properties":{"scalerank":0,"featurecla":"Land","min_zoom":2}},
{"type":"Feature","geometry":{"type":"Polygon","coordinates":[[[-73.878418,-73.356836],[-73.542432,-73.123828],[-73.832129,-73.113281],[-74.146631,-73.31543],[-73.878418,-73.356836]]]},"properties":{"scalerank":0,"featurecla":"Land","min_zoom":3}},
{"type":"Feature","geometry":{"type":"Polygon","coordinates":[[[-65.845264,-65.84248],[-65.813867,-65.686621],[-65.968311,-65.570996],[-66.175293,-65.866504],[-65.845264,-65.84248]]]},"properties":{"scalerank":0,"featurecla":"Land","min_zoom":3}},
{"type":"Feature","geometry":{"type":"Polygon","coordinates":[[[-66.595312,-66.200684],[-66.779004,-66.11084],[-66.818652,-66.312695],[-66.595312,-66.200684]]]},"properties":{"scalerank":0,"featurecla":"Land","min_zoom":3}},
{"type":"Feature","geometry":{"type":"Polygon","coordinates":[[[-67.348926,-67.766211],[-67.149414,-67.650195],[-67.556738,-67.604492],[-67.693359,-67.763477],[-67.348926,-67.766211]]]},"properties":{"scalerank":0,"featurecla":"Land","min_zoom":3}},
{"type":"Feature","geometry":{"type":"Polygon","coordinates":[[[-67.362402,-66.894531],[-67.256982,-66.840918],[-67.331689,-66.753516],[-67.593262,-66.875586],[-67.362402,-66.894531]]]},"properties":{"scalerank":0,"featurecla":"Land","min_zoom":3}},
{"type":"Feature","geometry":{"type":"Polygon","coordinates":[[[-66.472119,-55.229102],[-66.523145,-55.165527],[-66.636621,-55.234375],[-66.551709,-55.272852],[-66.472119,-55.229102]]]},"properties":{"scalerank":0,"featurecla":"Land","min_zoom":4}},
{"type":"Feature","geometry":{"type":"Polygon","coordinates":[[[-69.04518964027143,-55],[-69.90841669016541,-55],[-69.979785,-55.147461],[-69.411816,-55.444238],[-69.29707,-55.16582],[-68.888965,-55.263281],[-68.867041,-55.450195],[-68.594189,-55.45],[-68.293359,-55.521387],[-68.282666,-55.255176],[-68.598096,-55.12832],[-68.42949330931445,-55],[-69.04518964027143,-55]]]},"properties":{"scalerank":0,"featurecla":"Land","min_zoom":0}},
{"type":"Feature","geometry":{"type":"Polygon","coordinates":[[[-26.264111,-58.435156],[-26.303467,-58.382227],[-26.401221,-58.383203],[-26.415332,-58.439844],[-26.264111,-58.435156]]]},"properties":{"scalerank":0,"featurecla":"Land","min_zoom":4}},
{"type":"Feature","geometry":{"type":"Polygon","coordinates":[[[-67.079932,-55.153809],[-67.20936849259344,-55],[-68.27425904815449,-55],[-68.07002,-55.221094],[-67.767773,-55.25957],[-67.463477,-55.181738],[-67.257422,-55.281836],[-67.079932,-55.153809]]]},"properties":{"scalerank":0,"featurecla":"Land","min_zoom":0}},
{"type":"Feature","geometry":{"type":"Polygon","coordinates":[[[-70.33950525095683,-55],[-70.97705107143729,-55],[-70.939844,-55.061914],[-70.543457,-55.161328],[-70.297852,-55.11377],[-70.33950525095683,-55]]]},"properties":{"scalerank":0,"featurecla":"Land","min_zoom":0}},
{"type":"Feature","geometry":{"type":"Polygon","coordinates":[[[-67.288867,-55.776855],[-67.350586,-55.612109],[-67.559961,-55.724805],[-67.288867,-55.776855]]]},"properties":{"scalerank":0,"featurecla":"Land","min_zoom":3}},
{"type":"Feature","geometry":{"type":"Polygon","coordinates":[[[-57.020654,-63.372852],[-57.076709,-63.2625],[-57.389648,-63.22627],[-57.868066,-63.31875],[-58.215576,-63.45127],[-58.87207,-63.551855],[-59.036426,-63.670313],[-59.510156,-63.820703],[-60.277246,-63.923926],[-60.86416,-64.073438],[-61.082129,-64.314746],[-61.395947,-64.427148],[-61.631787,-64.604688],[-62.139648,-64.726758],[-62.576221,-64.755664],[-63.119873,-64.94248],[-63.032617,-65.079785],[-63.482129,-65.084961],[-63.760254,-65.033496],[-64.038037,-65.179004],[-64.065918,-65.553711],[-64.653223,-65.866895],[-65.26748,-65.994238],[-65.172021,-66.116797],[-65.617285,-66.135254],[-65.775781,-66.342578],[-65.678467,-66.402734],[-65.766406,-66.624902],[-66.370898,-66.608887],[-66.526807,-66.740723],[-66.464697,-66.875195],[-66.61001,-67.208594],[-66.902148,-67.255957],[-66.955078,-66.984766],[-67.160156,-66.951758],[-67.493359,-67.112793],[-67.585791,-67.435156],[-67.486914,-67.546973],[-67.124316,-67.485059],[-66.70498,-67.527148],[-66.915381,-67.692578],[-67.149854,-68.024609],[-66.793359,-68.24043],[-67.116895,-68.574805],[-67.133691,-68.770703],[-67.390527,-68.86123],[-67.02124,-69.028711],[-66.974902,-69.161035],[-67.371777,-69.412305],[-68.140869,-69.347559],[-68.707959,-69.432227],[-68.469824,-69.643848],[-68.40332,-70.019727],[-67.888477,-70.42168],[-67.50459,-71.057813],[-67.460352,-71.526758],[-66.95166,-71.897266],[-66.827734,-72.09043],[-67.306738,-72.611133],[-67.66709,-72.83457],[-68.820947,-73.105469],[-70.322656,-73.274023],[-71.017187,-73.262793],[-71.452734,-73.354492],[-72.380811,-73.438379],[-72.929199,-73.447949],[-73.996045,-73.699805],[-74.594043,-73.715234],[-75.293066,-73.63877],[-76.291211,-73.805371],[-77.134912,-73.817676],[-76.764502,-73.566309],[-76.850488,-73.460449],[-78.407861,-73.555762],[-78.78623,-73.506738],[-78.963721,-73.312402],[-79.521729,-73.089551],[-80.442236,-72.944531],[-80.614209,-73.083398],[-80.336377,-73.41416],[-81.024316,-73.235547],[-81.262402,-73.314941],[-81.163184,-73.632422],[-81.30874,-73.738281],[-82.183496,-73.856836],[-83.041895,-73.707227],[-83.564844,-73.705957],[-84.21416,-73.572754],[-84.981201,-73.502051],[-85.582178,-73.258984],[-85.980762,-73.208496],[-86.602148,-73.353711],[-87.037939,-73.353906],[-87.401025,-73.191992],[-88.419385,-73.229004],[-88.560742,-73.120703],[-88.194531,-72.858594],[-88.526904,-72.702344],[-89.127148,-72.693164],[-89.34126,-72.889551],[-89.817676,-72.862598],[-90.29541,-72.97793],[-90.430908,-73.243262],[-90.920947,-73.319141],[-92.241016,-73.178418],[-92.828369,-73.164648],[-93.705957,-73.215039],[-94.246191,-73.312988],[-95.236621,-73.220117],[-96.152148,-73.309277],[-96.67583,-73.268555],[-98.012402,-73.033203],[-99.810742,-72.999902],[-100.258789,-73.041309],[-100.820508,-72.981152],[-101.681201,-73.029883],[-102.409277,-72.987402],[-102.272021,-72.834961],[-102.484766,-72.735645],[-103.110107,-72.721191],[-103.375,-72.818848],[-103.076172,-73.18457],[-102.675049,-73.320898],[-101.189453,-73.317871],[-100.020801,-73.402539],[-99.200342,-73.570996],[-99.781104,-73.720117],[-100.985449,-73.757227],[-101.310742,-73.695215],[-102.410645,-73.616406],[-102.799512,-73.645703],[-102.766455,-73.883789],[-101.71543,-74.02373],[-101.251709,-74.485742],[-100.881836,-74.541113],[-100.118604,-74.515039],[-100.012695,-74.662109],[-100.264893,-74.822949],[-100.164062,-74.937891],[-99.651904,-74.948828],[-98.557861,-75.189746],[-98.752344,-75.31709],[-99.531348,-75.308984],[-100.463428,-75.353418],[-101.039355,-75.421875],[-101.708105,-75.127344],[-103.424902,-75.10127],[-103.901318,-75.152539],[-104.901855,-75.115137],[-106.618848,-75.343945],[-107.804736,-75.321582],[-108.254492,-75.252539],[-109.272168,-75.185059],[-111.104199,-75.19082],[-111.463135,-75.133398],[-110.531934,-74.836328],[-110.300439,-74.710645],[-110.30708,-74.366699],[-111.180176,-74.188086],[-111.806348,-74.269727],[-111.69624,-74.792188],[-113.091504,-74.891699],[-113.931836,-74.981836],[-113.903467,-74.644434],[-113.332959,-74.454199],[-113.753271,-74.366699],[-113.508496,-74.088867],[-114.345947,-73.925],[-114.791016,-73.988574],[-115.105176,-74.455078],[-115.222607,-74.487402],[-116.433008,-74.44707],[-117.068311,-74.473242],[-118.342041,-74.381543],[-118.80293,-74.422266],[-119.677002,-74.65459],[-121.543945,-74.75],[-123.889453,-74.773047],[-125.353418,-74.714648],[-126.383984,-74.742578],[-127.020215,-74.697852],[-127.863379,-74.719238],[-129.79082,-74.891406],[-132.049365,-74.765723],[-133.474854,-74.851855],[-134.117139,-74.829688],[-134.840381,-74.694141],[-135.362061,-74.69043],[-136.227832,-74.836035],[-136.549512,-75.139453],[-137.090137,-75.152637],[-137.618164,-75.075586],[-139.148828,-75.160156],[-139.691162,-75.212793],[-140.709277,-75.497656],[-141.22334,-75.545898],[-141.505713,-75.69043],[-142.329834,-75.490918],[-143.574268,-75.563574],[-144.220605,-75.731445],[-145.105518,-75.878906],[-145.987744,-75.88877],[-146.383008,-76.099707],[-145.642334,-76.325684],[-145.885742,-76.424316],[-146.817334,-76.318066],[-147.860205,-76.130859],[-148.320312,-76.104492],[-148.894824,-76.271777],[-149.654248,-76.365332],[-148.601074,-76.493262],[-147.34043,-76.438379],[-146.77666,-76.507031],[-145.750488,-76.749023],[-145.629248,-76.953711],[-145.966992,-77.06875],[-145.515723,-77.199219],[-145.807959,-77.273242],[-145.600635,-77.455273],[-146.390625,-77.472461],[-146.927588,-77.259863],[-147.730225,-77.309766],[-148.572412,-77.105078],[-148.744385,-77.343262],[-148.259814,-77.412598],[-148.339941,-77.551172],[-149.125977,-77.642676],[-149.717725,-77.797461],[-150.305566,-77.731445],[-151.718994,-77.425879],[-153.460596,-77.416016],[-153.909961,-77.226953],[-154.814941,-77.126953],[-156.21123,-77.105664],[-156.667676,-77.212988],[-157.465381,-77.23125],[-158.213574,-77.157129],[-158.22998,-77.497656],[-158.500391,-77.77832],[-158.285889,-77.950781],[-157.266797,-78.199805],[-155.341504,-78.191992],[-154.293018,-78.259082],[-154.716406,-78.398145],[-155.919775,-78.510352],[-156.469336,-78.635352],[-155.209912,-78.964844],[-153.517578,-79.117285],[-152.243506,-79.102734],[-152.091406,-79.241602],[-150.490625,-79.545605],[-149.051416,-79.656934],[-148.176514,-79.775879],[-148.317139,-80.070996],[-150.220703,-80.15],[-150.575391,-80.353711],[-150.132764,-80.510449],[-149.214063,-80.604199],[-149.147168,-80.718652],[-148.023438,-80.835742],[-148.122754,-80.900781],[-152.034766,-81.029004],[-155.921143,-81.133398],[-156.528223,-81.162305],[-157.03252,-81.319141],[-154.907813,-81.510352],[-153.956641,-81.700195],[-154.717432,-81.940723],[-153.009863,-82.449609],[-153.822266,-82.669336],[-155.150244,-82.858398],[-155.459424,-82.980762],[-157.679492,-83.129492],[-157.027783,-83.234375],[-157.428467,-83.346387],[-159.444385,-83.543164],[-160.594727,-83.489551],[-162.197266,-83.518945],[-163.111084,-83.329102],[-164.445557,-83.467676],[-164.915625,-83.290039],[-166.216895,-83.200781],[-168.417676,-83.228809],[-169.440771,-83.095996],[-171.821289,-82.847461],[-173.071143,-82.91582],[-174.065967,-82.900098],[-169.167676,-83.449805],[-167.552881,-83.81084],[-164.950879,-83.805859],[-164.08291,-83.946094],[-164.685059,-84.15459],[-163.765186,-84.324219],[-165.125146,-84.374609],[-163.568506,-84.528711],[-158.303418,-84.778027],[-156.986328,-84.811133],[-157.12749,-85.185645],[-160.820898,-84.986621],[-162.933398,-84.901172],[-166.911084,-84.819238],[-168.667773,-84.683594],[-171.703662,-84.542383],[-178.389502,-84.3375],[-180,-84.351562],[-180,-85.05752],[-180,-85.763379],[-180,-86.469336],[-180,-87.175195],[-180,-87.881055],[-180,-88.587012],[-180,-89.292969],[-180,-89.58291],[-180,-89.998926],[180,-89.998926],[180,-84.351562],[179.403027,-84.206152],[173.822363,-83.810156],[172.873926,-83.673145],[171.917188,-83.644043],[171.220703,-83.475],[169.837891,-83.399023],[168.110059,-83.362012],[168.607324,-83.065332],[167.232617,-82.952344],[166.445898,-82.722168],[164.747168,-82.354395],[163.268555,-82.463281],[161.283203,-82.489941],[161.166504,-82.407813],[163.680078,-82.187305],[162.821191,-81.866211],[161.582129,-81.609766],[160.907813,-81.390234],[160.716797,-80.907422],[160.830273,-80.729883],[160.542188,-80.425],[158.573633,-80.423438],[158.76748,-80.293359],[160.558789,-80.010547],[160.20918,-79.554395],[160.646094,-79.426855],[160.482715,-79.201465],[161.190527,-78.978711],[161.951465,-79.02998],[161.501758,-78.677246],[161.974512,-78.694238],[162.639453,-78.897754],[164.634766,-78.603223],[166.116797,-78.571094],[166.524609,-78.694922],[167.049023,-78.686035],[167.058008,-78.518457],[166.208594,-78.45166],[165.050586,-78.226074],[164.628125,-78.315625],[163.977637,-78.223828],[164.429688,-78.042188],[163.619141,-77.582324],[163.607617,-77.387793],[163.086914,-77.032324],[162.450293,-76.955664],[162.762793,-76.745703],[162.824609,-76.463574],[162.727539,-76.225391],[162.436523,-76.154883],[162.815723,-75.846191],[162.239063,-75.62168],[161.903516,-75.404199],[160.910742,-75.334668],[161.67959,-75.217773],[162.087793,-75.261621],[162.533594,-75.16709],[162.604102,-74.823145],[163.167383,-74.601953],[164.174023,-74.523242],[165.302832,-74.59375],[165.263086,-74.426172],[164.775684,-74.028516],[164.979883,-73.925879],[164.749609,-73.558789],[164.812988,-73.396777],[165.129492,-73.382617],[165.346973,-73.879395],[165.733691,-73.866699],[166.106055,-73.735156],[166.159375,-73.533789],[166.996094,-73.544336],[167.61582,-73.336816],[166.833984,-73.224316],[166.466992,-72.997461],[166.882812,-73.01123],[167.155664,-73.147266],[168.735938,-73.091211],[169.033398,-73.200391],[169.54502,-73.050391],[169.828613,-72.728809],[168.82002,-72.552441],[169.440332,-72.486816],[170.047754,-72.600586],[170.28584,-72.477148],[169.953516,-72.402832],[170.030078,-72.115527],[170.224023,-71.947949],[170.675391,-71.968555],[170.859082,-71.868555],[170.435742,-71.41875],[170.162305,-71.630469],[168.797852,-71.274805],[168.172656,-71.183203],[167.569434,-70.810254],[166.626953,-70.664258],[165.853906,-70.645313],[164.403223,-70.510449],[163.998438,-70.636523],[163.34873,-70.620898],[162.674805,-70.30459],[162.216016,-70.333984],[162.021973,-70.439844],[162.039648,-70.625],[162.286523,-70.969043],[161.625098,-70.916113],[161.424512,-70.826758],[161.037012,-70.317188],[160.651855,-70.080566],[160.209668,-69.974902],[160.125781,-69.734277],[159.783984,-69.521875],[159.386328,-69.468359],[158.157813,-69.208887],[157.775781,-69.204688],[157.481348,-69.308691],[157.046387,-69.17627],[156.488672,-69.183008],[155.520313,-69.024414],[154.9875,-68.841309],[154.199707,-68.417871],[153.784668,-68.349609],[153.705273,-68.728906],[153.081836,-68.856836],[152.545508,-68.72959],[151.562109,-68.693652],[151.138867,-68.76416],[151.068262,-68.384961],[150.342188,-68.435742],[149.716895,-68.417773],[148.45625,-68.466992],[147.568555,-68.375098],[147.093652,-68.368652],[146.797656,-68.273633],[146.827832,-67.964648],[145.975195,-67.624219],[145.556445,-67.590918],[145.12793,-67.625977],[144.879102,-67.720898],[144.404297,-67.794238],[143.941992,-67.794043],[144.621191,-67.141406],[144.347852,-67.017969],[143.911133,-67.090723],[143.862695,-66.938574],[143.448242,-66.876758],[142.888379,-67.000098],[142.32666,-66.94834],[141.972852,-66.806738],[141.285938,-66.831836],[140.901563,-66.751953],[139.900098,-66.715137],[139.241602,-66.574023],[138.139941,-66.543945],[137.753809,-66.406445],[136.88916,-66.339648],[136.55332,-66.438965],[136.193945,-66.292188],[135.351953,-66.127148],[134.971484,-66.330176],[134.289453,-66.476758],[134.178906,-66.277051],[133.842773,-66.153613],[133.444531,-66.081445],[132.874316,-66.178027],[132.320312,-66.16543],[131.830859,-66.23584],[130.951758,-66.191406],[130.120508,-66.291504],[129.741211,-66.468555],[129.236914,-67.041602],[128.430566,-67.119141],[127.968066,-67.02793],[127.541211,-67.051074],[126.873633,-66.759375],[126.664746,-66.497559],[125.865625,-66.364453],[125.397949,-66.424414],[125.095117,-66.641113],[124.597852,-66.708203],[124.196191,-66.600781],[123.969336,-66.608105],[123.22168,-66.745117],[122.182813,-66.859473],[121.487598,-67.090723],[120.978711,-67.135742],[120.400391,-67.236035],[119.133008,-67.370703],[119.280664,-67.199219],[119.953711,-67.075879],[119.767969,-66.991504],[118.964648,-67.144824],[118.518945,-67.160938],[118.138672,-67.082422],[117.744727,-67.128516],[117.131934,-67.114355],[116.713477,-67.047168],[115.885254,-67.201953],[115.38418,-67.238086],[114.65791,-67.387891],[114.026563,-67.441211],[113.991211,-67.211914],[114.570605,-67.108496],[115.27373,-67.02793],[115.635352,-66.771191],[115.310352,-66.56084],[115.082422,-66.492969],[114.618555,-66.467969],[114.336914,-66.360156],[113.954492,-66.060449],[113.709766,-65.92959],[113.099414,-65.799902],[111.453125,-65.960938],[110.906738,-66.07666],[110.587012,-66.312305],[110.622266,-66.524023],[109.82373,-66.833691],[109.462793,-66.908691],[108.910059,-66.861914],[108.376172,-66.76582],[108.15791,-66.639063],[107.785059,-66.664062],[107.667285,-66.580371],[107.170898,-66.47041],[106.386914,-66.410645],[105.000391,-66.164062],[104.666992,-66.136816],[103.951172,-65.988086],[103.63877,-65.998926],[102.674219,-65.865137],[102.174121,-65.954199],[101.474414,-65.951172],[101.327148,-66.100488],[100.889063,-66.358008],[100.211719,-66.473926],[99.370117,-66.648242],[98.858887,-66.670801],[98.720117,-66.553125],[98.257617,-66.46748],[97.719824,-66.607324],[97.100586,-66.499414],[96.42373,-66.599609],[95.541016,-66.630957],[94.839844,-66.501367],[94.313477,-66.647168],[93.964258,-66.689648],[93.358008,-66.585449],[92.730566,-66.624414],[92.073438,-66.50791],[91.02168,-66.602832],[90.547266,-66.734277],[89.698438,-66.823047],[88.789453,-66.791992],[87.980273,-66.788477],[87.084863,-66.940137],[86.750195,-67.037109],[86.118359,-67.05498],[85.710742,-67.161328],[84.74834,-67.102246],[84.485156,-67.114453],[83.493652,-67.441211],[83.304297,-67.603027],[82.607031,-67.613086],[82.016992,-67.690039],[80.363086,-67.946875],[79.287793,-68.119336],[78.72627,-68.277832],[78.563477,-68.39375],[78.488965,-68.625781],[78.015137,-68.891895],[77.81748,-69.068945],[77.191992,-69.205957],[76.359766,-69.490234],[75.891211,-69.575586],[75.820703,-69.725488],[75.423828,-69.893066],[74.571094,-69.87959],[73.942188,-69.743164],[73.324805,-69.848926],[72.82207,-70.095898],[72.760352,-70.395703],[72.262598,-70.656738],[71.904883,-70.706641],[71.464844,-71.15459],[71.276758,-71.623926],[70.616211,-71.84209],[70.294336,-72.055371],[69.962109,-72.13291],[69.554688,-72.374512],[68.419824,-72.515039],[67.971387,-72.750586],[67.971387,-73.085645],[67.32207,-73.300293],[66.569141,-73.20918],[66.497656,-73.125488],[66.89209,-72.948633],[67.113379,-72.641113],[67.432227,-72.00293],[68.037402,-71.391016],[68.62373,-71.181445],[68.872754,-71.035156],[69.188379,-70.70459],[69.250195,-70.431055],[69.020898,-70.325195],[68.559375,-70.4125],[67.94082,-70.422852],[67.267969,-70.273145],[67.575391,-70.087891],[68.178125,-69.837305],[68.74375,-69.921387],[69.082617,-69.866602],[69.188477,-69.654883],[68.879785,-69.469727],[68.90625,-69.372754],[69.371875,-69.331445],[69.629492,-69.231641],[69.530762,-69.024023],[69.645605,-68.932227],[69.53418,-68.736914],[69.982227,-68.464258],[69.603027,-68.041016],[69.655957,-67.864551],[69.416406,-67.742969],[68.899512,-67.862109],[68.32793,-67.889551],[67.174805,-67.767969],[66.488379,-67.765527],[64.573633,-67.62041],[63.699023,-67.508301],[63.237598,-67.526855],[62.687891,-67.647559],[62.173926,-67.575488],[61.309082,-67.540234],[60.482031,-67.385156],[59.867578,-67.403125],[59.250781,-67.484961],[58.737402,-67.22959],[57.627441,-67.014063],[56.891602,-67.05625],[56.154883,-67.264551],[55.802734,-67.199316],[56.391406,-66.973828],[56.453223,-66.779785],[57.185449,-66.613281],[56.859375,-66.423438],[56.361523,-66.372754],[55.710352,-66.07998],[55.29043,-65.954199],[54.947852,-65.916309],[53.671777,-65.858691],[52.955273,-65.945508],[51.88457,-66.02002],[50.936914,-66.31543],[50.332422,-66.444629],[50.306055,-66.75332],[50.520898,-66.82002],[50.605957,-67.150195],[50.006152,-67.175195],[49.24707,-66.941602],[48.830273,-66.938281],[48.465234,-67.043457],[48.713672,-67.216895],[49.219336,-67.226855],[48.630371,-67.520605],[48.648047,-67.794043],[48.32168,-67.91748],[48.209961,-67.699316],[47.958594,-67.660059],[47.489844,-67.72793],[47.117188,-67.572656],[47.40293,-67.40918],[46.883887,-67.274805],[46.559668,-67.268164],[46.317285,-67.401953],[46.399023,-67.617578],[45.887695,-67.659766],[45.569336,-67.736426],[44.989551,-67.769238],[44.699805,-67.904297],[42.819531,-68.123242],[42.408789,-68.351855],[41.824609,-68.432617],[41.132715,-68.575098],[40.81709,-68.723633],[40.483887,-68.738867],[39.863867,-68.966992],[39.705078,-69.425586],[38.859277,-70.006055],[38.499414,-70.056152],[38.144336,-69.824219],[37.559766,-69.718359],[37.114844,-69.810449],[36.71875,-69.652246],[35.224805,-69.637305],[35.131348,-69.486914],[34.595898,-69.094531],[33.813672,-69.099316],[33.77207,-69.02002],[34.219336,-68.790625],[34.192871,-68.702441],[33.121484,-68.68916],[32.641602,-68.868945],[32.567578,-69.074219],[32.903125,-69.378711],[32.989355,-69.624219],[32.809766,-69.909375],[32.621289,-70.000586],[31.378809,-70.225781],[30.00332,-70.3],[29.463867,-70.40625],[28.911523,-70.583105],[27.697754,-70.772461],[27.206836,-70.910938],[26.498828,-71.019531],[25.974121,-71.037402],[25.187402,-70.970996],[24.756738,-70.89209],[24.385742,-70.704395],[24.235742,-70.448633],[23.803613,-70.40459],[23.406836,-70.723242],[22.979004,-70.810352],[22.44541,-70.739746],[22.233691,-70.642676],[22.366016,-70.475098],[21.70498,-70.258496],[21.337305,-70.495117],[21.070801,-70.843457],[20.128125,-70.917578],[19.265137,-70.902344],[19.026563,-70.674023],[19.196387,-70.293164],[18.877246,-70.201367],[18.432617,-70.289941],[18.124609,-70.540332],[16.70918,-70.397266],[16.584863,-70.203809],[16.025195,-70.193457],[15.806934,-70.324023],[14.491797,-70.299609],[13.822656,-70.343164],[13.297949,-70.22959],[12.929395,-70.213379],[12.461621,-70.370117],[12.067969,-70.616504],[11.70127,-70.766602],[11.203516,-70.728711],[10.217676,-70.50791],[9.613477,-70.269043],[9.141602,-70.183691],[8.81748,-70.39082],[8.523047,-70.473828],[7.676758,-70.356348],[7.401172,-70.494434],[6.508008,-70.586426],[5.113086,-70.655664],[3.506934,-70.844434],[2.609473,-70.900098],[1.908691,-71.003613],[0.834961,-71.202344],[0.154199,-71.397949],[-0.543164,-71.712695],[-0.759863,-71.630273],[-0.89585,-71.349219],[-2.0146,-71.433398],[-2.261328,-71.357129],[-2.812012,-71.320996],[-3.713184,-71.374609],[-4.450146,-71.327734],[-5.950049,-71.341602],[-6.080273,-71.154102],[-5.587891,-70.856738],[-5.936328,-70.712695],[-6.838184,-70.844531],[-7.388135,-70.786914],[-7.873486,-70.940332],[-7.617969,-71.121484],[-7.713721,-71.546484],[-7.91582,-71.635352],[-8.646484,-71.672754],[-9.230664,-71.174023],[-9.887988,-71.027344],[-10.520068,-71.295508],[-10.825439,-71.55332],[-11.663037,-71.33125],[-12.073682,-71.296875],[-12.351318,-71.389746],[-12.148193,-71.613672],[-11.333057,-71.785547],[-10.958105,-71.901953],[-11.496973,-72.412891],[-12.746924,-72.628906],[-13.208594,-72.785059],[-14.297754,-72.733008],[-14.000098,-73.000586],[-14.320996,-73.123047],[-15.007031,-73.047461],[-15.595996,-73.096777],[-16.435205,-73.425684],[-16.518848,-73.644043],[-15.935645,-73.757617],[-16.220117,-73.915723],[-15.748828,-73.945605],[-14.611426,-73.851758],[-14.573828,-73.9375],[-15.289746,-74.280859],[-15.67251,-74.407324],[-16.429541,-74.323926],[-17.299023,-74.333887],[-17.922754,-74.699219],[-18.221191,-74.974512],[-18.749219,-75.24209],[-18.516943,-75.389941],[-19.493018,-75.539941],[-20.4875,-75.491992],[-21.433789,-75.683105],[-22.465479,-75.661035],[-24.26958,-75.766992],[-26.059326,-75.957227],[-27.134521,-76.157324],[-28.933643,-76.370313],[-30.221973,-76.660352],[-30.489209,-76.762305],[-31.675781,-77.033105],[-32.063379,-77.159863],[-32.614062,-77.14082],[-34.075781,-77.425391],[-34.551465,-77.728516],[-35.087598,-77.837109],[-35.509277,-78.041211],[-36.180859,-78.468359],[-36.23916,-78.774219],[-35.515967,-78.933008],[-32.994238,-79.228809],[-31.412793,-79.145215],[-30.315918,-79.163086],[-30.21123,-79.485254],[-29.949316,-79.599023],[-25.258643,-79.7625],[-24.299854,-79.770801],[-23.406836,-79.858984],[-24.240283,-80.061914],[-29.329102,-80.17207],[-31.01543,-80.308105],[-31.312109,-80.450098],[-32.255713,-80.460742],[-35.327002,-80.650684],[-35.965771,-80.890918],[-37.209277,-81.063867],[-38.771729,-80.882324],[-41.433838,-81.297754],[-43.180371,-82.017188],[-43.669336,-82.270117],[-45.04375,-82.437988],[-46.516748,-82.45459],[-46.046387,-82.158691],[-46.258057,-81.946973],[-47.360254,-82.004004],[-48.360791,-81.892285],[-50.653027,-81.975488],[-52.414941,-82.134863],[-53.986084,-82.200586],[-55.294678,-82.464844],[-55.800684,-82.478418],[-57.353613,-82.840234],[-59.516016,-83.458398],[-60.983203,-83.427539],[-61.589844,-83.341211],[-61.218408,-82.991797],[-61.916992,-82.97666],[-62.735645,-82.527344],[-60.817187,-82.275781],[-62.645312,-82.263086],[-64.91958,-82.370508],[-65.913184,-82.183203],[-65.916211,-81.902246],[-64.137109,-81.869336],[-64.696094,-81.652344],[-62.541846,-81.67832],[-62.490234,-81.556738],[-64.750146,-81.52168],[-65.573682,-81.460547],[-67.96543,-81.148242],[-68.589844,-80.967969],[-69.181592,-81.004883],[-70.239111,-80.856641],[-70.560059,-80.646582],[-71.017676,-80.619043],[-72.173584,-80.763867],[-73.029492,-80.917285],[-73.937842,-80.815918],[-74.806592,-80.886523],[-75.236523,-80.802637],[-75.709033,-80.382715],[-76.407324,-80.094922],[-78.176074,-80.166797],[-79.6604,-79.996875],[-77.701855,-80.00957],[-76.557861,-79.903516],[-76.031592,-79.627051],[-76.217676,-79.387207],[-76.499121,-79.325684],[-79.455664,-79.304395],[-80.151172,-79.268066],[-80.891992,-79.501855],[-81.660889,-79.099805],[-83.26001,-78.774219],[-83.762744,-78.461133],[-83.245898,-78.357031],[-80.292285,-78.822754],[-78.711621,-78.752051],[-77.869141,-78.745508],[-77.54502,-78.65957],[-77.432568,-78.434668],[-77.858105,-78.350977],[-81.441016,-77.885645],[-80.601562,-77.751953],[-79.679004,-77.842578],[-77.742139,-77.940332],[-74.812061,-78.177832],[-74.042139,-78.109375],[-73.251562,-77.894238],[-72.851953,-77.590234],[-74.580615,-77.478027],[-75.386914,-77.474219],[-76.248584,-77.274902],[-77.167969,-76.833887],[-77.190039,-76.629785],[-76.244189,-76.585352],[-75.268359,-76.581445],[-73.879785,-76.696777],[-72.722314,-76.689063],[-71.798682,-76.752734],[-70.89502,-76.739355],[-70.095508,-76.654492],[-69.915283,-76.521973],[-69.304395,-76.350781],[-67.518213,-76.109766],[-66.37041,-76.013379],[-63.363379,-75.451465],[-63.303809,-75.352246],[-64.279541,-75.292871],[-63.231055,-75.153809],[-63.336914,-75.034766],[-63.924707,-75.004492],[-62.708496,-74.737109],[-62.372461,-74.952148],[-61.928027,-74.862793],[-61.894434,-74.713086],[-62.225684,-74.505566],[-61.010791,-74.47832],[-60.704297,-74.307129],[-61.331787,-74.328613],[-61.570801,-74.194727],[-61.04165,-74.121973],[-61.203418,-73.956641],[-60.902734,-73.870605],[-60.878857,-73.612012],[-61.405469,-73.46709],[-61.787598,-73.254883],[-61.428418,-73.191406],[-61.081348,-73.328223],[-60.560693,-73.211426],[-60.122217,-73.275293],[-59.956836,-73.030566],[-60.384668,-73.007324],[-60.532324,-72.67334],[-60.93916,-72.699707],[-61.286133,-72.600781],[-61.279785,-72.468262],[-60.730322,-72.425977],[-60.719434,-72.072656],[-61.310254,-72.112695],[-62.256641,-72.017578],[-61.938916,-71.903613],[-61.035059,-71.82002],[-60.949023,-71.747266],[-61.213574,-71.564063],[-61.789551,-71.616016],[-61.003076,-71.319336],[-61.017236,-71.166895],[-61.312842,-70.867578],[-61.961084,-70.900586],[-61.994141,-70.728613],[-61.696484,-70.675781],[-61.504687,-70.490527],[-62.000781,-70.497168],[-62.377783,-70.364844],[-61.961084,-70.120117],[-62.202441,-70.02793],[-62.407129,-69.827246],[-62.450537,-69.584375],[-62.994092,-69.328906],[-63.455957,-69.041895],[-63.343506,-68.810449],[-63.747021,-68.70459],[-63.796484,-68.469727],[-64.169238,-68.58252],[-64.078467,-68.771191],[-64.898291,-68.67334],[-65.241602,-68.583203],[-64.996484,-68.407813],[-65.365186,-68.2875],[-64.895947,-68.168359],[-65.639502,-68.130566],[-65.469434,-68.009473],[-65.600049,-67.875684],[-65.418066,-67.65957],[-65.523438,-67.444629],[-65.443115,-67.326172],[-64.819287,-67.307324],[-64.878125,-67.024512],[-64.686279,-66.80625],[-64.042578,-66.927246],[-63.754736,-66.872949],[-64.077734,-66.654102],[-63.755664,-66.408984],[-63.752539,-66.277734],[-63.25752,-66.26377],[-62.704785,-66.680078],[-62.615381,-66.435742],[-62.682031,-66.237305],[-62.24126,-66.19707],[-61.875439,-66.296094],[-61.526123,-66.225684],[-60.902734,-66.191016],[-60.618311,-65.933105],[-61.266113,-65.97998],[-61.359131,-66.058789],[-61.839062,-66.119531],[-62.169141,-66.031348],[-62.305029,-65.84043],[-61.991406,-65.58916],[-62.145312,-65.331738],[-61.947852,-65.192285],[-61.577441,-65.185645],[-61.736182,-65.033496],[-61.059863,-64.98125],[-60.659961,-64.729199],[-59.963086,-64.431348],[-59.573193,-64.530762],[-59.546777,-64.358789],[-59.229395,-64.443555],[-58.895459,-64.388867],[-58.838965,-64.186816],[-58.531885,-63.91543],[-58.262988,-63.763379],[-57.460645,-63.513574],[-57.152246,-63.479102],[-57.119189,-63.637793],[-56.834766,-63.63125],[-57.020654,-63.372852]]]},"properties":{"scalerank":0,"featurecla":"Land","min_zoom":0}}
]}