{"type":"FeatureCollection", "features": [
{"type":"Feature","geometry":{"type":"Polygon","coordinates":[[[-120.55625,-73.756055],[-123.112158,-73.682227],[-122.624707,-73.965527],[-122.859082,-74.342676],[-121.062402,-74.337305],[-120.272461,-73.98916],[-120.55625,-73.756055]]]},"properties":{"scalerank":0,"featurecla":"Land","min_zoom":1}},
{"type":"Feature","geometry":{"type":"Polygon","coordinates":[[[-126.329883,-73.28623],[-127.414355,-73.516309],[-124.872998,-74.208301],[-124.993408,-73.829785],[-126.329883,-73.28623]]]},"properties":{"scalerank":0,"featurecla":"Land","min_zoom":1}},
{"type":"Feature","geometry":{"type":"Polygon","coordinates":[[[-66.173633,-80.077832],[-65.504443,-79.954297],[-66.01416,-79.624414],[-66.978906,-79.568652],[-66.904199,-79.908887],[-66.173633,-80.077832]]]},"properties":{"scalerank":0,"featurecla":"Land","min_zoom":2}},
{"type":"Feature","geometry":{"type":"Polygon","coordinates":[[[-57.845996,-64.053906],[-58.304443,-64.314551],[-57.327637,-64.237793],[-57.845996,-64.053906]]]},"properties":{"scalerank":0,"featurecla":"Land","min_zoom":0}},
{"type":"Feature","geometry":{"type":"Polygon","coordinates":[[[-63.180566,-64.469531],[-64.171094,-64.581934],[-63.646875,-64.803027],[-63.180566,-64.469531]]]},"properties":{"scalerank":0,"featurecla":"Land","min_zoom":2}},
{"type":"Feature","geometry":{"type":"Polygon","coordinates":[[[-73.706641,-70.635156],[-75.007471,-70.608887],[-76.500244,-70.941406],[-76.176318,-71.132422],[-74.205029,-70.924121],[-73.706641,-70.635156]]]},"properties":{"scalerank":0,"featurecla":"Land","min_zoom":2}},
{"type":"Feature","geometry":{"type":"Polygon","coordinates":[[[-74.987109,-69.727832],[-75.726758,-70.096094],[-74.848828,-70.179297],[-74.987109,-69.727832]]]},"properties":{"scalerank":0,"featurecla":"Land","min_zoom":2}},
{"type":"Feature","geometry":{"type":"Polygon","coordinates":[[[-98.091113,-71.9125],[-98.61543,-71.76377],[-102.128125,-71.985449],[-98.407812,-72.547656],[-96.051758,-72.577246],[-95.609375,-72.068457],[-96.869434,-71.850977],[-98.091113,-71.9125]]]},"properties":{"scalerank":0,"featurecla":"Land","min_zoom":1}},
{"type":"Feature","geometry":{"type":"Polygon","coordinates":[[[-74.354443,-73.098438],[-75.376855,-72.82041],[-75.90083,-73.332617],[-74.574658,-73.611328],[-74.354443,-73.098438]]]},"properties":{"scalerank":0,"featurecla":"Land","min_zoom":2}},
{"type":"Feature","geometry":{"type":"Polygon","coordinates":[[[-67.988477,-67.474414],[-67.687842,-67.147363],[-68.335938,-66.802051],[-69.082422,-67.403125],[-67.988477,-67.474414]]]},"properties":{"scalerank":0,"featurecla":"Land","min_zoom":2}},
{"type":"Feature","geometry":{"type":"Polygon","coordinates":[[[-159.05293,-79.807422],[-159.684082,-79.402441],[-161.642969,-78.900977],[-163.256104,-78.72207],[-164.225781,-79.320801],[-161.865527,-79.703516],[-159.05293,-79.807422]]]},"properties":{"scalerank":0,"featurecla":"Land","min_zoom":1}},
{"type":"Feature","geometry":{"type":"Polygon","coordinates":[[[-70.334082,-79.679883],[-67.478516,-78.3625],[-70.543994,-78.883691],[-71.783545,-79.444336],[-70.334082,-79.679883]]]},"properties":{"scalerank":0,"featurecla":"Land","min_zoom":1.5}},
{"type":"Feature","geometry":{"type":"Polygon","coordinates":[[[-45.222656,-78.810742],[-43.808594,-78.286523],[-45.530273,-77.881445],[-46.825684,-77.785254],[-49.08125,-78.047461],[-50.219629,-78.605273],[-50.733057,-79.282715],[-50.339258,-79.479492],[-52.297168,-80.141211],[-53.482324,-80.188965],[-54.1625,-80.870117],[-49.773047,-80.78418],[-49.1875,-80.642773],[-43.52793,-80.191406],[-42.965381,-79.477051],[-43.72207,-78.818457],[-45.222656,-78.810742]]]},"properties":{"scalerank":0,"featurecla":"Land","min_zoom":0}},
{"type":"Feature","geometry":{"type":"Polygon","coordinates":[[[-59.733936,-80.344141],[-59.706348,-79.875293],[-61.343115,-79.886816],[-62.518799,-80.37334],[-65.980078,-80.384473],[-64.268262,-80.748535],[-60.582812,-80.948145],[-59.733936,-80.344141]]]},"properties":{"scalerank":0,"featurecla":"Land","min_zoom":1}},
{"type":"Feature","geometry":{"type":"Polygon","coordinates":[[[-70.051123,-69.189063],[-70.416992,-68.788965],[-71.868994,-68.941016],[-71.853613,-69.969336],[-70.328076,-70.36123],[-71.061084,-70.537109],[-71.194043,-70.984766],[-72.621582,-71.388379],[-74.187207,-71.383008],[-75.292578,-71.614941],[-75.353076,-71.878418],[-73.899268,-72.152344],[-72.412207,-71.662305],[-71.106641,-72.04707],[-73.086377,-72.407813],[-72.36748,-72.669727],[-69.209326,-72.53418],[-68.241016,-71.822168],[-68.335986,-70.856055],[-69.416943,-69.583203],[-70.051123,-69.189063]]]},"properties":{"scalerank":0,"featurecla":"Land","min_zoom":1}},
{"type":"Feature","geometry":{"type":"Polygon","coordinates":[[[-66.36552268929556,-55],[-66.67318618695619,-55],[-66.511133,-55.032129],[-66.36552268929556,-55]]]},"properties":{"scalerank":0,"featurecla":"Land","min_zoom":0}},
{"type":"Feature","geometry":{"type":"Polygon","coordinates":[[[-67.575195,-55.889648],[-67.544824,-55.825977],[-67.762061,-55.816113],[-67.831543,-55.864844],[-67.575195,-55.889648]]]},"properties":{"scalerank":0,"featurecla":"Land","min_zoom":3}},
{"type":"Feature","geometry":{"type":"Polygon","coordinates":[[[163.975977,-74.832715],[164.208496,-74.607715],[163.741699,-74.711523],[163.975977,-74.832715]]]},"properties":{"scalerank":0,"featurecla":"Land","min_zoom":3}},
{"type":"Feature","geometry":{"type":"Polygon","coordinates":[[[164.833594,-67.54043],[164.918652,-67.447461],[164.825,-67.326074],[164.638965,-67.500098],[164.833594,-67.54043]]]},"properties":{"scalerank":0,"featurecla":"Land","min_zoom":3}},
{"type":"Feature","geometry":{"type":"Polygon","coordinates":[[[167.642773,-78.141406],[166.863672,-78.196387],[166.111133,-78.089648],[166.121875,-78.274609],[167.376953,-78.249023],[167.642773,-78.141406]]]},"properties":{"scalerank":0,"featurecla":"Land","min_zoom":3}},
{"type":"Feature","geometry":{"type":"Polygon","coordinates":[[[163.301953,-66.821191],[163.237891,-66.708789],[163.089648,-66.700586],[163.163867,-66.819141],[163.301953,-66.821191]]]},"properties":{"scalerank":0,"featurecla":"Land","min_zoom":3}},
{"type":"Feature","geometry":{"type":"Polygon","coordinates":[[[167.084082,-77.32168],[166.236816,-77.547461],[168.322559,-77.68252],[168.450781,-77.386133],[167.084082,-77.32168]]]},"properties":{"scalerank":0,"featurecla":"Land","min_zoom":2}},
{"type":"Feature","geometry":{"type":"Polygon","coordinates":[[[169.843652,-73.60498],[169.960352,-73.514355],[169.783203,-73.324219],[169.479492,-73.539453],[169.843652,-73.60498]]]},"properties":{"scalerank":0,"featurecla":"Land","min_zoom":3}},
{"type":"Feature","geometry":{"type":"Polygon","coordinates":[[[162.968066,-75.56709],[162.72002,-75.59668],[162.591211,-75.668555],[162.788281,-75.696191],[162.968066,-75.56709]]]},"properties":{"scalerank":0,"featurecla":"Land","min_zoom":4}},
{"type":"Feature","geometry":{"type":"Polygon","coordinates":[[[100.981445,-65.677539],[100.883398,-65.378125],[100.409375,-65.465625],[100.546875,-65.70127],[100.981445,-65.677539]]]},"properties":{"scalerank":0,"featurecla":"Land","min_zoom":2}},
{"type":"Feature","geometry":{"type":"Polygon","coordinates":[[[85.822363,-66.95332],[85.80625,-66.774609],[85.358789,-66.854297],[85.822363,-66.95332]]]},"properties":{"scalerank":0,"featurecla":"Land","min_zoom":3}},
{"type":"Feature","geometry":{"type":"Polygon","coordinates":[[[92.601367,-65.808301],[92.633789,-65.730664],[92.301465,-65.706738],[92.333008,-65.807227],[92.601367,-65.808301]]]},"properties":{"scalerank":0,"featurecla":"Land","min_zoom":3}},
{"type":"Feature","geometry":{"type":"Polygon","coordinates":[[[86.541797,-66.76748],[86.383301,-66.674805],[86.232227,-66.73291],[86.337012,-66.787598],[86.541797,-66.76748]]]},"properties":{"scalerank":0,"featurecla":"Land","min_zoom":3}},
{"type":"Feature","geometry":{"type":"Polygon","coordinates":[[[85.328516,-66.611914],[85.121094,-66.518555],[85.06875,-66.583789],[85.136133,-66.637109],[85.328516,-66.611914]]]},"properties":{"scalerank":0,"featurecla":"Land","min_zoom":4}},
{"type":"Feature","geometry":{"type":"Polygon","coordinates":[[[69.918359,-71.917773],[69.796094,-71.893945],[69.692578,-71.968262],[69.791992,-72.04668],[69.918359,-71.917773]]]},"properties":{"scalerank":0,"featurecla":"Land","min_zoom":4}},
{"type":"Feature","geometry":{"type":"Polygon","coordinates":[[[68.461719,-72.300098],[68.817188,-72.228711],[68.66709,-72.103125],[68.461719,-72.300098]]]},"properties":{"scalerank":0,"featurecla":"Land","min_zoom":3}},
{"type":"Feature","geometry":{"type":"Polygon","coordinates":[[[96.612695,-66.03584],[96.394531,-66.225],[96.933984,-66.200781],[96.612695,-66.03584]]]},"properties":{"scalerank":0,"featurecla":"Land","min_zoom":3}},
{"type":"Feature","geometry":{"type":"Polygon","coordinates":[[[72.002246,-70.632617],[72,-70.456836],[71.659375,-70.497461],[72.002246,-70.632617]]]},"properties":{"scalerank":0,"featurecla":"Land","min_zoom":3}},
{"type":"Feature","geometry":{"type":"Polygon","coordinates":[[[162.611426,-66.477344],[162.310547,-66.25127],[162.302734,-66.399707],[162.611426,-66.477344]]]},"properties":{"scalerank":0,"featurecla":"Land","min_zoom":3}},
{"type":"Feature","geometry":{"type":"Polygon","coordinates":[[[100.264746,-66.216602],[100.290527,-66.112402],[100.07627,-66.188086],[100.264746,-66.216602]]]},"properties":{"scalerank":0,"featurecla":"Land","min_zoom":4}},
{"type":"Feature","geometry":{"type":"Polygon","coordinates":[[[98.846094,-66.469824],[98.949805,-66.420508],[98.748633,-66.369238],[98.655078,-66.45332],[98.846094,-66.469824]]]},"properties":{"scalerank":0,"featurecla":"Land","min_zoom":3}},
{"type":"Feature","geometry":{"type":"Polygon","coordinates":[[[103.397266,-65.445312],[103.186133,-65.330566],[103.136816,-65.190625],[102.892871,-65.129688],[102.78877,-65.235938],[103.112793,-65.312012],[103.138477,-65.435059],[103.397266,-65.445312]]]},"properties":{"scalerank":0,"featurecla":"Land","min_zoom":3}},
{"type":"Feature","geometry":{"type":"Polygon","coordinates":[[[-147.588281,-76.649805],[-147.899707,-76.558008],[-148.001074,-76.577148],[-147.729639,-76.653418],[-147.588281,-76.649805]]]},"properties":{"scalerank":0,"featurecla":"Land","min_zoom":4}},
{"type":"Feature","geometry":{"type":"Polygon","coordinates":[[[-145.238086,-75.71123],[-145.760791,-75.513867],[-146.042773,-75.611914],[-145.238086,-75.71123]]]},"properties":{"scalerank":0,"featurecla":"Land","min_zoom":3}},
{"type":"Feature","geometry":{"type":"Polygon","coordinates":[[[-146.606738,-76.961328],[-146.244385,-76.883105],[-147.08667,-76.837305],[-146.981445,-77.005664],[-146.606738,-76.961328]]]},"properties":{"scalerank":0,"featurecla":"Land","min_zoom":3}},
{"type":"Feature","geometry":{"type":"Polygon","coordinates":[[[-132.39126,-74.441895],[-132.55249,-74.386621],[-132.857178,-74.461719],[-132.546289,-74.498438],[-132.39126,-74.441895]]]},"properties":{"scalerank":0,"featurecla":"Land","min_zoom":3}},
{"type":"Feature","geometry":{"type":"Polygon","coordinates":[[[-148.59585,-77.006836],[-148.508936,-76.95459],[-149.238086,-76.900195],[-149.244824,-76.993066],[-148.59585,-77.006836]]]},"properties":{"scalerank":0,"featurecla":"Land","min_zoom":3}},
{"type":"Feature","geometry":{"type":"Polygon","coordinates":[[[-149.333252,-76.717383],[-148.983887,-76.845313],[-148.38418,-76.744434],[-149.333252,-76.717383]]]},"properties":{"scalerank":0,"featurecla":"Land","min_zoom":3}},
{"type":"Feature","geometry":{"type":"Polygon","coordinates":[[[-131.066699,-74.583789],[-130.981104,-74.414062],[-131.762695,-74.323828],[-131.840869,-74.542578],[-131.066699,-74.583789]]]},"properties":{"scalerank":0,"featurecla":"Land","min_zoom":2}},
{"type":"Feature","geometry":{"type":"Polygon","coordinates":[[[-119.548926,-74.110254],[-118.959277,-73.809473],[-119.802588,-73.814648],[-119.548926,-74.110254]]]},"properties":{"scalerank":0,"featurecla":"Land","min_zoom":1}},
{"type":"Feature","geometry":{"type":"Polygon","coordinates":[[[-116.738623,-74.165039],[-116.381299,-73.865527],[-117.376465,-74.082813],[-116.738623,-74.165039]]]},"properties":{"scalerank":0,"featurecla":"Land","min_zoom":2}},
{"type":"Feature","geometry":{"type":"Polygon","coordinates":[[[-127.36582,-74.622656],[-127.145166,-74.480176],[-127.852979,-74.331836],[-128.09624,-74.466211],[-127.36582,-74.622656]]]},"properties":{"scalerank":0,"featurecla":"Land","min_zoom":2}},
{"type":"Feature","geometry":{"type":"Polygon","coordinates":[[[-149.218115,-77.336328],[-149.375439,-77.27998],[-149.662354,-77.300977],[-149.438672,-77.370605],[-149.218115,-77.336328]]]},"properties":{"scalerank":0,"featurecla":"Land","min_zoom":4}},
{"type":"Feature","geometry":{"type":"Polygon","coordinates":[[[-161.993799,-83.11875],[-161.635156,-83.026953],[-162.798486,-82.864844],[-163.046533,-83.096777],[-161.993799,-83.11875]]]},"properties":{"scalerank":0,"featurecla":"Land","min_zoom":3}},
{"type":"Feature","geometry":{"type":"Polygon","coordinates":[[[-150.23252,-76.776465],[-150.177393,-76.691309],[-150.837646,-76.71416],[-150.655176,-76.788965],[-150.23252,-76.776465]]]},"properties":{"scalerank":0,"featurecla":"Land","min_zoom":3}},
{"type":"Feature","geometry":{"type":"Polygon","coordinates":[[[-146.690137,-76.246387],[-146.949023,-76.098145],[-147.34541,-76.14668],[-146.690137,-76.246387]]]},"properties":{"scalerank":0,"featurecla":"Land","min_zoom":3}},
{"type":"Feature","geometry":{"type":"Polygon","coordinates":[[[-146.790039,-76.633105],[-147.135303,-76.531543],[-147.355322,-76.618848],[-146.790039,-76.633105]]]},"properties":{"scalerank":0,"featurecla":"Land","min_zoom":3}},
{"type":"Feature","geometry":{"type":"Polygon","coordinates":[[[-160.467139,-81.589453],[-162.456494,-81.313281],[-163.766064,-81.444824],[-160.467139,-81.589453]]]},"properties":{"scalerank":0,"featurecla":"Land","min_zoom":2}},
{"type":"Feature","geometry":{"type":"Polygon","coordinates":[[[-150.39707,-77.369141],[-151.021533,-77.22002],[-151.344482,-77.296289],[-150.39707,-77.369141]]]},"properties":{"scalerank":0,"featurecla":"Land","min_zoom":3}},
{"type":"Feature","geometry":{"type":"Polygon","coordinates":[[[-153.930469,-80.033301],[-155.674268,-79.765527],[-155.751172,-79.82959],[-154.94165,-79.966309],[-153.930469,-80.033301]]]},"properties":{"scalerank":0,"featurecla":"Land","min_zoom":3}},
{"type":"Feature","geometry":{"type":"Polygon","coordinates":[[[-149.230664,-77.120508],[-149.870605,-76.875],[-150.461816,-77.075684],[-149.230664,-77.120508]]]},"properties":{"scalerank":0,"featurecla":"Land","min_zoom":2}},
{"type":"Feature","geometry":{"type":"Polygon","coordinates":[[[-157.9875,-82.10498],[-157.83457,-82.030762],[-158.26084,-81.947266],[-158.545312,-81.948828],[-157.9875,-82.10498]]]},"properties":{"scalerank":0,"featurecla":"Land","min_zoom":3}},
{"type":"Feature","geometry":{"type":"Polygon","coordinates":[[[-5.894092,-70.552246],[-6.068262,-70.404688],[-6.437988,-70.452637],[-6.156104,-70.611523],[-5.894092,-70.552246]]]},"properties":{"scalerank":0,"featurecla":"Land","min_zoom":3}},
{"type":"Feature","geometry":{"type":"Polygon","coordinates":[[[3.036914,-70.597363],[3.259863,-70.448828],[3.072168,-70.381641],[2.631445,-70.500391],[3.036914,-70.597363]]]},"properties":{"scalerank":0,"featurecla":"Land","min_zoom":3}},
{"type":"Feature","geometry":{"type":"Polygon","coordinates":[[[-2.95498,-71.21377],[-3.263037,-71.051758],[-3.403857,-71.119824],[-3.309375,-71.200879],[-2.95498,-71.21377]]]},"properties":{"scalerank":0,"featurecla":"Land","min_zoom":3}},
{"type":"Feature","geometry":{"type":"Polygon","coordinates":[[[1.299316,-70.255176],[1.412207,-70.040723],[1.026758,-70.049805],[0.990332,-70.224316],[1.299316,-70.255176]]]},"properties":{"scalerank":0,"featurecla":"Land","min_zoom":3}},
{"type":"Feature","geometry":{"type":"Polygon","coordinates":[[[-2.532812,-70.767773],[-2.800537,-70.982227],[-2.368945,-71.044434],[-2.092285,-70.820898],[-2.532812,-70.767773]]]},"properties":{"scalerank":0,"featurecla":"Land","min_zoom":2}},
{"type":"Feature","geometry":{"type":"Polygon","coordinates":[[[4.525879,-70.478711],[4.49502,-70.251367],[4.069727,-70.290234],[4.12959,-70.416992],[4.525879,-70.478711]]]},"properties":{"scalerank":0,"featurecla":"Land","min_zoom":3}},
{"type":"Feature","geometry":{"type":"Polygon","coordinates":[[[48.545996,-66.78418],[48.637793,-66.700977],[48.357715,-66.703809],[48.304492,-66.797852],[48.545996,-66.78418]]]},"properties":{"scalerank":0,"featurecla":"Land","min_zoom":3}},
{"type":"Feature","geometry":{"type":"Polygon","coordinates":[[[16.222656,-70.007617],[16.246875,-69.70498],[15.699023,-69.773242],[15.613867,-69.939063],[16.222656,-70.007617]]]},"properties":{"scalerank":0,"featurecla":"Land","min_zoom":2}},
{"type":"Feature","geometry":{"type":"Polygon","coordinates":[[[26.857227,-70.381152],[26.68623,-70.114453],[25.98252,-70.199902],[26.005371,-70.372949],[26.857227,-70.381152]]]},"properties":{"scalerank":0,"featurecla":"Land","min_zoom":2}},
{"type":"Feature","geometry":{"type":"Polygon","coordinates":[[[-31.118848,-79.798438],[-30.422119,-80.01084],[-29.614453,-79.90957],[-30.660156,-79.733105],[-31.118848,-79.798438]]]},"properties":{"scalerank":0,"featurecla":"Land","min_zoom":2}},
{"type":"Feature","geometry":{"type":"Polygon","coordinates":[[[-33.93418,-79.32041],[-35.534668,-79.090039],[-36.481299,-79.294043],[-33.93418,-79.32041]]]},"properties":{"scalerank":0,"featurecla":"Land","min_zoom":2}},
{"type":"Feature","geometry":{"type":"Polygon","coordinates":[[[-3.280225,-70.533789],[-2.738037,-70.507031],[-2.713525,-70.320215],[-3.287451,-70.344043],[-3.280225,-70.533789]]]},"properties":{"scalerank":0,"featurecla":"Land","min_zoom":2}},
{"type":"Feature","geometry":{"type":"Polygon","coordinates":[[[-20.607422,-73.886621],[-21.288281,-73.989355],[-20.845654,-74.437793],[-20.42334,-74.317383],[-20.607422,-73.886621]]]},"properties":{"scalerank":0,"featurecla":"Land","min_zoom":2}},
{"type":"Feature","geometry":{"type":"Polygon","coordinates":[[[-16.104492,-72.679102],[-16.302881,-72.478027],[-16.516553,-72.530859],[-16.453027,-72.652344],[-16.104492,-72.679102]]]},"properties":{"scalerank":0,"featurecla":"Land","min_zoom":3}},
{"type":"Feature","geometry":{"type":"Polygon","coordinates":[[[-12.508887,-72.17334],[-12.788867,-72.006543],[-12.963281,-72.064453],[-12.720166,-72.187695],[-12.508887,-72.17334]]]},"properties":{"scalerank":0,"featurecla":"Land","min_zoom":3}},
{"type":"Feature","geometry":{"type":"Polygon","coordinates":[[[-32.342529,-79.673633],[-31.933447,-79.567871],[-32.376611,-79.534668],[-32.342529,-79.673633]]]},"properties":{"scalerank":0,"featurecla":"Land","min_zoom":3}},
{"type":"Feature","geometry":{"type":"Polygon","coordinates":[[[-45.717773,-60.520898],[-45.70918,-60.64541],[-45.398047,-60.649707],[-45.499707,-60.546484],[-45.717773,-60.520898]]]},"properties":{"scalerank":0,"featurecla":"Land","min_zoom":3}},
{"type":"Feature","geometry":{"type":"Polygon","coordinates":[[[-54.070703,-61.299121],[-54.049902,-61.14209],[-54.192236,-61.246582],[-54.070703,-61.299121]]]},"properties":{"scalerank":0,"featurecla":"Land","min_zoom":4}},
{"type":"Feature","geometry":{"type":"Polygon","coordinates":[[[-67.261914,-79.452637],[-67.068652,-79.268457],[-68.032568,-79.227148],[-68.548926,-79.437402],[-67.261914,-79.452637]]]},"properties":{"scalerank":0,"featurecla":"Land","min_zoom":2}},
{"type":"Feature","geometry":{"type":"Polygon","coordinates":[[[-55.16543,-61.22041],[-55.057617,-61.168652],[-55.387012,-61.072656],[-55.297021,-61.248535],[-55.16543,-61.22041]]]},"properties":{"scalerank":0,"featurecla":"Land","min_zoom":3}},
{"type":"Feature","geometry":{"type":"Polygon","coordinates":[[[-55.528027,-63.173535],[-56.385107,-63.234082],[-56.378516,-63.437305],[-55.528027,-63.173535]]]},"properties":{"scalerank":0,"featurecla":"Land","min_zoom":2}},
{"type":"Feature","geometry":{"type":"Polygon","coordinates":[[[-55.872559,-63.535645],[-55.85791,-63.407324],[-56.209863,-63.436914],[-56.178369,-63.513281],[-55.872559,-63.535645]]]},"properties":{"scalerank":0,"featurecla":"Land","min_zoom":3}},
{"type":"Feature","geometry":{"type":"Polygon","coordinates":[[[-57.240479,-64.566797],[-56.991016,-64.467969],[-57.022559,-64.352344],[-57.445898,-64.459863],[-57.240479,-64.566797]]]},"properties":{"scalerank":0,"featurecla":"Land","min_zoom":3}},
{"type":"Feature","geometry":{"type":"Polygon","coordinates":[[[-58.837939,-62.302539],[-59.063818,-62.239063],[-59.059424,-62.347754],[-58.837939,-62.302539]]]},"properties":{"scalerank":0,"featurecla":"Land","min_zoom":3}},
{"type":"Feature","geometry":{"type":"Polygon","coordinates":[[[-57.978418,-61.911914],[-58.683594,-62.008203],[-58.955225,-62.164258],[-57.962744,-62.077539],[-57.978418,-61.911914]]]},"properties":{"scalerank":0,"featurecla":"Land","min_zoom":2}},
{"type":"Feature","geometry":{"type":"Polygon","coordinates":[[[-61.952441,-64.077148],[-61.798242,-63.966602],[-61.936279,-63.990234],[-62.020752,-64.027344],[-61.952441,-64.077148]]]},"properties":{"scalerank":0,"featurecla":"Land","min_zoom":4}},
{"type":"Feature","geometry":{"type":"Polygon","coordinates":[[[-61.997607,-69.721875],[-61.815967,-69.376172],[-62.49624,-69.288184],[-61.997607,-69.721875]]]},"properties":{"scalerank":0,"featurecla":"Land","min_zoom":2}},
{"type":"Feature","geometry":{"type":"Polygon","coordinates":[[[-63.316211,-64.861133],[-63.459277,-64.796289],[-63.55835,-64.905957],[-63.316211,-64.861133]]]},"properties":{"scalerank":0,"featurecla":"Land","min_zoom":3}},
{"type":"Feature","geometry":{"type":"Polygon","coordinates":[[[-62.325781,-64.424414],[-62.058496,-64.138086],[-62.479736,-64.210645],[-62.746826,-64.47168],[-62.325781,-64.424414]]]},"properties":{"scalerank":0,"featurecla":"Land","min_zoom":2}},
{"type":"Feature","geometry":{"type":"Polygon","coordinates":[[[-62.615088,-63.069336],[-62.411475,-62.971582],[-62.527051,-62.923828],[-62.615088,-63.069336]]]},"properties":{"scalerank":0,"featurecla":"Land","min_zoom":3}},
{"type":"Feature","geometry":{"type":"Polygon","coordinates":[[[-59.389014,-62.444336],[-59.39585,-62.367285],[-59.660693,-62.354297],[-59.525244,-62.451465],[-59.389014,-62.444336]]]},"properties":{"scalerank":0,"featurecla":"Land","min_zoom":3}},
{"type":"Feature","geometry":{"type":"Polygon","coordinates":[[[-56.059961,-63.078516],[-56.488574,-62.982227],[-56.354102,-63.168848],[-56.059961,-63.078516]]]},"properties":{"scalerank":0,"featurecla":"Land","min_zoom":3}},
{"type":"Feature","geometry":{"type":"Polygon","coordinates":[[[-60.625,-62.560059],[-60.378027,-62.616504],[-60.220947,-62.74541],[-60.002734,-62.618457],[-60.139893,-62.54873],[-60.625,-62.560059]]]},"properties":{"scalerank":0,"featurecla":"Land","min_zoom":2}},
{"type":"Feature","geometry":{"type":"Polygon","coordinates":[[[-57.37417,-63.807227],[-57.218018,-63.875586],[-57.16084,-63.815723],[-57.37417,-63.807227]]]},"properties":{"scalerank":0,"featurecla":"Land","min_zoom":3}},
{"type":"Feature","geometry":{"type":"Polygon","coordinates":[[[-61.158447,-69.975781],[-61.151855,-69.883105],[-61.327148,-69.856348],[-61.404346,-69.93252],[-61.158447,-69.975781]]]},"properties":{"scalerank":0,"featurecla":"Land","min_zoom":3}},
{"type":"Feature","geometry":{"type":"Polygon","coordinates":[[[-60.655908,-68.767578],[-60.813574,-68.687695],[-60.894043,-68.758887],[-60.655908,-68.767578]]]},"properties":{"scalerank":0,"featurecla":"Land","min_zoom":3}},
{"type":"Feature","geometry":{"type":"Polygon","coordinates":[[[-60.740625,-70.710547],[-60.487695,-70.64668],[-60.553662,-70.508789],[-60.975537,-70.599121],[-60.740625,-70.710547]]]},"properties":{"scalerank":0,"featurecla":"Land","min_zoom":3}},
{"type":"Feature","geometry":{"type":"Polygon","coordinates":[[[-60.552246,-71.05293],[-60.613135,-70.920117],[-60.946484,-70.967383],[-60.552246,-71.05293]]]},"properties":{"scalerank":0,"featurecla":"Land","min_zoom":3}},
{"type":"Feature","geometry":{"type":"Polygon","coordinates":[[[-60.504883,-62.967383],[-60.637402,-62.895215],[-60.69292,-62.995703],[-60.504883,-62.967383]]]},"properties":{"scalerank":0,"featurecla":"Land","min_zoom":4}},
{"type":"Feature","geometry":{"type":"Polygon","coordinates":[[[-60.653125,-63.866602],[-60.688867,-63.80791],[-60.562354,-63.695898],[-60.79668,-63.716699],[-60.810059,-63.836621],[-60.653125,-63.866602]]]},"properties":{"scalerank":0,"featurecla":"Land","min_zoom":3}},
{"type":"Feature","geometry":{"type":"Polygon","coordinates":[[[-93.795605,-72.919727],[-94.004248,-72.819727],[-94.113184,-72.860059],[-93.795605,-72.919727]]]},"properties":{"scalerank":0,"featurecla":"Land","min_zoom":4}},
{"type":"Feature","geometry":{"type":"Polygon","coordinates":[[[-91.160693,-73.182227],[-90.807129,-72.610645],[-91.67002,-72.62373],[-91.160693,-73.182227]]]},"properties":{"scalerank":0,"featurecla":"Land","min_zoom":2}},
{"type":"Feature","geometry":{"type":"Polygon","coordinates":[[[-104.537939,-73.166309],[-104.972412,-72.941016],[-105.131787,-72.991504],[-104.880957,-73.200586],[-104.537939,-73.166309]]]},"properties":{"scalerank":0,"featurecla":"Land","min_zoom":3}},
{"type":"Feature","geometry":{"type":"Polygon","coordinates":[[[-95.027051,-72.665039],[-94.426025,-72.612598],[-94.513867,-72.491699],[-95.215625,-72.599414],[-95.027051,-72.665039]]]},"properties":{"scalerank":0,"featurecla":"Land","min_zoom":3}},
{"type":"Feature","geometry":{"type":"Polygon","coordinates":[[[-71.69502,-70.265137],[-71.684668,-70.442285],[-71.340283,-70.31748],[-71.69502,-70.265137]]]},"properties":{"scalerank":0,"featurecla":"Land","min_zoom":1}},
{"type":"Feature","geometry":{"type":"Polygon","coordinates":[[[-71.985352,-69.698438],[-72.331152,-69.491797],[-72.776758,-69.64502],[-71.985352,-69.698438]]]},"properties":{"scalerank":0,"featurecla":"Land","min_zoom":2}},
{"type":"Feature","geometry":{"type":"Polygon","coordinates":[[[-73.878418,-73.356836],[-73.542432,-73.123828],[-73.832129,-73.113281],[-74.146631,-73.31543],[-73.878418,-73.356836]]]},"properties":{"scalerank":0,"featurecla":"Land","min_zoom":3}},
{"type":"Feature","geometry":{"type":"Polygon","coordinates":[[[-65.845264,-65.84248],[-65.813867,-65.686621],[-65.968311,-65.570996],[-66.175293,-65.866504],[-65.845264,-65.84248]]]},"properties":{"scalerank":0,"featurecla":"Land","min_zoom":3}},
{"type":"Feature","geometry":{"type":"Polygon","coordinates":[[[-66.595312,-66.200684],[-66.779004,-66.11084],[-66.818652,-66.312695],[-66.595312,-66.200684]]]},"properties":{"scalerank":0,"featurecla":"Land","min_zoom":3}},
{"type":"Feature","geometry":{"type":"Polygon","coordinates":[[[-67.348926,-67.766211],[-67.149414,-67.650195],[-67.556738,-67.604492],[-67.693359,-67.763477],[-67.348926,-67.766211]]]},"properties":{"scalerank":0,"featurecla":"Land","min_zoom":3}},
{"type":"Feature","geometry":{"type":"Polygon","coordinates":[[[-67.362402,-66.894531],[-67.256982,-66.840918],[-67.331689,-66.753516],[-67.593262,-66.875586],[-67.362402,-66.894531]]]},"properties":{"scalerank":0,"featurecla":"Land","min_zoom":3}},
{"type":"Feature","geometry":{"type":"Polygon","coordinates":[[[-66.472119,-55.229102],[-66.523145,-55.165527],[-66.636621,-55.234375],[-66.551709,-55.272852],[-66.472119,-55.229102]]]},"properties":{"scalerank":0,"featurecla":"Land","min_zoom":4}},
{"type":"Feature","geometry":{"type":"Polygon","coordinates":[[[-69.04518964027143,-55],[-69.90841669016541,-55],[-69.411816,-55.444238],[-68.293359,-55.521387],[-68.282666,-55.255176],[-69.04518964027143,-55]]]},"properties":{"scalerank":0,"featurecla":"Land","min_zoom":0}},
{"type":"Feature","geometry":{"type":"Polygon","coordinates":[[[-26.264111,-58.435156],[-26.303467,-58.382227],[-26.401221,-58.383203],[-26.415332,-58.439844],[-26.264111,-58.435156]]]},"properties":{"scalerank":0,"featurecla":"Land","min_zoom":4}},
{"type":"Feature","geometry":{"type":"Polygon","coordinates":[[[-67.079932,-55.153809],[-67.20936849259344,-55],[-68.27425904815449,-55],[-67.767773,-55.25957],[-67.079932,-55.153809]]]},"properties":{"scalerank":0,"featurecla":"Land","min_zoom":0}},
{"type":"Feature","geometry":{"type":"Polygon","coordinates":[[[-70.33950525095683,-55],[-70.939844,-55.061914],[-70.543457,-55.161328],[-70.33950525095683,-55]]]},"properties":{"scalerank":0,"featurecla":"Land","min_zoom":0}},
{"type":"Feature","geometry":{"type":"Polygon","coordinates":[[[-67.288867,-55.776855],[-67.350586,-55.612109],[-67.559961,-55.724805],[-67.288867,-55.776855]]]},"properties":{"scalerank":0,"featurecla":"Land","min_zoom":3}},
{"type":"Feature","geometry":{"type":"Polygon","coordinates":[[[-57.020654,-63.372852],[-57.389648,-63.22627],[-58.87207,-63.551855],[-59.510156,-63.820703],[-60.86416,-64.073438],[-61.631787,-64.604688],[-62.576221,-64.755664],[-64.038037,-65.179004],[-64.065918,-65.553711],[-65.617285,-66.135254],[-65.766406,-66.624902],[-66.370898,-66.608887],[-67.493359,-67.112793],[-67.585791,-67.435156],[-66.70498,-67.527148],[-67.149854,-68.024609],[-66.793359,-68.24043],[-67.390527,-68.86123],[-66.974902,-69.161035],[-67.371777,-69.412305],[-68.707959,-69.432227],[-67.888477,-70.42168],[-67.460352,-71.526758],[-66.827734,-72.09043],[-67.66709,-72.83457],[-68.820947,-73.105469],[-72.929199,-73.447949],[-73.996045,-73.699805],[-75.293066,-73.63877],[-77.134912,-73.817676],[-78.407861,-73.555762],[-79.521729,-73.089551],[-80.442236,-72.944531],[-81.262402,-73.314941],[-81.30874,-73.738281],[-82.183496,-73.856836],[-84.981201,-73.502051],[-85.980762,-73.208496],[-87.037939,-73.353906],[-88.419385,-73.229004],[-88.194531,-72.858594],[-90.29541,-72.97793],[-90.920947,-73.319141],[-92.241016,-73.178418],[-94.246191,-73.312988],[-96.152148,-73.309277],[-98.012402,-73.033203],[-102.409277,-72.987402],[-102.675049,-73.320898],[-100.020801,-73.402539],[-99.781104,-73.720117],[-102.410645,-73.616406],[-101.251709,-74.485742],[-98.557861,-75.189746],[-101.039355,-75.421875],[-101.708105,-75.127344],[-104.901855,-75.115137],[-106.618848,-75.343945],[-109.272168,-75.185059],[-111.463135,-75.133398],[-110.300439,-74.710645],[-110.30708,-74.366699],[-111.806348,-74.269727],[-111.69624,-74.792188],[-113.931836,-74.981836],[-113.508496,-74.088867],[-114.791016,-73.988574],[-115.105176,-74.455078],[-118.342041,-74.381543],[-119.677002,-74.65459],[-123.889453,-74.773047],[-127.863379,-74.719238],[-129.79082,-74.891406],[-132.049365,-74.765723],[-133.474854,-74.851855],[-135.362061,-74.69043],[-136.549512,-75.139453],[-137.618164,-75.075586],[-139.691162,-75.212793],[-141.505713,-75.69043],[-143.574268,-75.563574],[-146.383008,-76.099707],[-145.885742,-76.424316],[-148.320312,-76.104492],[-145.750488,-76.749023],[-145.966992,-77.06875],[-149.717725,-77.797461],[-151.718994,-77.425879],[-153.460596,-77.416016],[-154.814941,-77.126953],[-158.213574,-77.157129],[-158.500391,-77.77832],[-157.266797,-78.199805],[-155.341504,-78.191992],[-156.469336,-78.635352],[-155.209912,-78.964844],[-152.091406,-79.241602],[-148.176514,-79.775879],[-148.317139,-80.070996],[-150.575391,-80.353711],[-148.122754,-80.900781],[-156.528223,-81.162305],[-157.03252,-81.319141],[-153.956641,-81.700195],[-154.717432,-81.940723],[-153.009863,-82.449609],[-155.459424,-82.980762],[-157.679492,-83.129492],[-159.444385,-83.543164],[-163.111084,-83.329102],[-168.417676,-83.228809],[-171.821289,-82.847461],[-174.065967,-82.900098],[-169.167676,-83.449805],[-167.552881,-83.81084],[-164.950879,-83.805859],[-163.568506,-84.528711],[-156.986328,-84.811133],[-157.12749,-85.185645],[-162.933398,-84.901172],[-171.703662,-84.542383],[-180,-84.351562],[-180,-85.05752],[-180,-85.763379],[-180,-86.469336],[-180,-87.175195],[-180,-87.881055],[-180,-88.587012],[-180,-89.292969],[-180,-89.58291],[-180,-89.998926],[180,-89.998926],[180,-84.351562],[179.403027,-84.206152],[171.917188,-83.644043],[168.110059,-83.362012],[167.232617,-82.952344],[160.907813,-81.390234],[160.482715,-79.201465],[164.634766,-78.603223],[166.208594,-78.45166],[164.429688,-78.042188],[162.762793,-76.745703],[162.815723,-75.846191],[161.67959,-75.217773],[162.533594,-75.16709],[163.167383,-74.601953],[165.302832,-74.59375],[164.775684,-74.028516],[167.61582,-73.336816],[169.54502,-73.050391],[170.162305,-71.630469],[168.172656,-71.183203],[167.569434,-70.810254],[166.626953,-70.664258],[164.403223,-70.510449],[163.34873,-70.620898],[162.674805,-70.30459],[161.424512,-70.826758],[161.037012,-70.317188],[160.209668,-69.974902],[159.783984,-69.521875],[158.157813,-69.208887],[157.481348,-69.308691],[155.520313,-69.024414],[154.199707,-68.417871],[153.081836,-68.856836],[151.562109,-68.693652],[151.068262,-68.384961],[148.45625,-68.466992],[146.797656,-68.273633],[146.827832,-67.964648],[145.975195,-67.624219],[143.941992,-67.794043],[144.621191,-67.141406],[143.448242,-66.876758],[142.888379,-67.000098],[141.972852,-66.806738],[139.900098,-66.715137],[137.753809,-66.406445],[135.351953,-66.127148],[134.971484,-66.330176],[133.444531,-66.081445],[131.830859,-66.23584],[130.951758,-66.191406],[129.741211,-66.468555],[129.236914,-67.041602],[127.541211,-67.051074],[126.664746,-66.497559],[125.865625,-66.364453],[124.597852,-66.708203],[123.969336,-66.608105],[122.182813,-66.859473],[121.487598,-67.090723],[119.133008,-67.370703],[118.138672,-67.082422],[116.713477,-67.047168],[114.026563,-67.441211],[113.991211,-67.211914],[115.27373,-67.02793],[115.310352,-66.56084],[114.336914,-66.360156],[113.709766,-65.92959],[113.099414,-65.799902],[110.906738,-66.07666],[110.622266,-66.524023],[109.462793,-66.908691],[108.15791,-66.639063],[103.951172,-65.988086],[102.674219,-65.865137],[101.474414,-65.951172],[100.889063,-66.358008],[99.370117,-66.648242],[98.257617,-66.46748],[95.541016,-66.630957],[94.839844,-66.501367],[93.964258,-66.689648],[92.073438,-66.50791],[89.698438,-66.823047],[87.980273,-66.788477],[85.710742,-67.161328],[84.485156,-67.114453],[83.304297,-67.603027],[82.016992,-67.690039],[79.287793,-68.119336],[78.72627,-68.277832],[77.81748,-69.068945],[75.891211,-69.575586],[75.423828,-69.893066],[73.942188,-69.743164],[72.82207,-70.095898],[72.760352,-70.395703],[71.904883,-70.706641],[71.276758,-71.623926],[69.554688,-72.374512],[68.419824,-72.515039],[67.971387,-73.085645],[66.89209,-72.948633],[67.432227,-72.00293],[68.037402,-71.391016],[68.872754,-71.035156],[69.250195,-70.431055],[67.267969,-70.273145],[68.178125,-69.837305],[69.082617,-69.866602],[68.90625,-69.372754],[69.629492,-69.231641],[69.53418,-68.736914],[69.982227,-68.464258],[69.416406,-67.742969],[68.32793,-67.889551],[63.699023,-67.508301],[62.687891,-67.647559],[60.482031,-67.385156],[59.250781,-67.484961],[58.737402,-67.22959],[57.627441,-67.014063],[57.185449,-66.613281],[55.710352,-66.07998],[54.947852,-65.916309],[53.671777,-65.858691],[51.88457,-66.02002],[50.332422,-66.444629],[50.605957,-67.150195],[49.24707,-66.941602],[48.713672,-67.216895],[48.648047,-67.794043],[47.117188,-67.572656],[44.989551,-67.769238],[44.699805,-67.904297],[42.819531,-68.123242],[42.408789,-68.351855],[41.132715,-68.575098],[39.863867,-68.966992],[39.705078,-69.425586],[38.859277,-70.006055],[37.559766,-69.718359],[35.224805,-69.637305],[34.192871,-68.702441],[33.121484,-68.68916],[32.567578,-69.074219],[32.989355,-69.624219],[32.621289,-70.000586],[31.378809,-70.225781],[30.00332,-70.3],[27.206836,-70.910938],[25.974121,-71.037402],[24.756738,-70.89209],[23.803613,-70.40459],[22.979004,-70.810352],[21.70498,-70.258496],[21.070801,-70.843457],[19.265137,-70.902344],[19.196387,-70.293164],[18.124609,-70.540332],[15.806934,-70.324023],[13.822656,-70.343164],[12.929395,-70.213379],[11.70127,-70.766602],[9.141602,-70.183691],[8.523047,-70.473828],[5.113086,-70.655664],[2.609473,-70.900098],[0.834961,-71.202344],[-0.543164,-71.712695],[-0.89585,-71.349219],[-2.812012,-71.320996],[-5.950049,-71.341602],[-5.936328,-70.712695],[-7.873486,-70.940332],[-7.713721,-71.546484],[-8.646484,-71.672754],[-9.230664,-71.174023],[-9.887988,-71.027344],[-10.825439,-71.55332],[-11.496973,-72.412891],[-13.208594,-72.785059],[-14.297754,-72.733008],[-14.320996,-73.123047],[-15.595996,-73.096777],[-16.518848,-73.644043],[-15.748828,-73.945605],[-15.67251,-74.407324],[-17.299023,-74.333887],[-19.493018,-75.539941],[-24.26958,-75.766992],[-26.059326,-75.957227],[-28.933643,-76.370313],[-32.063379,-77.159863],[-34.075781,-77.425391],[-36.180859,-78.468359],[-36.23916,-78.774219],[-32.994238,-79.228809],[-30.315918,-79.163086],[-29.949316,-79.599023],[-25.258643,-79.7625],[-24.240283,-80.061914],[-29.329102,-80.17207],[-35.327002,-80.650684],[-37.209277,-81.063867],[-38.771729,-80.882324],[-41.433838,-81.297754],[-43.669336,-82.270117],[-48.360791,-81.892285],[-53.986084,-82.200586],[-57.353613,-82.840234],[-59.516016,-83.458398],[-61.589844,-83.341211],[-62.735645,-82.527344],[-65.913184,-82.183203],[-64.137109,-81.869336],[-64.750146,-81.52168],[-70.239111,-80.856641],[-75.236523,-80.802637],[-76.557861,-79.903516],[-76.499121,-79.325684],[-80.151172,-79.268066],[-83.26001,-78.774219],[-83.245898,-78.357031],[-80.292285,-78.822754],[-77.869141,-78.745508],[-77.432568,-78.434668],[-81.441016,-77.885645],[-80.601562,-77.751953],[-74.812061,-78.177832],[-73.251562,-77.894238],[-72.851953,-77.590234],[-75.386914,-77.474219],[-76.248584,-77.274902],[-77.190039,-76.629785],[-75.268359,-76.581445],[-71.798682,-76.752734],[-70.095508,-76.654492],[-69.304395,-76.350781],[-66.37041,-76.013379],[-63.363379,-75.451465],[-63.924707,-75.004492],[-62.225684,-74.505566],[-61.010791,-74.47832],[-60.878857,-73.612012],[-61.405469,-73.46709],[-60.384668,-73.007324],[-60.719434,-72.072656],[-61.213574,-71.564063],[-61.017236,-71.166895],[-61.961084,-70.900586],[-61.961084,-70.120117],[-62.450537,-69.584375],[-63.455957,-69.041895],[-63.343506,-68.810449],[-64.898291,-68.67334],[-65.639502,-68.130566],[-65.443115,-67.326172],[-64.819287,-67.307324],[-64.686279,-66.80625],[-64.077734,-66.654102],[-63.752539,-66.277734],[-61.875439,-66.296094],[-62.305029,-65.84043],[-62.145312,-65.331738],[-61.736182,-65.033496],[-61.059863,-64.98125],[-59.963086,-64.431348],[-58.895459,-64.388867],[-58.262988,-63.763379],[-57.020654,-63.372852]]]},"properties":{"scalerank":0,"featurecla":"Land","min_zoom":0}}
]}