{"type":"FeatureCollection", "features": [
{"type":"Feature","geometry":{"type":"Polygon","coordinates":[[[-120.55625,-73.756055],[-121.497314,-73.732813],[-122.435693,-73.681641],[-123.112158,-73.682227],[-123.249072,-73.738672],[-123.346191,-73.843066],[-123.034668,-73.837598],[-122.624707,-73.965527],[-122.880762,-74.099023],[-122.764746,-74.218652],[-122.956055,-74.240332],[-122.859082,-74.342676],[-122.286621,-74.403125],[-121.062402,-74.337305],[-120.989502,-74.157031],[-120.272461,-73.98916],[-120.378125,-73.855859],[-120.55625,-73.756055]]]},"properties":{"scalerank":0,"featurecla":"Land","min_zoom":1}},
{"type":"Feature","geometry":{"type":"Polygon","coordinates":[[[-126.329883,-73.28623],[-126.596875,-73.278906],[-126.977832,-73.308008],[-127.267627,-73.304004],[-127.394336,-73.382227],[-127.414355,-73.516309],[-127.23291,-73.585547],[-127.231641,-73.713477],[-127.006396,-73.725781],[-126.838232,-73.657324],[-126.496094,-73.700195],[-126.47168,-73.812109],[-126.244092,-73.890918],[-125.886865,-73.95459],[-125.682715,-74.035449],[-125.420801,-74.069922],[-125.089551,-74.182422],[-124.872998,-74.208301],[-124.199414,-74.225586],[-123.982471,-74.256055],[-123.836719,-74.225684],[-123.800439,-74.07627],[-124.151807,-73.944238],[-124.042041,-73.880371],[-124.128516,-73.833984],[-124.53999,-73.739746],[-124.694385,-73.749609],[-124.993408,-73.829785],[-125.326855,-73.795508],[-125.674414,-73.822168],[-125.857031,-73.780176],[-125.828418,-73.718359],[-125.276074,-73.690527],[-125.326172,-73.617871],[-125.561328,-73.536426],[-125.735791,-73.405664],[-126.065283,-73.314844],[-126.329883,-73.28623]]]},"properties":{"scalerank":0,"featurecla":"Land","min_zoom":1}},
{"type":"Feature","geometry":{"type":"Polygon","coordinates":[[[-66.173633,-80.077832],[-65.504443,-79.954297],[-65.579248,-79.770801],[-65.870312,-79.737695],[-66.01416,-79.624414],[-66.785205,-79.608008],[-66.978906,-79.568652],[-67.80874,-79.545898],[-67.719141,-79.620215],[-67.077246,-79.761816],[-66.904199,-79.908887],[-66.4104,-79.97334],[-66.173633,-80.077832]]]},"properties":{"scalerank":0,"featurecla":"Land","min_zoom":2}},
{"type":"Feature","geometry":{"type":"Polygon","coordinates":[[[-57.845996,-64.053906],[-57.779492,-63.868262],[-57.925684,-63.806055],[-58.274805,-63.916211],[-58.424951,-64.067773],[-58.397607,-64.134766],[-58.14707,-64.097363],[-58.137695,-64.206152],[-58.019971,-64.241992],[-58.304443,-64.314551],[-58.214062,-64.369727],[-58.021582,-64.321582],[-57.920703,-64.33125],[-57.70332,-64.293262],[-57.580762,-64.350391],[-57.387891,-64.378906],[-57.413965,-64.295898],[-57.327637,-64.237793],[-57.249463,-64.09707],[-57.59292,-63.96709],[-57.741162,-64.047852],[-57.845996,-64.053906]]]},"properties":{"scalerank":0,"featurecla":"Land","min_zoom":0}},
{"type":"Feature","geometry":{"type":"Polygon","coordinates":[[[-63.180566,-64.469531],[-63.270703,-64.380664],[-63.229639,-64.323633],[-63.333594,-64.266211],[-63.485596,-64.260547],[-63.683105,-64.342773],[-63.674414,-64.421387],[-63.916162,-64.457227],[-63.867139,-64.509766],[-64.171094,-64.581934],[-64.27207,-64.697559],[-64.00708,-64.768555],[-63.646875,-64.803027],[-63.558447,-64.73418],[-63.275439,-64.717383],[-63.025586,-64.610938],[-62.836523,-64.571875],[-62.928223,-64.519336],[-63.130518,-64.572363],[-63.276953,-64.57334],[-63.180566,-64.469531]]]},"properties":{"scalerank":0,"featurecla":"Land","min_zoom":2}},
{"type":"Feature","geometry":{"type":"Polygon","coordinates":[[[-73.706641,-70.635156],[-74.03833,-70.55293],[-74.225,-70.614648],[-74.456152,-70.586719],[-74.468652,-70.72666],[-74.589697,-70.791992],[-74.790479,-70.630957],[-75.007471,-70.608887],[-75.059912,-70.705566],[-75.21001,-70.772559],[-76.03457,-70.835938],[-76.248877,-70.86377],[-76.500244,-70.941406],[-76.421484,-71.09043],[-76.176318,-71.132422],[-74.805811,-71.012305],[-74.205029,-70.924121],[-73.694531,-70.794336],[-73.550342,-70.723438],[-73.706641,-70.635156]]]},"properties":{"scalerank":0,"featurecla":"Land","min_zoom":2}},
{"type":"Feature","geometry":{"type":"Polygon","coordinates":[[[-74.987109,-69.727832],[-75.264551,-69.749316],[-75.339941,-69.840234],[-75.681348,-69.881641],[-75.812939,-69.983984],[-75.726758,-70.096094],[-75.268408,-70.149414],[-74.848828,-70.179297],[-74.671777,-70.131738],[-74.578418,-69.998047],[-74.437988,-69.949609],[-74.549707,-69.860938],[-74.810156,-69.752441],[-74.987109,-69.727832]]]},"properties":{"scalerank":0,"featurecla":"Land","min_zoom":2}},
{"type":"Feature","geometry":{"type":"Polygon","coordinates":[[[-98.091113,-71.9125],[-98.18916,-71.82002],[-98.61543,-71.76377],[-98.964551,-71.854297],[-99.082129,-71.93252],[-99.254102,-71.972168],[-99.563086,-71.944922],[-99.833203,-72.046094],[-100.084619,-71.836914],[-100.400928,-71.865723],[-102.128125,-71.985449],[-102.288281,-72.032129],[-102.264795,-72.135254],[-102.022119,-72.184961],[-101.601953,-72.175684],[-100.357422,-72.278125],[-100.195215,-72.272656],[-99.672363,-72.379883],[-99.434326,-72.406641],[-99.148828,-72.471973],[-98.640674,-72.489746],[-98.407812,-72.547656],[-97.82832,-72.557031],[-97.250293,-72.520898],[-97.027637,-72.573828],[-96.692676,-72.547656],[-96.051758,-72.577246],[-96.078174,-72.453809],[-95.575391,-72.409961],[-95.531055,-72.24873],[-95.609521,-72.175],[-95.609375,-72.068457],[-96.79873,-72.259473],[-96.978906,-72.221875],[-96.714941,-72.131641],[-96.298193,-72.045117],[-96.125,-71.895508],[-96.38335,-71.836328],[-96.869434,-71.850977],[-97.088721,-71.944043],[-97.241992,-72.131836],[-97.460254,-72.188281],[-97.581982,-72.095117],[-97.473486,-72.000293],[-97.584766,-71.882617],[-97.816016,-71.918848],[-97.923145,-72.116602],[-98.167969,-72.123047],[-98.175928,-72.018457],[-98.091113,-71.9125]]]},"properties":{"scalerank":0,"featurecla":"Land","min_zoom":1}},
{"type":"Feature","geometry":{"type":"Polygon","coordinates":[[[-74.354443,-73.098438],[-74.223877,-72.99707],[-74.473877,-72.89375],[-75.376855,-72.82041],[-75.731055,-72.879297],[-75.439453,-72.994238],[-75.505859,-73.108887],[-75.774658,-73.054297],[-76.017676,-73.085449],[-76.096387,-73.150488],[-76.053125,-73.254688],[-75.90083,-73.332617],[-74.574658,-73.611328],[-74.4521,-73.56543],[-74.366113,-73.464258],[-74.667676,-73.275293],[-74.522461,-73.243945],[-74.354443,-73.098438]]]},"properties":{"scalerank":0,"featurecla":"Land","min_zoom":2}},
{"type":"Feature","geometry":{"type":"Polygon","coordinates":[[[-67.988477,-67.474414],[-68.006982,-67.417969],[-68.175146,-67.344141],[-67.687842,-67.147363],[-67.968408,-67.032227],[-67.932373,-66.844531],[-67.681152,-66.708984],[-67.711133,-66.633008],[-67.830518,-66.624316],[-68.335938,-66.802051],[-68.416846,-66.85332],[-68.819922,-67.233594],[-69.082422,-67.403125],[-69.138037,-67.515234],[-69.097559,-67.602734],[-68.901367,-67.744238],[-68.58042,-67.732813],[-68.439404,-67.65625],[-68.381299,-67.555371],[-68.175098,-67.558203],[-67.988477,-67.474414]]]},"properties":{"scalerank":0,"featurecla":"Land","min_zoom":2}},
{"type":"Feature","geometry":{"type":"Polygon","coordinates":[[[-159.05293,-79.807422],[-158.996582,-79.735156],[-159.418799,-79.508105],[-159.684082,-79.402441],[-161.642969,-78.900977],[-162.390039,-78.760156],[-162.872754,-78.725195],[-163.256104,-78.72207],[-163.814648,-78.928809],[-164.125537,-78.995313],[-164.281641,-79.245508],[-164.225781,-79.320801],[-163.712402,-79.441992],[-161.865527,-79.703516],[-160.806689,-79.812012],[-160.3021,-79.844531],[-159.05293,-79.807422]]]},"properties":{"scalerank":0,"featurecla":"Land","min_zoom":1}},
{"type":"Feature","geometry":{"type":"Polygon","coordinates":[[[-70.334082,-79.679883],[-69.731738,-79.618359],[-69.634473,-79.517578],[-69.686475,-79.443359],[-69.250879,-79.210352],[-68.637939,-79.013184],[-67.480957,-78.682422],[-66.728076,-78.383691],[-67.038135,-78.315723],[-67.478516,-78.3625],[-69.398242,-78.686133],[-69.971875,-78.809375],[-70.543994,-78.883691],[-71.254492,-79.059668],[-71.66748,-79.245703],[-71.783545,-79.444336],[-71.68667,-79.568066],[-71.525781,-79.623633],[-70.98374,-79.674414],[-70.334082,-79.679883]]]},"properties":{"scalerank":0,"featurecla":"Land","min_zoom":1.5}},
{"type":"Feature","geometry":{"type":"Polygon","coordinates":[[[-45.222656,-78.810742],[-45.352344,-78.791211],[-45.067822,-78.661426],[-43.947217,-78.597559],[-43.776709,-78.385059],[-43.808594,-78.286523],[-44.339844,-78.092871],[-44.851953,-77.988379],[-45.530273,-77.881445],[-46.257861,-77.804883],[-46.825684,-77.785254],[-47.69209,-77.840137],[-49.08125,-78.047461],[-49.35415,-78.222461],[-49.939746,-78.462207],[-50.219629,-78.605273],[-50.377393,-78.780469],[-50.241943,-78.833301],[-50.50249,-78.949902],[-50.520312,-79.104395],[-50.733057,-79.282715],[-50.378662,-79.338184],[-50.339258,-79.479492],[-50.664355,-79.626758],[-51.711328,-79.989844],[-52.297168,-80.141211],[-52.460986,-80.066602],[-52.807227,-80.155957],[-53.482324,-80.188965],[-54.044922,-80.4875],[-54.347168,-80.569434],[-54.350781,-80.760352],[-54.1625,-80.870117],[-49.773047,-80.78418],[-49.629687,-80.712305],[-49.1875,-80.642773],[-43.52793,-80.191406],[-43.48999,-80.095508],[-43.758203,-80.020508],[-43.267285,-79.978613],[-42.98999,-79.80127],[-42.965381,-79.477051],[-43.210547,-79.3],[-43.267236,-79.163086],[-43.544336,-78.901953],[-43.72207,-78.818457],[-44.041162,-78.806641],[-45.222656,-78.810742]]]},"properties":{"scalerank":0,"featurecla":"Land","min_zoom":0}},
{"type":"Feature","geometry":{"type":"Polygon","coordinates":[[[-59.733936,-80.344141],[-59.530078,-80.208008],[-59.498145,-80.115039],[-59.787793,-80.100977],[-59.706348,-79.875293],[-59.87334,-79.776953],[-60.578809,-79.741016],[-61.026318,-79.808887],[-61.343115,-79.886816],[-61.302344,-79.995801],[-61.68418,-80.019727],[-61.694336,-80.134375],[-61.312842,-80.306543],[-61.633301,-80.344141],[-62.518799,-80.37334],[-65.980078,-80.384473],[-66.167627,-80.346191],[-66.376953,-80.222266],[-66.771143,-80.293848],[-66.18374,-80.441992],[-64.268262,-80.748535],[-64.065039,-80.650391],[-63.143994,-80.594824],[-62.940381,-80.76582],[-62.670508,-80.834277],[-62.02334,-80.889063],[-60.582812,-80.948145],[-60.124658,-80.840723],[-59.825488,-80.733301],[-59.771338,-80.656543],[-59.733936,-80.344141]]]},"properties":{"scalerank":0,"featurecla":"Land","min_zoom":1}},
{"type":"Feature","geometry":{"type":"Polygon","coordinates":[[[-70.051123,-69.189063],[-70.105469,-68.959375],[-70.416992,-68.788965],[-71.391553,-68.873535],[-71.868994,-68.941016],[-72.057861,-69.000977],[-72.137891,-69.114551],[-72.080664,-69.267188],[-71.74292,-69.422754],[-71.718213,-69.524023],[-71.852002,-69.807031],[-71.853613,-69.969336],[-71.696094,-70.067773],[-71.120508,-70.196484],[-70.926221,-70.192383],[-70.719531,-70.139453],[-70.327637,-70.159668],[-69.618359,-70.398047],[-69.702051,-70.414746],[-69.975293,-70.360156],[-70.328076,-70.36123],[-70.562109,-70.404102],[-71.061084,-70.537109],[-71.190039,-70.65957],[-71.049414,-70.762109],[-70.660645,-70.817871],[-70.298682,-70.836133],[-69.83042,-70.913672],[-69.835107,-71.092578],[-69.916455,-71.133789],[-70.267676,-70.964746],[-70.380664,-70.946387],[-70.741113,-70.992578],[-71.194043,-70.984766],[-71.504492,-71.111523],[-71.718506,-71.145117],[-72.356348,-71.074805],[-72.710449,-71.072949],[-73.0604,-71.126953],[-72.905469,-71.223145],[-72.430078,-71.275],[-72.21167,-71.335059],[-72.621582,-71.388379],[-73.019727,-71.368652],[-73.397412,-71.321191],[-73.604492,-71.350781],[-73.592187,-71.448047],[-73.380176,-71.52793],[-73.545361,-71.573047],[-73.937109,-71.438184],[-74.187207,-71.383008],[-74.425391,-71.456934],[-74.391797,-71.638184],[-74.636377,-71.61748],[-74.863135,-71.543359],[-75.099658,-71.555371],[-75.292578,-71.614941],[-75.382715,-71.82793],[-75.353076,-71.878418],[-74.78584,-72.063574],[-74.429297,-72.055566],[-74.208936,-72.142285],[-73.899268,-72.152344],[-73.537109,-72.022363],[-73.829883,-71.870215],[-73.63291,-71.834961],[-73.166699,-71.90459],[-72.927637,-71.92168],[-72.412207,-71.662305],[-72.259082,-71.641211],[-71.816162,-71.821875],[-71.574414,-71.850586],[-71.35498,-71.836426],[-70.820996,-71.906543],[-70.891113,-71.987402],[-71.106641,-72.04707],[-71.897559,-72.120801],[-71.661475,-72.249805],[-71.412549,-72.284473],[-71.177734,-72.264063],[-70.641406,-72.169629],[-70.42417,-72.167773],[-70.206006,-72.227734],[-70.427686,-72.322559],[-70.872607,-72.366406],[-71.605322,-72.358984],[-72.134961,-72.331348],[-72.618213,-72.275098],[-72.854834,-72.304199],[-73.086377,-72.407813],[-72.887646,-72.54668],[-72.530811,-72.589551],[-72.36748,-72.669727],[-71.846143,-72.639355],[-70.731348,-72.622949],[-70.543457,-72.664453],[-70.063086,-72.626172],[-69.209326,-72.53418],[-69.149268,-72.426563],[-68.640039,-72.209766],[-68.460742,-72.085352],[-68.241016,-71.822168],[-68.227832,-71.725195],[-68.27793,-71.09707],[-68.335986,-70.856055],[-68.450781,-70.817871],[-68.459473,-70.68291],[-68.730566,-70.408105],[-69.09126,-70.090332],[-69.233789,-69.909082],[-69.416943,-69.583203],[-69.707568,-69.320898],[-69.913281,-69.267285],[-70.051123,-69.189063]]]},"properties":{"scalerank":0,"featurecla":"Land","min_zoom":1}},
{"type":"Feature","geometry":{"type":"Polygon","coordinates":[[[-66.36552268929556,-55],[-66.67318618695619,-55],[-66.511133,-55.032129],[-66.36552268929556,-55]]]},"properties":{"scalerank":0,"featurecla":"Land","min_zoom":0}},
{"type":"Feature","geometry":{"type":"Polygon","coordinates":[[[-67.575195,-55.889648],[-67.544824,-55.825977],[-67.762061,-55.816113],[-67.831543,-55.864844],[-67.575195,-55.889648]]]},"properties":{"scalerank":0,"featurecla":"Land","min_zoom":3}},
{"type":"Feature","geometry":{"type":"Polygon","coordinates":[[[163.975977,-74.832715],[164.208496,-74.607715],[164.002344,-74.628906],[163.741699,-74.711523],[163.763379,-74.802832],[163.975977,-74.832715]]]},"properties":{"scalerank":0,"featurecla":"Land","min_zoom":3}},
{"type":"Feature","geometry":{"type":"Polygon","coordinates":[[[164.833594,-67.54043],[164.918652,-67.447461],[164.825,-67.326074],[164.675195,-67.288867],[164.696289,-67.407813],[164.638965,-67.500098],[164.833594,-67.54043]]]},"properties":{"scalerank":0,"featurecla":"Land","min_zoom":3}},
{"type":"Feature","geometry":{"type":"Polygon","coordinates":[[[167.642773,-78.141406],[167.593848,-78.022266],[167.422363,-78.006445],[167.137891,-78.12998],[166.863672,-78.196387],[166.111133,-78.089648],[166.012891,-78.101953],[166.121875,-78.274609],[166.284863,-78.306445],[166.625977,-78.284277],[166.93623,-78.222461],[167.376953,-78.249023],[167.642773,-78.141406]]]},"properties":{"scalerank":0,"featurecla":"Land","min_zoom":3}},
{"type":"Feature","geometry":{"type":"Polygon","coordinates":[[[163.301953,-66.821191],[163.237891,-66.708789],[163.089648,-66.700586],[163.163867,-66.819141],[163.301953,-66.821191]]]},"properties":{"scalerank":0,"featurecla":"Land","min_zoom":3}},
{"type":"Feature","geometry":{"type":"Polygon","coordinates":[[[167.084082,-77.32168],[166.987305,-77.186523],[166.716406,-77.161719],[166.413086,-77.251953],[166.626367,-77.376758],[166.236816,-77.547461],[166.53252,-77.700391],[166.729004,-77.850977],[167.392285,-77.648633],[167.917578,-77.644141],[168.322559,-77.68252],[168.75459,-77.65332],[169.352734,-77.524707],[169.275586,-77.454688],[168.450781,-77.386133],[167.460938,-77.394336],[167.084082,-77.32168]]]},"properties":{"scalerank":0,"featurecla":"Land","min_zoom":2}},
{"type":"Feature","geometry":{"type":"Polygon","coordinates":[[[169.843652,-73.60498],[169.960352,-73.514355],[169.783203,-73.324219],[169.479492,-73.539453],[169.70918,-73.625293],[169.843652,-73.60498]]]},"properties":{"scalerank":0,"featurecla":"Land","min_zoom":3}},
{"type":"Feature","geometry":{"type":"Polygon","coordinates":[[[162.968066,-75.56709],[162.72002,-75.59668],[162.591211,-75.668555],[162.788281,-75.696191],[162.968066,-75.56709]]]},"properties":{"scalerank":0,"featurecla":"Land","min_zoom":4}},
{"type":"Feature","geometry":{"type":"Polygon","coordinates":[[[100.981445,-65.677539],[101.238379,-65.564551],[101.220605,-65.472266],[101.078711,-65.402539],[100.883398,-65.378125],[100.606934,-65.396387],[100.409375,-65.465625],[100.270312,-65.60332],[100.350586,-65.672949],[100.546875,-65.70127],[100.981445,-65.677539]]]},"properties":{"scalerank":0,"featurecla":"Land","min_zoom":2}},
{"type":"Feature","geometry":{"type":"Polygon","coordinates":[[[85.822363,-66.95332],[85.937695,-66.894141],[85.80625,-66.774609],[85.552832,-66.728516],[85.340332,-66.72334],[85.358789,-66.854297],[85.617383,-66.950879],[85.822363,-66.95332]]]},"properties":{"scalerank":0,"featurecla":"Land","min_zoom":3}},
{"type":"Feature","geometry":{"type":"Polygon","coordinates":[[[92.601367,-65.808301],[92.633789,-65.730664],[92.496387,-65.702148],[92.301465,-65.706738],[92.333008,-65.807227],[92.601367,-65.808301]]]},"properties":{"scalerank":0,"featurecla":"Land","min_zoom":3}},
{"type":"Feature","geometry":{"type":"Polygon","coordinates":[[[86.541797,-66.76748],[86.651953,-66.718164],[86.383301,-66.674805],[86.232227,-66.73291],[86.337012,-66.787598],[86.541797,-66.76748]]]},"properties":{"scalerank":0,"featurecla":"Land","min_zoom":3}},
{"type":"Feature","geometry":{"type":"Polygon","coordinates":[[[85.328516,-66.611914],[85.121094,-66.518555],[85.06875,-66.583789],[85.136133,-66.637109],[85.328516,-66.611914]]]},"properties":{"scalerank":0,"featurecla":"Land","min_zoom":4}},
{"type":"Feature","geometry":{"type":"Polygon","coordinates":[[[69.918359,-71.917773],[69.796094,-71.893945],[69.692578,-71.968262],[69.791992,-72.04668],[69.918359,-71.917773]]]},"properties":{"scalerank":0,"featurecla":"Land","min_zoom":4}},
{"type":"Feature","geometry":{"type":"Polygon","coordinates":[[[68.461719,-72.300098],[68.817188,-72.228711],[68.84043,-72.16543],[68.66709,-72.103125],[68.436133,-72.260449],[68.461719,-72.300098]]]},"properties":{"scalerank":0,"featurecla":"Land","min_zoom":3}},
{"type":"Feature","geometry":{"type":"Polygon","coordinates":[[[96.612695,-66.03584],[96.398828,-66.080176],[96.307031,-66.18584],[96.394531,-66.225],[96.933984,-66.200781],[97.015625,-66.163965],[96.931641,-66.058398],[96.612695,-66.03584]]]},"properties":{"scalerank":0,"featurecla":"Land","min_zoom":3}},
{"type":"Feature","geometry":{"type":"Polygon","coordinates":[[[72.002246,-70.632617],[72.097363,-70.574609],[72,-70.456836],[71.87998,-70.405566],[71.796582,-70.264258],[71.646582,-70.336328],[71.659375,-70.497461],[71.841211,-70.621973],[72.002246,-70.632617]]]},"properties":{"scalerank":0,"featurecla":"Land","min_zoom":3}},
{"type":"Feature","geometry":{"type":"Polygon","coordinates":[[[162.611426,-66.477344],[162.310547,-66.25127],[162.302734,-66.399707],[162.511328,-66.520117],[162.611426,-66.477344]]]},"properties":{"scalerank":0,"featurecla":"Land","min_zoom":3}},
{"type":"Feature","geometry":{"type":"Polygon","coordinates":[[[100.264746,-66.216602],[100.290527,-66.112402],[100.07627,-66.188086],[100.264746,-66.216602]]]},"properties":{"scalerank":0,"featurecla":"Land","min_zoom":4}},
{"type":"Feature","geometry":{"type":"Polygon","coordinates":[[[98.846094,-66.469824],[98.949805,-66.420508],[98.748633,-66.369238],[98.596484,-66.382617],[98.655078,-66.45332],[98.846094,-66.469824]]]},"properties":{"scalerank":0,"featurecla":"Land","min_zoom":3}},
{"type":"Feature","geometry":{"type":"Polygon","coordinates":[[[103.397266,-65.445312],[103.186133,-65.330566],[103.136816,-65.190625],[102.892871,-65.129688],[102.75957,-65.167871],[102.78877,-65.235938],[103.112793,-65.312012],[103.138477,-65.435059],[103.397266,-65.445312]]]},"properties":{"scalerank":0,"featurecla":"Land","min_zoom":3}},
{"type":"Feature","geometry":{"type":"Polygon","coordinates":[[[-147.588281,-76.649805],[-147.899707,-76.558008],[-148.001074,-76.577148],[-147.729639,-76.653418],[-147.588281,-76.649805]]]},"properties":{"scalerank":0,"featurecla":"Land","min_zoom":4}},
{"type":"Feature","geometry":{"type":"Polygon","coordinates":[[[-145.238086,-75.71123],[-145.417383,-75.587988],[-145.760791,-75.513867],[-146.075732,-75.533398],[-146.042773,-75.611914],[-145.541162,-75.692676],[-145.238086,-75.71123]]]},"properties":{"scalerank":0,"featurecla":"Land","min_zoom":3}},
{"type":"Feature","geometry":{"type":"Polygon","coordinates":[[[-146.606738,-76.961328],[-146.163965,-76.948535],[-146.244385,-76.883105],[-146.866504,-76.837109],[-147.08667,-76.837305],[-146.981445,-77.005664],[-146.606738,-76.961328]]]},"properties":{"scalerank":0,"featurecla":"Land","min_zoom":3}},
{"type":"Feature","geometry":{"type":"Polygon","coordinates":[[[-132.39126,-74.441895],[-132.55249,-74.386621],[-132.831689,-74.421582],[-132.857178,-74.461719],[-132.546289,-74.498438],[-132.39126,-74.441895]]]},"properties":{"scalerank":0,"featurecla":"Land","min_zoom":3}},
{"type":"Feature","geometry":{"type":"Polygon","coordinates":[[[-148.59585,-77.006836],[-148.508936,-76.95459],[-149.238086,-76.900195],[-149.244824,-76.993066],[-149.014648,-77.019141],[-148.59585,-77.006836]]]},"properties":{"scalerank":0,"featurecla":"Land","min_zoom":3}},
{"type":"Feature","geometry":{"type":"Polygon","coordinates":[[[-149.333252,-76.717383],[-149.468945,-76.757129],[-148.983887,-76.845313],[-148.38418,-76.744434],[-148.662598,-76.720508],[-149.333252,-76.717383]]]},"properties":{"scalerank":0,"featurecla":"Land","min_zoom":3}},
{"type":"Feature","geometry":{"type":"Polygon","coordinates":[[[-131.066699,-74.583789],[-130.967285,-74.515039],[-130.981104,-74.414062],[-131.233887,-74.413574],[-131.762695,-74.323828],[-132.162646,-74.425781],[-131.840869,-74.542578],[-131.178906,-74.604785],[-131.066699,-74.583789]]]},"properties":{"scalerank":0,"featurecla":"Land","min_zoom":2}},
{"type":"Feature","geometry":{"type":"Polygon","coordinates":[[[-119.548926,-74.110254],[-119.058594,-73.997656],[-118.877344,-73.878027],[-118.959277,-73.809473],[-119.216211,-73.777637],[-119.516357,-73.774902],[-119.802588,-73.814648],[-119.661572,-73.989355],[-119.905127,-74.081543],[-119.820996,-74.119629],[-119.548926,-74.110254]]]},"properties":{"scalerank":0,"featurecla":"Land","min_zoom":1}},
{"type":"Feature","geometry":{"type":"Polygon","coordinates":[[[-116.738623,-74.165039],[-116.608643,-74.068555],[-116.15498,-73.910449],[-116.381299,-73.865527],[-117.376465,-74.082813],[-117.362988,-74.160938],[-117.230322,-74.192773],[-116.738623,-74.165039]]]},"properties":{"scalerank":0,"featurecla":"Land","min_zoom":2}},
{"type":"Feature","geometry":{"type":"Polygon","coordinates":[[[-127.36582,-74.622656],[-127.231934,-74.578418],[-127.145166,-74.480176],[-127.229736,-74.425195],[-127.486426,-74.405273],[-127.852979,-74.331836],[-128.133447,-74.327441],[-128.09624,-74.466211],[-127.81709,-74.574609],[-127.517725,-74.640527],[-127.36582,-74.622656]]]},"properties":{"scalerank":0,"featurecla":"Land","min_zoom":2}},
{"type":"Feature","geometry":{"type":"Polygon","coordinates":[[[-149.218115,-77.336328],[-149.375439,-77.27998],[-149.662354,-77.300977],[-149.438672,-77.370605],[-149.218115,-77.336328]]]},"properties":{"scalerank":0,"featurecla":"Land","min_zoom":4}},
{"type":"Feature","geometry":{"type":"Polygon","coordinates":[[[-161.993799,-83.11875],[-161.635156,-83.026953],[-162.798486,-82.864844],[-163.795947,-82.842676],[-163.5521,-82.987695],[-163.046533,-83.096777],[-162.304932,-83.141797],[-161.993799,-83.11875]]]},"properties":{"scalerank":0,"featurecla":"Land","min_zoom":3}},
{"type":"Feature","geometry":{"type":"Polygon","coordinates":[[[-150.23252,-76.776465],[-150.177393,-76.691309],[-150.837646,-76.71416],[-150.655176,-76.788965],[-150.23252,-76.776465]]]},"properties":{"scalerank":0,"featurecla":"Land","min_zoom":3}},
{"type":"Feature","geometry":{"type":"Polygon","coordinates":[[[-146.690137,-76.246387],[-146.949023,-76.098145],[-147.360645,-76.062793],[-147.34541,-76.14668],[-146.894482,-76.260938],[-146.690137,-76.246387]]]},"properties":{"scalerank":0,"featurecla":"Land","min_zoom":3}},
{"type":"Feature","geometry":{"type":"Polygon","coordinates":[[[-146.790039,-76.633105],[-146.877881,-76.563281],[-147.135303,-76.531543],[-147.355322,-76.618848],[-147.221338,-76.670898],[-146.907813,-76.714063],[-146.790039,-76.633105]]]},"properties":{"scalerank":0,"featurecla":"Land","min_zoom":3}},
{"type":"Feature","geometry":{"type":"Polygon","coordinates":[[[-160.467139,-81.589453],[-160.937891,-81.463477],[-162.456494,-81.313281],[-163.200635,-81.281445],[-163.868994,-81.324023],[-163.951221,-81.390918],[-163.766064,-81.444824],[-163.253076,-81.482422],[-160.570996,-81.597852],[-160.467139,-81.589453]]]},"properties":{"scalerank":0,"featurecla":"Land","min_zoom":2}},
{"type":"Feature","geometry":{"type":"Polygon","coordinates":[[[-150.39707,-77.369141],[-151.021533,-77.22002],[-151.218018,-77.226465],[-151.344482,-77.296289],[-150.39707,-77.369141]]]},"properties":{"scalerank":0,"featurecla":"Land","min_zoom":3}},
{"type":"Feature","geometry":{"type":"Polygon","coordinates":[[[-153.930469,-80.033301],[-154.025391,-79.987695],[-154.535107,-79.935547],[-155.674268,-79.765527],[-155.751172,-79.82959],[-155.044775,-79.899805],[-154.94165,-79.966309],[-154.348828,-80.026074],[-153.930469,-80.033301]]]},"properties":{"scalerank":0,"featurecla":"Land","min_zoom":3}},
{"type":"Feature","geometry":{"type":"Polygon","coordinates":[[[-149.230664,-77.120508],[-149.416406,-77.078906],[-149.505762,-77.00166],[-149.870605,-76.875],[-150.393311,-76.89873],[-150.788525,-76.981641],[-150.461816,-77.075684],[-149.856348,-77.099414],[-149.728613,-77.128516],[-149.230664,-77.120508]]]},"properties":{"scalerank":0,"featurecla":"Land","min_zoom":2}},
{"type":"Feature","geometry":{"type":"Polygon","coordinates":[[[-157.9875,-82.10498],[-157.83457,-82.030762],[-158.26084,-81.947266],[-158.545312,-81.948828],[-157.9875,-82.10498]]]},"properties":{"scalerank":0,"featurecla":"Land","min_zoom":3}},
{"type":"Feature","geometry":{"type":"Polygon","coordinates":[[[-5.894092,-70.552246],[-5.949512,-70.432227],[-6.068262,-70.404688],[-6.437988,-70.452637],[-6.156104,-70.611523],[-5.894092,-70.552246]]]},"properties":{"scalerank":0,"featurecla":"Land","min_zoom":3}},
{"type":"Feature","geometry":{"type":"Polygon","coordinates":[[[3.036914,-70.597363],[3.171094,-70.553906],[3.259863,-70.448828],[3.072168,-70.381641],[2.631445,-70.500391],[2.584668,-70.53457],[2.697754,-70.623535],[3.036914,-70.597363]]]},"properties":{"scalerank":0,"featurecla":"Land","min_zoom":3}},
{"type":"Feature","geometry":{"type":"Polygon","coordinates":[[[-2.95498,-71.21377],[-3.263037,-71.051758],[-3.403857,-71.119824],[-3.309375,-71.200879],[-3.060596,-71.236621],[-2.95498,-71.21377]]]},"properties":{"scalerank":0,"featurecla":"Land","min_zoom":3}},
{"type":"Feature","geometry":{"type":"Polygon","coordinates":[[[1.299316,-70.255176],[1.460938,-70.135645],[1.412207,-70.040723],[1.314844,-70.022754],[1.026758,-70.049805],[0.949609,-70.094043],[0.990332,-70.224316],[1.211523,-70.381348],[1.299316,-70.255176]]]},"properties":{"scalerank":0,"featurecla":"Land","min_zoom":3}},
{"type":"Feature","geometry":{"type":"Polygon","coordinates":[[[-2.532812,-70.767773],[-2.749805,-70.694141],[-3.040039,-70.674414],[-3.537061,-70.683301],[-3.488965,-70.735938],[-3.006982,-70.851465],[-2.963135,-70.940332],[-2.800537,-70.982227],[-2.825146,-71.112695],[-2.606738,-71.141113],[-2.368945,-71.044434],[-2.092285,-70.820898],[-2.423437,-70.800391],[-2.532812,-70.767773]]]},"properties":{"scalerank":0,"featurecla":"Land","min_zoom":2}},
{"type":"Feature","geometry":{"type":"Polygon","coordinates":[[[4.525879,-70.478711],[4.617578,-70.368652],[4.49502,-70.251367],[4.256055,-70.24082],[4.069727,-70.290234],[4.12959,-70.416992],[4.365234,-70.502637],[4.525879,-70.478711]]]},"properties":{"scalerank":0,"featurecla":"Land","min_zoom":3}},
{"type":"Feature","geometry":{"type":"Polygon","coordinates":[[[48.545996,-66.78418],[48.774707,-66.77832],[48.637793,-66.700977],[48.357715,-66.703809],[48.304492,-66.797852],[48.545996,-66.78418]]]},"properties":{"scalerank":0,"featurecla":"Land","min_zoom":3}},
{"type":"Feature","geometry":{"type":"Polygon","coordinates":[[[16.222656,-70.007617],[16.31543,-69.844434],[16.625488,-69.750293],[16.573438,-69.723242],[16.246875,-69.70498],[15.90957,-69.728418],[15.699023,-69.773242],[15.562598,-69.862793],[15.613867,-69.939063],[15.844922,-69.982031],[16.159277,-70.071973],[16.222656,-70.007617]]]},"properties":{"scalerank":0,"featurecla":"Land","min_zoom":2}},
{"type":"Feature","geometry":{"type":"Polygon","coordinates":[[[26.857227,-70.381152],[26.874805,-70.32998],[26.68623,-70.114453],[26.604785,-70.078223],[26.301074,-70.072461],[25.98252,-70.199902],[26.005371,-70.372949],[26.470215,-70.447949],[26.857227,-70.381152]]]},"properties":{"scalerank":0,"featurecla":"Land","min_zoom":2}},
{"type":"Feature","geometry":{"type":"Polygon","coordinates":[[[-31.118848,-79.798438],[-31.604883,-79.644727],[-32.000293,-79.732422],[-31.824121,-79.849512],[-31.594238,-79.887695],[-30.844434,-79.938477],[-30.422119,-80.01084],[-30.029004,-79.936133],[-29.614453,-79.90957],[-29.870898,-79.823242],[-30.660156,-79.733105],[-31.118848,-79.798438]]]},"properties":{"scalerank":0,"featurecla":"Land","min_zoom":2}},
{"type":"Feature","geometry":{"type":"Polygon","coordinates":[[[-33.93418,-79.32041],[-33.994727,-79.278516],[-34.391504,-79.222949],[-35.534668,-79.090039],[-36.047998,-79.181152],[-36.565967,-79.208789],[-36.481299,-79.294043],[-34.049951,-79.357129],[-33.93418,-79.32041]]]},"properties":{"scalerank":0,"featurecla":"Land","min_zoom":2}},
{"type":"Feature","geometry":{"type":"Polygon","coordinates":[[[-3.280225,-70.533789],[-2.738037,-70.507031],[-2.682715,-70.462207],[-2.713525,-70.320215],[-2.949902,-70.279688],[-3.287451,-70.344043],[-3.496826,-70.488379],[-3.280225,-70.533789]]]},"properties":{"scalerank":0,"featurecla":"Land","min_zoom":2}},
{"type":"Feature","geometry":{"type":"Polygon","coordinates":[[[-20.607422,-73.886621],[-20.520703,-73.797852],[-20.580225,-73.619238],[-20.867041,-73.67666],[-21.024512,-73.880078],[-21.288281,-73.989355],[-21.930371,-74.056641],[-21.166553,-74.132617],[-20.976758,-74.225098],[-20.845654,-74.437793],[-20.489014,-74.492676],[-20.41665,-74.443359],[-20.42334,-74.317383],[-20.600342,-74.196875],[-20.654248,-74.10498],[-20.607422,-73.886621]]]},"properties":{"scalerank":0,"featurecla":"Land","min_zoom":2}},
{"type":"Feature","geometry":{"type":"Polygon","coordinates":[[[-16.104492,-72.679102],[-16.302881,-72.478027],[-16.516553,-72.530859],[-16.453027,-72.652344],[-16.317578,-72.702148],[-16.104492,-72.679102]]]},"properties":{"scalerank":0,"featurecla":"Land","min_zoom":3}},
{"type":"Feature","geometry":{"type":"Polygon","coordinates":[[[-12.508887,-72.17334],[-12.636621,-72.071289],[-12.788867,-72.006543],[-12.963281,-72.064453],[-12.888428,-72.137109],[-12.720166,-72.187695],[-12.508887,-72.17334]]]},"properties":{"scalerank":0,"featurecla":"Land","min_zoom":3}},
{"type":"Feature","geometry":{"type":"Polygon","coordinates":[[[-32.342529,-79.673633],[-31.933447,-79.567871],[-32.376611,-79.534668],[-32.583252,-79.658301],[-32.342529,-79.673633]]]},"properties":{"scalerank":0,"featurecla":"Land","min_zoom":3}},
{"type":"Feature","geometry":{"type":"Polygon","coordinates":[[[-45.717773,-60.520898],[-45.934814,-60.526563],[-45.937305,-60.619922],[-45.780029,-60.586035],[-45.70918,-60.64541],[-45.398047,-60.649707],[-45.499707,-60.546484],[-45.717773,-60.520898]]]},"properties":{"scalerank":0,"featurecla":"Land","min_zoom":3}},
{"type":"Feature","geometry":{"type":"Polygon","coordinates":[[[-54.070703,-61.299121],[-54.049902,-61.14209],[-54.192236,-61.246582],[-54.070703,-61.299121]]]},"properties":{"scalerank":0,"featurecla":"Land","min_zoom":4}},
{"type":"Feature","geometry":{"type":"Polygon","coordinates":[[[-67.261914,-79.452637],[-67.239502,-79.327637],[-67.068652,-79.268457],[-67.474512,-79.222949],[-68.032568,-79.227148],[-68.422266,-79.333203],[-68.548926,-79.437402],[-68.161475,-79.478516],[-67.434326,-79.501172],[-67.261914,-79.452637]]]},"properties":{"scalerank":0,"featurecla":"Land","min_zoom":2}},
{"type":"Feature","geometry":{"type":"Polygon","coordinates":[[[-55.16543,-61.22041],[-55.057617,-61.168652],[-54.709961,-61.139746],[-54.670996,-61.116992],[-55.387012,-61.072656],[-55.297021,-61.248535],[-55.16543,-61.22041]]]},"properties":{"scalerank":0,"featurecla":"Land","min_zoom":3}},
{"type":"Feature","geometry":{"type":"Polygon","coordinates":[[[-55.528027,-63.173535],[-55.589648,-63.12832],[-56.042187,-63.157129],[-56.385107,-63.234082],[-56.505322,-63.334277],[-56.462842,-63.418066],[-56.378516,-63.437305],[-56.083008,-63.382617],[-56.009131,-63.341504],[-55.750195,-63.29668],[-55.593652,-63.33584],[-55.156787,-63.353125],[-55.075195,-63.324316],[-55.15625,-63.204785],[-55.46626,-63.199609],[-55.528027,-63.173535]]]},"properties":{"scalerank":0,"featurecla":"Land","min_zoom":2}},
{"type":"Feature","geometry":{"type":"Polygon","coordinates":[[[-55.872559,-63.535645],[-55.719189,-63.49209],[-55.761816,-63.42207],[-55.85791,-63.407324],[-56.209863,-63.436914],[-56.178369,-63.513281],[-55.956738,-63.57998],[-55.872559,-63.535645]]]},"properties":{"scalerank":0,"featurecla":"Land","min_zoom":3}},
{"type":"Feature","geometry":{"type":"Polygon","coordinates":[[[-57.240479,-64.566797],[-56.991016,-64.467969],[-56.951709,-64.381738],[-57.022559,-64.352344],[-57.445898,-64.459863],[-57.433398,-64.540234],[-57.240479,-64.566797]]]},"properties":{"scalerank":0,"featurecla":"Land","min_zoom":3}},
{"type":"Feature","geometry":{"type":"Polygon","coordinates":[[[-58.837939,-62.302539],[-59.063818,-62.239063],[-59.202441,-62.283105],[-59.059424,-62.347754],[-58.837939,-62.302539]]]},"properties":{"scalerank":0,"featurecla":"Land","min_zoom":3}},
{"type":"Feature","geometry":{"type":"Polygon","coordinates":[[[-57.978418,-61.911914],[-58.265186,-61.95332],[-58.399463,-61.938281],[-58.683594,-62.008203],[-58.709521,-62.044727],[-58.955225,-62.164258],[-58.819043,-62.171289],[-58.594043,-62.247754],[-58.507324,-62.225684],[-58.46665,-62.137207],[-58.341455,-62.119434],[-58.183008,-62.17002],[-58.147559,-62.063477],[-57.962744,-62.077539],[-57.806689,-62.011914],[-57.639551,-62.02041],[-57.676562,-61.94209],[-57.978418,-61.911914]]]},"properties":{"scalerank":0,"featurecla":"Land","min_zoom":2}},
{"type":"Feature","geometry":{"type":"Polygon","coordinates":[[[-61.952441,-64.077148],[-61.798242,-63.966602],[-61.936279,-63.990234],[-62.020752,-64.027344],[-61.952441,-64.077148]]]},"properties":{"scalerank":0,"featurecla":"Land","min_zoom":4}},
{"type":"Feature","geometry":{"type":"Polygon","coordinates":[[[-61.997607,-69.721875],[-61.907812,-69.587598],[-61.807178,-69.514648],[-61.815967,-69.376172],[-62.11792,-69.214746],[-62.442139,-69.145996],[-62.567676,-69.180469],[-62.49624,-69.288184],[-62.216016,-69.494922],[-62.171924,-69.636621],[-61.997607,-69.721875]]]},"properties":{"scalerank":0,"featurecla":"Land","min_zoom":2}},
{"type":"Feature","geometry":{"type":"Polygon","coordinates":[[[-63.316211,-64.861133],[-63.459277,-64.796289],[-63.55835,-64.905957],[-63.316211,-64.861133]]]},"properties":{"scalerank":0,"featurecla":"Land","min_zoom":3}},
{"type":"Feature","geometry":{"type":"Polygon","coordinates":[[[-62.325781,-64.424414],[-62.185693,-64.368848],[-62.058496,-64.138086],[-62.26875,-64.090039],[-62.32876,-64.013477],[-62.544971,-64.045703],[-62.610742,-64.116309],[-62.479736,-64.210645],[-62.643018,-64.391602],[-62.746826,-64.47168],[-62.579687,-64.514258],[-62.508105,-64.454102],[-62.325781,-64.424414]]]},"properties":{"scalerank":0,"featurecla":"Land","min_zoom":2}},
{"type":"Feature","geometry":{"type":"Polygon","coordinates":[[[-62.615088,-63.069336],[-62.411475,-62.971582],[-62.527051,-62.923828],[-62.638867,-63.031934],[-62.615088,-63.069336]]]},"properties":{"scalerank":0,"featurecla":"Land","min_zoom":3}},
{"type":"Feature","geometry":{"type":"Polygon","coordinates":[[[-59.389014,-62.444336],[-59.39585,-62.367285],[-59.660693,-62.354297],[-59.525244,-62.451465],[-59.389014,-62.444336]]]},"properties":{"scalerank":0,"featurecla":"Land","min_zoom":3}},
{"type":"Feature","geometry":{"type":"Polygon","coordinates":[[[-56.059961,-63.078516],[-56.061768,-63.012695],[-56.488574,-62.982227],[-56.61416,-63.045117],[-56.54585,-63.09834],[-56.354102,-63.168848],[-56.258984,-63.173145],[-56.059961,-63.078516]]]},"properties":{"scalerank":0,"featurecla":"Land","min_zoom":3}},
{"type":"Feature","geometry":{"type":"Polygon","coordinates":[[[-60.625,-62.560059],[-60.731836,-62.491016],[-60.974707,-62.591699],[-61.152393,-62.589063],[-61.06333,-62.678906],[-60.795898,-62.662305],[-60.378027,-62.616504],[-60.321582,-62.70752],[-60.220947,-62.74541],[-60.002734,-62.618457],[-60.139893,-62.54873],[-60.576318,-62.572656],[-60.625,-62.560059]]]},"properties":{"scalerank":0,"featurecla":"Land","min_zoom":2}},
{"type":"Feature","geometry":{"type":"Polygon","coordinates":[[[-57.37417,-63.807227],[-57.439355,-63.791406],[-57.616357,-63.853613],[-57.218018,-63.875586],[-57.16084,-63.815723],[-57.37417,-63.807227]]]},"properties":{"scalerank":0,"featurecla":"Land","min_zoom":3}},
{"type":"Feature","geometry":{"type":"Polygon","coordinates":[[[-61.158447,-69.975781],[-61.151855,-69.883105],[-61.327148,-69.856348],[-61.404346,-69.93252],[-61.158447,-69.975781]]]},"properties":{"scalerank":0,"featurecla":"Land","min_zoom":3}},
{"type":"Feature","geometry":{"type":"Polygon","coordinates":[[[-60.655908,-68.767578],[-60.813574,-68.687695],[-60.894043,-68.758887],[-60.655908,-68.767578]]]},"properties":{"scalerank":0,"featurecla":"Land","min_zoom":3}},
{"type":"Feature","geometry":{"type":"Polygon","coordinates":[[[-60.740625,-70.710547],[-60.487695,-70.64668],[-60.45249,-70.544238],[-60.553662,-70.508789],[-60.883887,-70.517578],[-60.975537,-70.599121],[-60.896484,-70.689648],[-60.740625,-70.710547]]]},"properties":{"scalerank":0,"featurecla":"Land","min_zoom":3}},
{"type":"Feature","geometry":{"type":"Polygon","coordinates":[[[-60.552246,-71.05293],[-60.516309,-70.999512],[-60.613135,-70.920117],[-60.782812,-70.914062],[-60.946484,-70.967383],[-60.789746,-71.041113],[-60.552246,-71.05293]]]},"properties":{"scalerank":0,"featurecla":"Land","min_zoom":3}},
{"type":"Feature","geometry":{"type":"Polygon","coordinates":[[[-60.504883,-62.967383],[-60.637402,-62.895215],[-60.74043,-62.948633],[-60.69292,-62.995703],[-60.504883,-62.967383]]]},"properties":{"scalerank":0,"featurecla":"Land","min_zoom":4}},
{"type":"Feature","geometry":{"type":"Polygon","coordinates":[[[-60.653125,-63.866602],[-60.688867,-63.80791],[-60.562354,-63.695898],[-60.714844,-63.668848],[-60.79668,-63.716699],[-60.810059,-63.836621],[-60.653125,-63.866602]]]},"properties":{"scalerank":0,"featurecla":"Land","min_zoom":3}},
{"type":"Feature","geometry":{"type":"Polygon","coordinates":[[[-93.795605,-72.919727],[-94.004248,-72.819727],[-94.113184,-72.860059],[-93.965527,-72.920215],[-93.795605,-72.919727]]]},"properties":{"scalerank":0,"featurecla":"Land","min_zoom":4}},
{"type":"Feature","geometry":{"type":"Polygon","coordinates":[[[-91.160693,-73.182227],[-90.998437,-73.136523],[-90.775586,-72.992969],[-90.776221,-72.854004],[-90.895361,-72.823633],[-90.780176,-72.731738],[-90.807129,-72.610645],[-90.947412,-72.556348],[-91.303516,-72.547363],[-91.67002,-72.62373],[-91.356885,-72.909473],[-91.450391,-72.967871],[-91.51084,-73.195508],[-91.160693,-73.182227]]]},"properties":{"scalerank":0,"featurecla":"Land","min_zoom":2}},
{"type":"Feature","geometry":{"type":"Polygon","coordinates":[[[-104.537939,-73.166309],[-104.972412,-72.941016],[-105.131787,-72.991504],[-105.05293,-73.125977],[-104.880957,-73.200586],[-104.65957,-73.212109],[-104.537939,-73.166309]]]},"properties":{"scalerank":0,"featurecla":"Land","min_zoom":3}},
{"type":"Feature","geometry":{"type":"Polygon","coordinates":[[[-95.027051,-72.665039],[-94.426025,-72.612598],[-94.513867,-72.491699],[-94.753027,-72.517188],[-95.215625,-72.599414],[-95.027051,-72.665039]]]},"properties":{"scalerank":0,"featurecla":"Land","min_zoom":3}},
{"type":"Feature","geometry":{"type":"Polygon","coordinates":[[[-71.69502,-70.265137],[-71.795264,-70.288379],[-71.684668,-70.442285],[-71.551221,-70.438867],[-71.340283,-70.31748],[-71.431592,-70.267285],[-71.69502,-70.265137]]]},"properties":{"scalerank":0,"featurecla":"Land","min_zoom":1}},
{"type":"Feature","geometry":{"type":"Polygon","coordinates":[[[-71.985352,-69.698438],[-72.331152,-69.491797],[-72.726172,-69.413086],[-72.936768,-69.468848],[-72.957324,-69.529102],[-72.776758,-69.64502],[-72.202051,-69.740137],[-71.985352,-69.698438]]]},"properties":{"scalerank":0,"featurecla":"Land","min_zoom":2}},
{"type":"Feature","geometry":{"type":"Polygon","coordinates":[[[-73.878418,-73.356836],[-73.721387,-73.296289],[-73.542432,-73.123828],[-73.832129,-73.113281],[-74.04873,-73.220215],[-74.146631,-73.31543],[-73.878418,-73.356836]]]},"properties":{"scalerank":0,"featurecla":"Land","min_zoom":3}},
{"type":"Feature","geometry":{"type":"Polygon","coordinates":[[[-65.845264,-65.84248],[-65.813867,-65.686621],[-65.669678,-65.65293],[-65.636914,-65.547754],[-65.833594,-65.527246],[-65.968311,-65.570996],[-66.066943,-65.666113],[-66.049609,-65.744727],[-66.153467,-65.77373],[-66.175293,-65.866504],[-66.063916,-65.880859],[-65.845264,-65.84248]]]},"properties":{"scalerank":0,"featurecla":"Land","min_zoom":3}},
{"type":"Feature","geometry":{"type":"Polygon","coordinates":[[[-66.595312,-66.200684],[-66.631348,-66.066797],[-66.779004,-66.11084],[-66.818652,-66.312695],[-66.595312,-66.200684]]]},"properties":{"scalerank":0,"featurecla":"Land","min_zoom":3}},
{"type":"Feature","geometry":{"type":"Polygon","coordinates":[[[-67.348926,-67.766211],[-67.149414,-67.650195],[-67.246729,-67.59873],[-67.556738,-67.604492],[-67.743262,-67.66123],[-67.693359,-67.763477],[-67.544531,-67.785254],[-67.348926,-67.766211]]]},"properties":{"scalerank":0,"featurecla":"Land","min_zoom":3}},
{"type":"Feature","geometry":{"type":"Polygon","coordinates":[[[-67.362402,-66.894531],[-67.256982,-66.840918],[-67.331689,-66.753516],[-67.499512,-66.803613],[-67.593262,-66.875586],[-67.362402,-66.894531]]]},"properties":{"scalerank":0,"featurecla":"Land","min_zoom":3}},
{"type":"Feature","geometry":{"type":"Polygon","coordinates":[[[-66.472119,-55.229102],[-66.523145,-55.165527],[-66.636621,-55.234375],[-66.551709,-55.272852],[-66.472119,-55.229102]]]},"properties":{"scalerank":0,"featurecla":"Land","min_zoom":4}},
{"type":"Feature","geometry":{"type":"Polygon","coordinates":[[[-69.04518964027143,-55],[-69.90841669016541,-55],[-69.979785,-55.147461],[-69.824023,-55.236523],[-69.679834,-55.218945],[-69.610254,-55.339941],[-69.508691,-55.370898],[-69.411816,-55.444238],[-69.180859,-55.474805],[-69.359229,-55.300684],[-69.29707,-55.16582],[-69.150781,-55.183398],[-69.008203,-55.255762],[-68.888965,-55.263281],[-68.931299,-55.370605],[-68.867041,-55.450195],[-68.594189,-55.45],[-68.293359,-55.521387],[-68.229639,-55.601562],[-68.04834,-55.643164],[-68.058301,-55.517969],[-68.152588,-55.436914],[-68.30542,-55.356641],[-68.282666,-55.255176],[-68.381738,-55.191602],[-68.585547,-55.177734],[-68.598096,-55.12832],[-68.399805,-55.041992],[-68.42949330931445,-55],[-69.04518964027143,-55]]]},"properties":{"scalerank":0,"featurecla":"Land","min_zoom":0}},
{"type":"Feature","geometry":{"type":"Polygon","coordinates":[[[-26.264111,-58.435156],[-26.303467,-58.382227],[-26.401221,-58.383203],[-26.415332,-58.439844],[-26.264111,-58.435156]]]},"properties":{"scalerank":0,"featurecla":"Land","min_zoom":4}},
{"type":"Feature","geometry":{"type":"Polygon","coordinates":[[[-67.079932,-55.153809],[-67.107324,-55.063574],[-67.20936849259344,-55],[-68.27425904815449,-55],[-68.174316,-55.071289],[-68.135107,-55.172656],[-68.07002,-55.221094],[-67.767773,-55.25957],[-67.585205,-55.191992],[-67.463477,-55.181738],[-67.399268,-55.272266],[-67.257422,-55.281836],[-67.079932,-55.153809]]]},"properties":{"scalerank":0,"featurecla":"Land","min_zoom":0}},
{"type":"Feature","geometry":{"type":"Polygon","coordinates":[[[-70.33950525095683,-55],[-70.97705107143729,-55],[-70.939844,-55.061914],[-70.710986,-55.106934],[-70.597461,-55.082031],[-70.543457,-55.161328],[-70.40415,-55.165625],[-70.297852,-55.11377],[-70.33950525095683,-55]]]},"properties":{"scalerank":0,"featurecla":"Land","min_zoom":0}},
{"type":"Feature","geometry":{"type":"Polygon","coordinates":[[[-67.288867,-55.776855],[-67.262451,-55.74375],[-67.350586,-55.612109],[-67.546143,-55.683691],[-67.559961,-55.724805],[-67.288867,-55.776855]]]},"properties":{"scalerank":0,"featurecla":"Land","min_zoom":3}},
{"type":"Feature","geometry":{"type":"Polygon","coordinates":[[[-57.020654,-63.372852],[-57.076709,-63.2625],[-57.168262,-63.234766],[-57.389648,-63.22627],[-57.868066,-63.31875],[-58.215576,-63.45127],[-58.673535,-63.534375],[-58.87207,-63.551855],[-59.036426,-63.670313],[-59.217578,-63.713867],[-59.510156,-63.820703],[-59.989844,-63.90957],[-60.277246,-63.923926],[-60.86416,-64.073438],[-60.886621,-64.149707],[-61.082129,-64.314746],[-61.395947,-64.427148],[-61.500488,-64.545605],[-61.631787,-64.604688],[-61.88252,-64.625391],[-62.139648,-64.726758],[-62.338086,-64.729199],[-62.404248,-64.643262],[-62.503467,-64.656445],[-62.576221,-64.755664],[-62.527539,-64.833398],[-62.774658,-64.841699],[-63.119873,-64.94248],[-63.032617,-65.079785],[-63.178125,-65.126074],[-63.26416,-65.073145],[-63.482129,-65.084961],[-63.760254,-65.033496],[-63.912402,-65.093066],[-64.038037,-65.179004],[-64.071094,-65.278223],[-64.05127,-65.417188],[-63.797949,-65.480371],[-63.862207,-65.555957],[-64.065918,-65.553711],[-64.213477,-65.63291],[-64.438916,-65.640625],[-64.390039,-65.708496],[-64.474609,-65.780957],[-64.646582,-65.747852],[-64.653223,-65.866895],[-64.514307,-65.95957],[-64.613525,-66.019043],[-64.99873,-65.946289],[-65.26748,-65.994238],[-65.172021,-66.116797],[-65.316357,-66.139844],[-65.617285,-66.135254],[-65.775781,-66.342578],[-65.678467,-66.402734],[-65.717969,-66.573242],[-65.766406,-66.624902],[-65.95376,-66.645605],[-66.181885,-66.59248],[-66.370898,-66.608887],[-66.526807,-66.740723],[-66.464697,-66.875195],[-66.533301,-66.979297],[-66.472217,-67.242773],[-66.61001,-67.208594],[-66.902148,-67.255957],[-66.955078,-66.984766],[-67.160156,-66.951758],[-67.299023,-67.070801],[-67.493359,-67.112793],[-67.585791,-67.435156],[-67.486914,-67.546973],[-67.124316,-67.485059],[-66.70498,-67.527148],[-66.915381,-67.692578],[-67.106689,-67.930078],[-67.149854,-68.024609],[-66.977588,-68.146777],[-66.793359,-68.24043],[-66.893506,-68.297656],[-67.041016,-68.453125],[-67.116895,-68.574805],[-67.054297,-68.671484],[-67.133691,-68.770703],[-67.299023,-68.770703],[-67.390527,-68.86123],[-67.187598,-68.974414],[-67.02124,-69.028711],[-66.974902,-69.161035],[-67.110449,-69.248047],[-67.304346,-69.317578],[-67.371777,-69.412305],[-68.140869,-69.347559],[-68.461523,-69.383984],[-68.707959,-69.432227],[-68.637549,-69.526367],[-68.469824,-69.643848],[-68.403662,-69.80918],[-68.40332,-70.019727],[-67.888477,-70.42168],[-67.692187,-70.686133],[-67.50459,-71.057813],[-67.529932,-71.28457],[-67.460352,-71.526758],[-66.95166,-71.897266],[-66.827734,-72.09043],[-67.079541,-72.387598],[-67.306738,-72.611133],[-67.66709,-72.83457],[-68.000342,-72.935547],[-68.820947,-73.105469],[-69.282227,-73.169629],[-69.968604,-73.226465],[-70.322656,-73.274023],[-71.017187,-73.262793],[-71.452734,-73.354492],[-71.994189,-73.379199],[-72.380811,-73.438379],[-72.929199,-73.447949],[-73.996045,-73.699805],[-74.345264,-73.683887],[-74.594043,-73.715234],[-74.855469,-73.658008],[-75.293066,-73.63877],[-75.59502,-73.71123],[-75.916211,-73.736426],[-76.291211,-73.805371],[-76.75498,-73.789453],[-77.048926,-73.844141],[-77.134912,-73.817676],[-77.033008,-73.718457],[-76.764502,-73.566309],[-76.850488,-73.460449],[-77.135547,-73.495801],[-77.444043,-73.487988],[-78.144141,-73.54707],[-78.407861,-73.555762],[-78.78623,-73.506738],[-78.963721,-73.312402],[-79.521729,-73.089551],[-79.808008,-73.028125],[-80.151758,-73.000098],[-80.442236,-72.944531],[-80.587744,-72.977637],[-80.614209,-73.083398],[-80.43877,-73.225],[-80.336377,-73.41416],[-81.024316,-73.235547],[-81.262402,-73.314941],[-81.163184,-73.632422],[-81.30874,-73.738281],[-81.606104,-73.795703],[-82.183496,-73.856836],[-82.815234,-73.732324],[-83.041895,-73.707227],[-83.564844,-73.705957],[-83.796289,-73.645117],[-84.21416,-73.572754],[-84.571289,-73.556738],[-84.981201,-73.502051],[-85.260596,-73.413281],[-85.582178,-73.258984],[-85.801416,-73.19209],[-85.980762,-73.208496],[-86.602148,-73.353711],[-87.037939,-73.353906],[-87.401025,-73.191992],[-87.608447,-73.194531],[-87.936328,-73.240918],[-88.419385,-73.229004],[-88.560742,-73.120703],[-88.331738,-72.934375],[-88.194531,-72.858594],[-88.194092,-72.7875],[-88.526904,-72.702344],[-88.77998,-72.683008],[-89.127148,-72.693164],[-89.229395,-72.825781],[-89.34126,-72.889551],[-89.817676,-72.862598],[-90.035205,-72.960156],[-90.29541,-72.97793],[-90.273779,-73.118652],[-90.430908,-73.243262],[-90.920947,-73.319141],[-91.168652,-73.307031],[-92.241016,-73.178418],[-92.828369,-73.164648],[-93.705957,-73.215039],[-93.984668,-73.286719],[-94.246191,-73.312988],[-94.586475,-73.249512],[-95.236621,-73.220117],[-95.529248,-73.241406],[-95.880566,-73.293848],[-96.152148,-73.309277],[-96.67583,-73.268555],[-96.955762,-73.206445],[-97.476465,-73.12627],[-97.651025,-73.144434],[-98.012402,-73.033203],[-98.208594,-73.022266],[-99.810742,-72.999902],[-100.258789,-73.041309],[-100.820508,-72.981152],[-101.331836,-72.99541],[-101.681201,-73.029883],[-102.028857,-72.998145],[-102.409277,-72.987402],[-102.272021,-72.834961],[-102.484766,-72.735645],[-103.110107,-72.721191],[-103.375,-72.818848],[-103.307715,-72.945312],[-103.076172,-73.18457],[-102.908789,-73.285156],[-102.675049,-73.320898],[-101.815967,-73.31123],[-101.57373,-73.32959],[-101.189453,-73.317871],[-100.436377,-73.353125],[-100.020801,-73.402539],[-99.200342,-73.570996],[-99.161914,-73.64082],[-99.541016,-73.645117],[-99.781104,-73.720117],[-100.717773,-73.757812],[-100.985449,-73.757227],[-101.310742,-73.695215],[-102.036621,-73.630566],[-102.410645,-73.616406],[-102.799512,-73.645703],[-102.862744,-73.783594],[-102.766455,-73.883789],[-102.105127,-73.957715],[-101.71543,-74.02373],[-101.586719,-74.096387],[-101.342773,-74.350098],[-101.251709,-74.485742],[-100.881836,-74.541113],[-100.530859,-74.488867],[-100.238135,-74.48418],[-100.118604,-74.515039],[-100.012695,-74.662109],[-100.264893,-74.822949],[-100.47334,-74.872363],[-100.164062,-74.937891],[-99.848584,-74.92168],[-99.651904,-74.948828],[-99.208154,-75.078516],[-98.727246,-75.14082],[-98.557861,-75.189746],[-98.752344,-75.31709],[-98.980225,-75.327441],[-99.531348,-75.308984],[-100.082812,-75.37041],[-100.463428,-75.353418],[-101.039355,-75.421875],[-101.303711,-75.36582],[-101.627832,-75.221777],[-101.708105,-75.127344],[-102.771338,-75.116992],[-103.121045,-75.095215],[-103.424902,-75.10127],[-103.901318,-75.152539],[-104.159668,-75.120703],[-104.617822,-75.15625],[-104.901855,-75.115137],[-105.399365,-75.197656],[-106.618848,-75.343945],[-106.932129,-75.309375],[-107.266797,-75.334473],[-107.804736,-75.321582],[-108.254492,-75.252539],[-108.822266,-75.206641],[-109.272168,-75.185059],[-109.98999,-75.199121],[-111.104199,-75.19082],[-111.358789,-75.219922],[-111.463135,-75.133398],[-110.967578,-74.95127],[-110.531934,-74.836328],[-110.300439,-74.710645],[-110.229785,-74.536328],[-110.30708,-74.366699],[-110.533936,-74.288867],[-111.019824,-74.230469],[-111.180176,-74.188086],[-111.62998,-74.181445],[-111.806348,-74.269727],[-111.695898,-74.504102],[-111.788721,-74.57168],[-111.584424,-74.750879],[-111.69624,-74.792188],[-113.091504,-74.891699],[-113.931836,-74.981836],[-114.110449,-74.981836],[-113.984766,-74.842969],[-113.903467,-74.644434],[-113.597314,-74.558789],[-113.332959,-74.454199],[-113.454248,-74.394238],[-113.753271,-74.366699],[-113.713574,-74.227734],[-113.489404,-74.158398],[-113.508496,-74.088867],[-114.345947,-73.925],[-114.62373,-73.90293],[-114.791016,-73.988574],[-115.105176,-74.455078],[-115.222607,-74.487402],[-116.433008,-74.44707],[-117.068311,-74.473242],[-117.806201,-74.40293],[-118.342041,-74.381543],[-118.80293,-74.422266],[-119.022412,-74.517871],[-119.422217,-74.621582],[-119.677002,-74.65459],[-121.543945,-74.75],[-123.889453,-74.773047],[-124.312451,-74.735742],[-125.353418,-74.714648],[-126.383984,-74.742578],[-127.020215,-74.697852],[-127.863379,-74.719238],[-128.940625,-74.820215],[-129.238281,-74.828906],[-129.79082,-74.891406],[-130.195605,-74.890625],[-130.857471,-74.825977],[-131.706543,-74.810938],[-132.049365,-74.765723],[-132.35127,-74.789355],[-132.99165,-74.806152],[-133.474854,-74.851855],[-133.796338,-74.85459],[-134.117139,-74.829688],[-134.840381,-74.694141],[-135.362061,-74.69043],[-136.030078,-74.765332],[-136.227832,-74.836035],[-136.549512,-75.139453],[-136.649854,-75.161719],[-137.090137,-75.152637],[-137.618164,-75.075586],[-139.148828,-75.160156],[-139.691162,-75.212793],[-140.293799,-75.405859],[-140.709277,-75.497656],[-141.22334,-75.545898],[-140.874316,-75.745898],[-141.134619,-75.745996],[-141.505713,-75.69043],[-142.094189,-75.529785],[-142.329834,-75.490918],[-143.022168,-75.543457],[-143.574268,-75.563574],[-144.220605,-75.731445],[-144.721289,-75.832129],[-145.105518,-75.878906],[-145.987744,-75.88877],[-146.323486,-76.020313],[-146.383008,-76.099707],[-145.642334,-76.325684],[-145.44209,-76.40918],[-145.885742,-76.424316],[-146.817334,-76.318066],[-147.860205,-76.130859],[-148.320312,-76.104492],[-148.631787,-76.167969],[-148.894824,-76.271777],[-149.654248,-76.365332],[-149.04585,-76.458008],[-148.601074,-76.493262],[-147.34043,-76.438379],[-146.77666,-76.507031],[-145.750488,-76.749023],[-145.629248,-76.953711],[-145.966992,-77.06875],[-145.753125,-77.10332],[-145.515723,-77.199219],[-145.807959,-77.273242],[-145.600635,-77.455273],[-145.677148,-77.488086],[-146.390625,-77.472461],[-146.927588,-77.259863],[-147.442285,-77.320703],[-147.730225,-77.309766],[-148.196338,-77.211328],[-148.572412,-77.105078],[-148.77749,-77.125],[-148.843604,-77.283691],[-148.744385,-77.343262],[-148.259814,-77.412598],[-148.155713,-77.462305],[-148.339941,-77.551172],[-149.125977,-77.642676],[-149.474023,-77.714844],[-149.717725,-77.797461],[-150.305566,-77.731445],[-150.956396,-77.573535],[-151.718994,-77.425879],[-151.998389,-77.412598],[-153.076953,-77.44248],[-153.460596,-77.416016],[-153.606104,-77.310156],[-153.909961,-77.226953],[-154.814941,-77.126953],[-155.358838,-77.133301],[-155.91958,-77.098047],[-156.21123,-77.105664],[-156.667676,-77.212988],[-157.139307,-77.24209],[-157.465381,-77.23125],[-157.842041,-77.079199],[-158.213574,-77.157129],[-158.22998,-77.497656],[-158.500391,-77.77832],[-158.285889,-77.950781],[-157.848047,-78.073926],[-157.266797,-78.199805],[-156.569238,-78.186133],[-155.341504,-78.191992],[-154.695068,-78.216992],[-154.293018,-78.259082],[-154.716406,-78.398145],[-155.919775,-78.510352],[-156.469336,-78.635352],[-156.114551,-78.744629],[-155.209912,-78.964844],[-154.517725,-79.046582],[-153.517578,-79.117285],[-152.701367,-79.134863],[-152.243506,-79.102734],[-152.053418,-79.192773],[-152.091406,-79.241602],[-151.636133,-79.317676],[-151.048438,-79.459668],[-150.490625,-79.545605],[-149.051416,-79.656934],[-148.176514,-79.775879],[-148.129297,-79.907715],[-148.433496,-79.929492],[-148.317139,-80.070996],[-148.766064,-80.108105],[-149.577637,-80.105957],[-150.220703,-80.15],[-150.435449,-80.211035],[-150.575391,-80.353711],[-150.516113,-80.409473],[-150.132764,-80.510449],[-149.214063,-80.604199],[-149.147168,-80.718652],[-148.542969,-80.760059],[-148.023438,-80.835742],[-148.122754,-80.900781],[-152.034766,-81.029004],[-155.921143,-81.133398],[-156.528223,-81.162305],[-157.03252,-81.319141],[-156.492578,-81.376953],[-154.907813,-81.510352],[-154.485156,-81.566211],[-153.956641,-81.700195],[-154.188477,-81.810547],[-154.717432,-81.940723],[-153.882617,-82.176563],[-153.009863,-82.449609],[-153.398633,-82.58623],[-153.822266,-82.669336],[-155.150244,-82.858398],[-155.459424,-82.980762],[-157.018262,-83.075195],[-157.679492,-83.129492],[-157.589209,-83.187402],[-157.027783,-83.234375],[-157.428467,-83.346387],[-159.444385,-83.543164],[-159.923535,-83.494727],[-160.594727,-83.489551],[-162.197266,-83.518945],[-162.57417,-83.410645],[-163.111084,-83.329102],[-163.733398,-83.373047],[-164.445557,-83.467676],[-164.915625,-83.290039],[-165.619189,-83.215527],[-166.216895,-83.200781],[-168.417676,-83.228809],[-169.440771,-83.095996],[-171.031299,-82.942969],[-171.821289,-82.847461],[-173.071143,-82.91582],[-174.235938,-82.793457],[-174.065967,-82.900098],[-171.539404,-83.203711],[-171.187842,-83.256445],[-169.167676,-83.449805],[-168.347363,-83.636816],[-167.801221,-83.79082],[-167.552881,-83.81084],[-165.921777,-83.790234],[-165.536328,-83.756641],[-164.950879,-83.805859],[-164.08291,-83.946094],[-164.123926,-84.053516],[-164.502539,-84.071582],[-164.685059,-84.15459],[-163.765186,-84.324219],[-163.89917,-84.352637],[-165.125146,-84.374609],[-164.916846,-84.431348],[-164.11416,-84.44541],[-163.568506,-84.528711],[-158.303418,-84.778027],[-156.986328,-84.811133],[-156.489648,-84.889258],[-157.453906,-84.912402],[-156.988281,-84.982227],[-156.459131,-85.186035],[-157.12749,-85.185645],[-160.820898,-84.986621],[-162.933398,-84.901172],[-163.463721,-84.900879],[-166.911084,-84.819238],[-167.492188,-84.833691],[-168.048584,-84.728613],[-168.667773,-84.683594],[-171.703662,-84.542383],[-174.663184,-84.462695],[-175.874609,-84.510352],[-176.289014,-84.418359],[-177.73042,-84.395215],[-178.389502,-84.3375],[-180,-84.351562],[-180,-85.05752],[-180,-85.763379],[-180,-86.469336],[-180,-87.175195],[-180,-87.881055],[-180,-88.587012],[-180,-89.292969],[-180,-89.58291],[-180,-89.998926],[180,-89.998926],[180,-84.351562],[179.403027,-84.206152],[177.581055,-84.074902],[175.322852,-83.940039],[175.011035,-83.839063],[173.822363,-83.810156],[172.873926,-83.673145],[171.917188,-83.644043],[171.289258,-83.555469],[171.220703,-83.475],[170.81748,-83.435742],[170.332031,-83.478809],[169.837891,-83.399023],[168.110059,-83.362012],[167.657617,-83.272168],[168.240234,-83.229883],[168.607324,-83.065332],[168.091797,-82.974707],[167.601953,-83.047461],[167.232617,-82.952344],[167.271289,-82.879395],[166.956738,-82.764648],[166.445898,-82.722168],[164.980078,-82.384961],[164.747168,-82.354395],[164.001367,-82.396777],[163.268555,-82.463281],[163.011816,-82.534961],[162.64375,-82.481543],[161.283203,-82.489941],[161.166504,-82.407813],[162.426563,-82.314453],[163.680078,-82.187305],[163.602344,-82.120605],[162.854395,-81.920703],[162.821191,-81.866211],[161.996094,-81.653027],[161.582129,-81.609766],[160.907813,-81.390234],[160.469824,-81.340625],[160.478613,-81.270117],[160.716699,-81.199609],[160.716797,-80.907422],[160.275781,-80.846777],[160.260156,-80.786719],[160.830273,-80.729883],[160.823242,-80.674023],[160.521289,-80.583398],[160.637305,-80.449902],[160.542188,-80.425],[159.065137,-80.442578],[158.573633,-80.423438],[158.560352,-80.348926],[158.76748,-80.293359],[160.179395,-80.088086],[160.558789,-80.010547],[160.558008,-79.92959],[160.387305,-79.879492],[159.896484,-79.858984],[159.871875,-79.789844],[160.264844,-79.736621],[160.322754,-79.635547],[160.20918,-79.554395],[160.646094,-79.426855],[160.670215,-79.358887],[160.482715,-79.201465],[160.873535,-79.049707],[161.190527,-78.978711],[161.737305,-79.059961],[161.951465,-79.02998],[161.501758,-78.677246],[161.510449,-78.571387],[161.757422,-78.544922],[161.974512,-78.694238],[162.639453,-78.897754],[162.895117,-78.844824],[163.901758,-78.71709],[164.300586,-78.630078],[164.634766,-78.603223],[166.116797,-78.571094],[166.524609,-78.694922],[167.049023,-78.686035],[167.130273,-78.606152],[167.058008,-78.518457],[166.801172,-78.521582],[166.208594,-78.45166],[165.662988,-78.305664],[165.417578,-78.042188],[165.050586,-78.226074],[164.628125,-78.315625],[164.297363,-78.23623],[163.977637,-78.223828],[164.107813,-78.146777],[164.429688,-78.042188],[164.420898,-77.883496],[164.036426,-77.853027],[164.045215,-77.774609],[163.766211,-77.699902],[163.619141,-77.582324],[163.607617,-77.387793],[163.249902,-77.126465],[163.086914,-77.032324],[162.679102,-77.006738],[162.450293,-76.955664],[162.489453,-76.869238],[162.762793,-76.745703],[162.674609,-76.569336],[162.824609,-76.463574],[162.727539,-76.225391],[162.436523,-76.154883],[162.648242,-76.049023],[162.815723,-75.846191],[162.754004,-75.793262],[162.351953,-75.686523],[162.239063,-75.62168],[162.189648,-75.466895],[161.903516,-75.404199],[161.227344,-75.386133],[161.03291,-75.395898],[160.910742,-75.334668],[161.67959,-75.217773],[162.087793,-75.261621],[162.410059,-75.237598],[162.533594,-75.16709],[162.604102,-74.823145],[162.752051,-74.736133],[163.167383,-74.601953],[163.265527,-74.42627],[163.556543,-74.417383],[163.735254,-74.56377],[163.93584,-74.567383],[164.174023,-74.523242],[164.853027,-74.57832],[165.302832,-74.59375],[165.399805,-74.479199],[165.263086,-74.426172],[165.037207,-74.263477],[164.775684,-74.028516],[164.979883,-73.925879],[164.887695,-73.837695],[164.749609,-73.558789],[164.812988,-73.396777],[165.129492,-73.382617],[165.244531,-73.571191],[165.249902,-73.782422],[165.346973,-73.879395],[165.548926,-73.846094],[165.733691,-73.866699],[166.106055,-73.735156],[165.970605,-73.630762],[166.159375,-73.533789],[166.428809,-73.526953],[166.996094,-73.544336],[167.296484,-73.440039],[167.53418,-73.447266],[167.709082,-73.394238],[167.61582,-73.336816],[166.833984,-73.224316],[166.466992,-72.997461],[166.452832,-72.936035],[166.882812,-73.01123],[167.155664,-73.147266],[167.853027,-73.122461],[168.204492,-73.129785],[168.381348,-73.065918],[168.735938,-73.091211],[169.033398,-73.200391],[169.54502,-73.050391],[169.712109,-72.876953],[169.844824,-72.794629],[169.828613,-72.728809],[169.269531,-72.621289],[168.82002,-72.552441],[168.428418,-72.383398],[168.718848,-72.384473],[169.072363,-72.46875],[169.440332,-72.486816],[169.774902,-72.533789],[170.047754,-72.600586],[170.206445,-72.565332],[170.28584,-72.477148],[170.259375,-72.371289],[169.953516,-72.402832],[170.030078,-72.115527],[170.224023,-71.947949],[170.675391,-71.968555],[170.859082,-71.868555],[170.779688,-71.745117],[170.60332,-71.604004],[170.435742,-71.41875],[170.276855,-71.443945],[170.250488,-71.56875],[170.162305,-71.630469],[169.66377,-71.511328],[168.797852,-71.274805],[168.382812,-71.197363],[168.172656,-71.183203],[167.966309,-71.09248],[167.798828,-70.924902],[167.569434,-70.810254],[167.228809,-70.771289],[166.626953,-70.664258],[166.132031,-70.632812],[165.853906,-70.645313],[165.209375,-70.570801],[164.716016,-70.556543],[164.403223,-70.510449],[163.998438,-70.636523],[163.566504,-70.642285],[163.34873,-70.620898],[163.026465,-70.501367],[162.674805,-70.30459],[162.216016,-70.333984],[162.021973,-70.439844],[162.039648,-70.625],[162.286523,-70.969043],[162.189453,-71.039551],[161.916113,-70.907324],[161.625098,-70.916113],[161.424512,-70.826758],[161.037012,-70.317188],[160.651855,-70.080566],[160.209668,-69.974902],[160.125781,-69.840137],[160.125781,-69.734277],[159.783984,-69.521875],[159.386328,-69.468359],[158.647168,-69.320117],[158.432617,-69.299414],[158.157813,-69.208887],[157.93252,-69.180762],[157.775781,-69.204688],[157.481348,-69.308691],[157.046387,-69.17627],[156.488672,-69.183008],[156.010938,-69.077832],[155.520313,-69.024414],[154.9875,-68.841309],[154.576367,-68.634277],[154.199707,-68.417871],[153.908008,-68.323145],[153.784668,-68.349609],[153.766992,-68.640625],[153.705273,-68.728906],[153.339941,-68.817969],[153.081836,-68.856836],[152.81416,-68.767676],[152.545508,-68.72959],[151.562109,-68.693652],[151.28877,-68.81709],[151.138867,-68.76416],[151.068262,-68.384961],[150.935938,-68.358496],[150.342188,-68.435742],[149.716895,-68.417773],[148.880566,-68.431152],[148.45625,-68.466992],[147.568555,-68.375098],[147.093652,-68.368652],[146.797656,-68.273633],[146.896582,-68.120313],[146.827832,-67.964648],[145.975195,-67.624219],[145.556445,-67.590918],[145.12793,-67.625977],[144.879102,-67.720898],[144.404297,-67.794238],[144.189063,-67.899805],[143.977344,-67.864551],[143.941992,-67.794043],[144.153711,-67.644141],[144.259668,-67.478711],[144.515332,-67.28252],[144.621191,-67.141406],[144.550586,-67.035547],[144.347852,-67.017969],[144.117676,-67.087695],[143.911133,-67.090723],[143.862695,-66.938574],[143.730371,-66.876758],[143.448242,-66.876758],[142.888379,-67.000098],[142.6875,-67.012793],[142.32666,-66.94834],[141.972852,-66.806738],[141.517188,-66.794043],[141.285938,-66.831836],[140.901563,-66.751953],[139.900098,-66.715137],[139.613184,-66.637598],[139.241602,-66.574023],[138.376465,-66.54043],[138.139941,-66.543945],[137.753809,-66.406445],[137.33623,-66.346484],[136.88916,-66.339648],[136.739648,-66.407715],[136.55332,-66.438965],[136.193945,-66.292188],[135.554785,-66.180078],[135.351953,-66.127148],[134.971484,-66.330176],[134.769727,-66.35332],[134.398145,-66.479883],[134.289453,-66.476758],[134.178906,-66.277051],[133.842773,-66.153613],[133.444531,-66.081445],[133.148242,-66.094824],[132.874316,-66.178027],[132.320312,-66.16543],[131.830859,-66.23584],[131.232031,-66.215527],[130.951758,-66.191406],[130.578516,-66.208594],[130.120508,-66.291504],[129.741211,-66.468555],[129.236914,-67.041602],[128.982422,-67.098242],[128.816406,-67.080371],[128.430566,-67.119141],[127.968066,-67.02793],[127.541211,-67.051074],[127.36543,-66.989648],[126.873633,-66.759375],[126.664746,-66.497559],[125.865625,-66.364453],[125.397949,-66.424414],[125.095117,-66.641113],[124.821582,-66.694531],[124.597852,-66.708203],[124.196191,-66.600781],[123.969336,-66.608105],[123.666602,-66.676855],[123.22168,-66.745117],[122.633008,-66.804883],[122.182813,-66.859473],[121.487598,-67.090723],[120.978711,-67.135742],[120.400391,-67.236035],[119.133008,-67.370703],[118.92168,-67.319727],[119.280664,-67.199219],[119.953711,-67.075879],[120.374805,-66.983789],[120.187305,-66.966211],[119.767969,-66.991504],[119.318262,-67.070801],[118.964648,-67.144824],[118.713867,-67.17168],[118.518945,-67.160938],[118.138672,-67.082422],[117.951953,-67.085352],[117.744727,-67.128516],[117.131934,-67.114355],[116.923633,-67.055469],[116.713477,-67.047168],[116.509082,-67.10791],[116.214648,-67.142773],[115.885254,-67.201953],[115.38418,-67.238086],[115.171875,-67.307813],[114.65791,-67.387891],[114.319043,-67.405664],[114.026563,-67.441211],[113.9125,-67.367676],[113.991211,-67.211914],[114.570605,-67.108496],[115.27373,-67.02793],[115.441895,-66.958008],[115.635352,-66.771191],[115.310352,-66.56084],[115.082422,-66.492969],[114.618555,-66.467969],[114.336914,-66.360156],[113.954492,-66.060449],[113.709766,-65.92959],[113.099414,-65.799902],[112.547852,-65.847949],[112.130273,-65.900098],[111.453125,-65.960938],[110.906738,-66.07666],[110.587012,-66.312305],[110.622266,-66.524023],[110.437012,-66.621094],[109.82373,-66.833691],[109.462793,-66.908691],[108.910059,-66.861914],[108.376172,-66.76582],[108.15791,-66.639063],[107.991699,-66.67207],[107.785059,-66.664062],[107.667285,-66.580371],[107.170898,-66.47041],[106.386914,-66.410645],[105.000391,-66.164062],[104.666992,-66.136816],[104.289062,-66.03916],[103.951172,-65.988086],[103.63877,-65.998926],[103.166602,-65.916895],[102.674219,-65.865137],[102.392188,-65.932617],[102.174121,-65.954199],[101.474414,-65.951172],[101.320898,-66.020898],[101.327148,-66.100488],[100.889063,-66.358008],[100.591211,-66.425195],[100.211719,-66.473926],[99.370117,-66.648242],[98.858887,-66.670801],[98.720117,-66.553125],[98.257617,-66.46748],[97.719824,-66.607324],[97.388477,-66.578613],[97.100586,-66.499414],[96.42373,-66.599609],[95.541016,-66.630957],[95.083984,-66.527441],[94.839844,-66.501367],[94.586816,-66.543555],[94.313477,-66.647168],[93.964258,-66.689648],[93.358008,-66.585449],[93.074902,-66.571094],[92.730566,-66.624414],[92.48584,-66.604297],[92.073438,-66.50791],[91.546094,-66.57207],[91.02168,-66.602832],[90.547266,-66.734277],[90.292969,-66.769629],[89.698438,-66.823047],[89.351758,-66.818164],[88.789453,-66.791992],[88.31416,-66.81748],[87.980273,-66.788477],[87.084863,-66.940137],[86.750195,-67.037109],[86.118359,-67.05498],[85.710742,-67.161328],[85.429004,-67.160938],[85.116797,-67.125586],[84.74834,-67.102246],[84.485156,-67.114453],[84.160742,-67.244141],[83.903711,-67.291992],[83.493652,-67.441211],[83.304297,-67.603027],[82.607031,-67.613086],[82.273242,-67.691699],[82.016992,-67.690039],[81.187402,-67.83125],[80.363086,-67.946875],[79.287793,-68.119336],[79.035156,-68.175391],[78.72627,-68.277832],[78.563477,-68.39375],[78.488965,-68.625781],[78.228516,-68.756152],[78.015137,-68.891895],[77.81748,-69.068945],[77.540918,-69.174414],[77.191992,-69.205957],[76.770117,-69.339648],[76.359766,-69.490234],[76.111719,-69.487402],[75.891211,-69.575586],[75.820703,-69.725488],[75.635547,-69.848926],[75.423828,-69.893066],[75.147852,-69.855469],[74.571094,-69.87959],[73.942188,-69.743164],[73.676074,-69.825781],[73.324805,-69.848926],[73.041406,-70.009668],[72.82207,-70.095898],[72.744336,-70.23916],[72.760352,-70.395703],[72.417969,-70.598633],[72.262598,-70.656738],[71.904883,-70.706641],[71.771387,-70.80127],[71.464844,-71.15459],[71.378809,-71.30918],[71.349219,-71.513867],[71.276758,-71.623926],[71.078809,-71.736719],[70.616211,-71.84209],[70.572852,-71.930957],[70.294336,-72.055371],[69.962109,-72.13291],[69.554688,-72.374512],[68.419824,-72.515039],[68.106836,-72.650684],[67.971387,-72.750586],[68.015527,-72.918164],[67.971387,-73.085645],[67.32207,-73.300293],[67.003125,-73.236426],[66.569141,-73.20918],[66.497656,-73.125488],[66.89209,-72.948633],[67.113379,-72.641113],[67.432227,-72.00293],[67.693555,-71.736719],[67.87334,-71.579785],[68.037402,-71.391016],[68.62373,-71.181445],[68.872754,-71.035156],[69.188379,-70.70459],[69.250195,-70.431055],[69.162012,-70.333984],[69.020898,-70.325195],[68.559375,-70.4125],[67.94082,-70.422852],[67.658984,-70.325977],[67.267969,-70.273145],[67.575391,-70.087891],[68.178125,-69.837305],[68.415234,-69.902148],[68.74375,-69.921387],[69.082617,-69.866602],[69.162012,-69.769629],[69.188477,-69.654883],[69.135547,-69.57793],[68.95918,-69.540234],[68.879785,-69.469727],[68.90625,-69.372754],[69.064941,-69.337402],[69.371875,-69.331445],[69.549414,-69.29375],[69.629492,-69.231641],[69.530762,-69.024023],[69.645605,-68.932227],[69.546875,-68.856641],[69.53418,-68.736914],[69.761914,-68.598535],[69.92793,-68.535352],[69.982227,-68.464258],[69.788672,-68.279492],[69.603027,-68.041016],[69.655957,-67.864551],[69.55918,-67.763184],[69.416406,-67.742969],[69.167188,-67.824805],[68.899512,-67.862109],[68.32793,-67.889551],[68.098535,-67.854102],[67.502441,-67.810156],[67.174805,-67.767969],[66.488379,-67.765527],[65.70752,-67.716406],[64.573633,-67.62041],[63.93125,-67.526074],[63.699023,-67.508301],[63.237598,-67.526855],[63.017676,-67.561816],[62.687891,-67.647559],[62.173926,-67.575488],[61.309082,-67.540234],[61.012109,-67.499512],[60.482031,-67.385156],[59.867578,-67.403125],[59.650195,-67.458594],[59.250781,-67.484961],[58.737402,-67.22959],[58.026758,-67.103418],[57.828125,-67.041309],[57.627441,-67.014063],[57.361133,-67.052637],[56.891602,-67.05625],[56.562109,-67.115918],[56.365918,-67.2125],[56.154883,-67.264551],[55.802734,-67.199316],[56.391406,-66.973828],[56.479688,-66.85918],[56.453223,-66.779785],[56.291895,-66.721094],[56.145898,-66.626074],[56.294531,-66.603418],[56.510059,-66.659277],[56.823633,-66.712695],[56.986523,-66.704395],[57.185449,-66.613281],[57.000293,-66.474805],[56.859375,-66.423438],[56.361523,-66.372754],[55.974023,-66.209375],[55.710352,-66.07998],[55.504492,-66.002637],[55.29043,-65.954199],[54.947852,-65.916309],[53.671777,-65.858691],[52.955273,-65.945508],[52.378223,-65.969141],[51.88457,-66.02002],[51.6875,-66.072168],[50.936914,-66.31543],[50.588281,-66.356445],[50.332422,-66.444629],[50.244336,-66.603418],[50.306055,-66.75332],[50.520898,-66.82002],[50.508887,-66.938574],[50.605957,-67.150195],[50.553027,-67.194336],[50.292969,-67.172168],[50.006152,-67.175195],[49.488672,-67.030957],[49.24707,-66.941602],[48.830273,-66.938281],[48.465234,-67.043457],[48.598438,-67.171289],[48.713672,-67.216895],[48.923047,-67.199707],[49.219336,-67.226855],[49.05293,-67.352441],[48.630371,-67.520605],[48.648047,-67.794043],[48.550977,-67.926367],[48.374512,-67.988086],[48.32168,-67.91748],[48.32168,-67.785254],[48.209961,-67.699316],[47.958594,-67.660059],[47.703516,-67.716211],[47.489844,-67.72793],[47.117188,-67.572656],[47.231348,-67.468262],[47.40293,-67.40918],[47.351562,-67.361914],[47.154395,-67.357227],[46.883887,-67.274805],[46.559668,-67.268164],[46.317285,-67.401953],[46.319727,-67.476562],[46.436523,-67.533398],[46.399023,-67.617578],[46.153906,-67.657031],[45.887695,-67.659766],[45.569336,-67.736426],[45.196973,-67.731152],[44.989551,-67.769238],[44.699805,-67.904297],[44.372852,-67.961328],[44.177539,-67.972461],[43.554102,-68.045605],[43.170898,-68.059766],[42.819531,-68.123242],[42.408789,-68.351855],[41.824609,-68.432617],[41.356348,-68.514941],[41.132715,-68.575098],[40.81709,-68.723633],[40.483887,-68.738867],[40.041699,-68.867773],[39.863867,-68.966992],[39.762305,-69.17334],[39.705078,-69.425586],[39.487012,-69.608008],[39.01875,-69.924219],[38.859277,-70.006055],[38.885547,-70.171875],[38.499414,-70.056152],[38.144336,-69.824219],[37.787109,-69.725684],[37.559766,-69.718359],[37.114844,-69.810449],[36.855762,-69.725586],[36.71875,-69.652246],[36.331152,-69.639355],[36.017773,-69.661816],[35.567676,-69.660059],[35.357031,-69.681348],[35.224805,-69.637305],[35.131348,-69.486914],[34.749512,-69.167676],[34.595898,-69.094531],[34.058594,-69.110547],[33.813672,-69.099316],[33.77207,-69.02002],[34.074219,-68.885352],[34.219336,-68.790625],[34.192871,-68.702441],[33.465625,-68.670703],[33.121484,-68.68916],[32.776172,-68.783105],[32.641602,-68.868945],[32.567578,-69.074219],[32.737988,-69.254883],[32.903125,-69.378711],[32.989355,-69.624219],[32.809766,-69.909375],[32.621289,-70.000586],[32.15957,-70.099805],[31.378809,-70.225781],[31.062891,-70.224707],[30.00332,-70.3],[29.463867,-70.40625],[28.911523,-70.583105],[28.386426,-70.682031],[27.697754,-70.772461],[27.206836,-70.910938],[26.754395,-70.967285],[26.498828,-71.019531],[25.974121,-71.037402],[25.650195,-70.990625],[25.187402,-70.970996],[24.756738,-70.89209],[24.385742,-70.704395],[24.385742,-70.536914],[24.235742,-70.448633],[23.803613,-70.40459],[23.664844,-70.575],[23.406836,-70.723242],[23.149902,-70.796289],[22.979004,-70.810352],[22.44541,-70.739746],[22.233691,-70.642676],[22.396484,-70.561328],[22.366016,-70.475098],[21.962305,-70.300391],[21.70498,-70.258496],[21.337305,-70.495117],[21.070801,-70.843457],[20.128125,-70.917578],[19.651855,-70.920605],[19.265137,-70.902344],[19.026563,-70.674023],[19.132324,-70.491895],[19.196387,-70.293164],[19.009375,-70.212109],[18.877246,-70.201367],[18.627344,-70.269434],[18.432617,-70.289941],[18.232031,-70.518262],[18.124609,-70.540332],[17.166699,-70.450879],[16.70918,-70.397266],[16.584863,-70.203809],[16.381055,-70.145117],[16.025195,-70.193457],[15.806934,-70.324023],[15.562891,-70.330762],[15.063867,-70.294727],[14.491797,-70.299609],[13.822656,-70.343164],[13.297949,-70.22959],[13.065625,-70.053613],[12.62627,-70.065625],[12.595117,-70.117383],[12.864551,-70.162305],[12.929395,-70.213379],[12.461621,-70.370117],[12.308789,-70.443262],[12.067969,-70.616504],[11.833594,-70.736523],[11.70127,-70.766602],[11.203516,-70.728711],[10.968848,-70.687695],[10.217676,-70.50791],[9.885547,-70.40293],[9.613477,-70.269043],[9.141602,-70.183691],[8.81748,-70.39082],[8.523047,-70.473828],[8.306738,-70.461621],[7.676758,-70.356348],[7.401172,-70.494434],[6.508008,-70.586426],[5.643945,-70.636328],[5.113086,-70.655664],[3.506934,-70.844434],[2.609473,-70.900098],[1.908691,-71.003613],[1.552246,-71.080273],[0.834961,-71.202344],[0.538477,-71.274219],[0.154199,-71.397949],[-0.326953,-71.641895],[-0.543164,-71.712695],[-0.759863,-71.630273],[-0.840088,-71.539746],[-0.89585,-71.349219],[-1.067773,-71.265625],[-1.216357,-71.28418],[-1.354248,-71.386816],[-1.500635,-71.412305],[-2.0146,-71.433398],[-2.261328,-71.357129],[-2.610254,-71.320801],[-2.812012,-71.320996],[-3.239648,-71.360449],[-3.713184,-71.374609],[-3.994824,-71.338867],[-4.450146,-71.327734],[-5.950049,-71.341602],[-6.11748,-71.325977],[-6.080273,-71.154102],[-5.708691,-70.968262],[-5.587891,-70.856738],[-5.694727,-70.745313],[-5.936328,-70.712695],[-6.54751,-70.816895],[-6.838184,-70.844531],[-7.388135,-70.786914],[-7.752734,-70.842773],[-7.873486,-70.940332],[-7.617969,-71.121484],[-7.590137,-71.22373],[-7.668994,-71.324316],[-7.713721,-71.546484],[-7.91582,-71.635352],[-8.646484,-71.672754],[-8.965918,-71.361328],[-9.230664,-71.174023],[-9.402344,-71.117578],[-9.887988,-71.027344],[-10.09873,-70.926367],[-10.270605,-70.935742],[-10.331006,-71.024023],[-10.122314,-71.060938],[-10.033496,-71.130664],[-10.520068,-71.295508],[-10.659473,-71.442676],[-10.825439,-71.55332],[-10.969824,-71.560059],[-11.160156,-71.481152],[-11.663037,-71.33125],[-11.926123,-71.288672],[-12.073682,-71.296875],[-12.351318,-71.389746],[-12.148193,-71.613672],[-11.696875,-71.719336],[-11.333057,-71.785547],[-11.009229,-71.75791],[-10.958105,-71.901953],[-11.121387,-72.031543],[-11.346484,-72.281641],[-11.496973,-72.412891],[-12.094727,-72.498145],[-12.746924,-72.628906],[-13.208594,-72.785059],[-13.602832,-72.79209],[-14.297754,-72.733008],[-14.000098,-73.000586],[-14.164697,-73.102441],[-14.320996,-73.123047],[-15.007031,-73.047461],[-15.595996,-73.096777],[-15.802832,-73.152148],[-16.149023,-73.334473],[-16.435205,-73.425684],[-16.518848,-73.644043],[-16.097461,-73.709082],[-15.935645,-73.757617],[-16.003125,-73.815918],[-16.281885,-73.866992],[-16.220117,-73.915723],[-15.748828,-73.945605],[-15.259619,-73.888867],[-14.611426,-73.851758],[-14.573828,-73.9375],[-15.08916,-74.163281],[-15.289746,-74.280859],[-15.67251,-74.407324],[-16.429541,-74.323926],[-16.989258,-74.319824],[-17.299023,-74.333887],[-17.43584,-74.379102],[-17.922754,-74.699219],[-18.221191,-74.974512],[-18.516943,-75.051953],[-18.749219,-75.24209],[-18.516943,-75.389941],[-18.30459,-75.431348],[-18.850928,-75.470215],[-19.493018,-75.539941],[-20.4875,-75.491992],[-20.783301,-75.593945],[-21.433789,-75.683105],[-21.948096,-75.694141],[-22.465479,-75.661035],[-23.197266,-75.717676],[-24.26958,-75.766992],[-26.059326,-75.957227],[-27.134521,-76.157324],[-27.653076,-76.226367],[-28.079395,-76.257812],[-28.933643,-76.370313],[-29.891553,-76.597949],[-30.221973,-76.660352],[-30.489209,-76.762305],[-31.675781,-77.033105],[-32.063379,-77.159863],[-32.614062,-77.14082],[-33.591162,-77.31123],[-34.075781,-77.425391],[-34.290186,-77.521875],[-34.551465,-77.728516],[-34.80835,-77.820605],[-35.087598,-77.837109],[-35.509277,-78.041211],[-36.180859,-78.468359],[-36.265625,-78.615527],[-36.23916,-78.774219],[-35.515967,-78.933008],[-34.994922,-78.977539],[-34.197363,-79.110254],[-32.994238,-79.228809],[-32.541846,-79.222168],[-31.412793,-79.145215],[-30.645264,-79.124121],[-30.315918,-79.163086],[-30.17793,-79.304297],[-30.21123,-79.485254],[-29.949316,-79.599023],[-25.258643,-79.7625],[-24.299854,-79.770801],[-24.088281,-79.814844],[-23.406836,-79.858984],[-23.574463,-79.964844],[-24.019824,-80.008984],[-24.240283,-80.061914],[-29.329102,-80.17207],[-30.425293,-80.279688],[-31.01543,-80.308105],[-31.312109,-80.450098],[-32.255713,-80.460742],[-32.706201,-80.513867],[-33.328711,-80.54043],[-35.327002,-80.650684],[-35.965771,-80.890918],[-36.812402,-80.974707],[-37.209277,-81.063867],[-38.010937,-80.954297],[-38.771729,-80.882324],[-39.762305,-81.032031],[-40.44082,-81.165137],[-40.914551,-81.172363],[-41.433838,-81.297754],[-41.711572,-81.407715],[-42.046289,-81.597852],[-42.564551,-81.761621],[-43.180371,-82.017188],[-43.669336,-82.270117],[-45.04375,-82.437988],[-46.175293,-82.511621],[-46.516748,-82.45459],[-46.44834,-82.339844],[-46.198535,-82.271094],[-46.046387,-82.158691],[-46.258057,-81.946973],[-47.019873,-82.003223],[-47.360254,-82.004004],[-47.886816,-81.925195],[-48.360791,-81.892285],[-50.029248,-81.967676],[-50.653027,-81.975488],[-51.730664,-82.061523],[-52.414941,-82.134863],[-53.339062,-82.144531],[-53.986084,-82.200586],[-55.294678,-82.464844],[-55.800684,-82.478418],[-56.317871,-82.633398],[-57.353613,-82.840234],[-59.516016,-83.458398],[-60.983203,-83.427539],[-61.589844,-83.341211],[-61.200391,-83.097949],[-61.218408,-82.991797],[-61.916992,-82.97666],[-62.128613,-82.822363],[-62.465576,-82.718164],[-62.735645,-82.527344],[-62.094531,-82.466602],[-60.817187,-82.275781],[-60.859082,-82.186719],[-61.90166,-82.271094],[-62.645312,-82.263086],[-63.772852,-82.304297],[-64.396582,-82.374414],[-64.91958,-82.370508],[-65.424414,-82.280371],[-65.713965,-82.279199],[-65.913184,-82.183203],[-65.786621,-82.045508],[-66.133838,-81.953418],[-65.916211,-81.902246],[-64.137109,-81.869336],[-64.190186,-81.794824],[-64.810547,-81.802734],[-65.486621,-81.775],[-65.619727,-81.729297],[-64.696094,-81.652344],[-63.768652,-81.676074],[-62.541846,-81.67832],[-62.165381,-81.636133],[-62.490234,-81.556738],[-63.477734,-81.553223],[-64.750146,-81.52168],[-65.573682,-81.460547],[-67.96543,-81.148242],[-68.284619,-81.073828],[-68.326562,-81.004102],[-68.589844,-80.967969],[-69.181592,-81.004883],[-69.772266,-80.961523],[-70.239111,-80.856641],[-70.560059,-80.646582],[-71.017676,-80.619043],[-71.380029,-80.682227],[-72.173584,-80.763867],[-72.553223,-80.853125],[-73.029492,-80.917285],[-73.937842,-80.815918],[-74.511133,-80.837988],[-74.806592,-80.886523],[-75.236523,-80.802637],[-75.494531,-80.61748],[-75.709033,-80.382715],[-75.985645,-80.29502],[-76.407324,-80.094922],[-77.160449,-80.15293],[-78.176074,-80.166797],[-79.6604,-79.996875],[-78.692236,-79.99541],[-77.701855,-80.00957],[-77.222266,-79.994141],[-76.557861,-79.903516],[-76.343945,-79.820898],[-76.031592,-79.627051],[-76.105127,-79.465137],[-76.217676,-79.387207],[-76.499121,-79.325684],[-79.455664,-79.304395],[-80.151172,-79.268066],[-80.488525,-79.320996],[-80.534814,-79.512793],[-80.891992,-79.501855],[-81.163184,-79.400391],[-81.222168,-79.297852],[-81.660889,-79.099805],[-82.589209,-78.916309],[-82.970752,-78.816699],[-83.26001,-78.774219],[-83.595166,-78.611035],[-83.762744,-78.461133],[-83.544434,-78.355273],[-83.245898,-78.357031],[-83.687744,-78.148047],[-83.779004,-77.983594],[-82.608447,-78.412402],[-81.929297,-78.559082],[-80.816309,-78.754297],[-80.292285,-78.822754],[-79.766553,-78.820703],[-78.711621,-78.752051],[-77.869141,-78.745508],[-77.54502,-78.65957],[-77.432568,-78.434668],[-77.858105,-78.350977],[-79.509668,-78.154297],[-81.441016,-77.885645],[-80.601562,-77.751953],[-79.679004,-77.842578],[-77.742139,-77.940332],[-76.437842,-78.044141],[-75.398438,-78.157813],[-74.812061,-78.177832],[-74.042139,-78.109375],[-73.251562,-77.894238],[-72.875146,-77.693848],[-72.851953,-77.590234],[-73.478223,-77.535547],[-74.580615,-77.478027],[-75.386914,-77.474219],[-75.937256,-77.334473],[-76.248584,-77.274902],[-77.167969,-76.833887],[-77.287061,-76.70166],[-77.190039,-76.629785],[-76.244189,-76.585352],[-75.659277,-76.608203],[-75.268359,-76.581445],[-73.879785,-76.696777],[-73.471777,-76.675488],[-72.722314,-76.689063],[-71.798682,-76.752734],[-70.89502,-76.739355],[-70.550781,-76.718066],[-70.095508,-76.654492],[-69.915283,-76.521973],[-69.304395,-76.350781],[-67.518213,-76.109766],[-66.37041,-76.013379],[-65.965674,-75.95166],[-65.321729,-75.815137],[-65.044385,-75.7875],[-64.052637,-75.57959],[-63.363379,-75.451465],[-63.303809,-75.352246],[-63.972461,-75.329395],[-64.279541,-75.292871],[-63.85752,-75.206152],[-63.231055,-75.153809],[-63.173193,-75.114746],[-63.336914,-75.034766],[-63.924707,-75.004492],[-63.558789,-74.905664],[-63.125244,-74.849512],[-63.178125,-74.68418],[-62.887109,-74.69082],[-62.708496,-74.737109],[-62.566797,-74.895801],[-62.372461,-74.952148],[-62.137793,-74.926367],[-61.928027,-74.862793],[-61.894434,-74.713086],[-62.225684,-74.505566],[-62.235303,-74.441309],[-61.63999,-74.513574],[-61.010791,-74.47832],[-60.704297,-74.307129],[-60.783691,-74.241016],[-61.331787,-74.328613],[-61.842773,-74.289648],[-61.570801,-74.194727],[-61.226855,-74.20791],[-61.04165,-74.121973],[-61.319434,-74.035938],[-61.838232,-74.032031],[-61.691699,-73.923828],[-61.404053,-73.895996],[-61.203418,-73.956641],[-60.902734,-73.870605],[-60.790283,-73.711816],[-60.878857,-73.612012],[-61.079785,-73.538672],[-61.405469,-73.46709],[-61.636963,-73.500195],[-61.787598,-73.254883],[-62.008301,-73.147656],[-61.428418,-73.191406],[-61.081348,-73.328223],[-60.89585,-73.32041],[-60.560693,-73.211426],[-60.122217,-73.275293],[-60.016406,-73.189258],[-59.956836,-73.030566],[-60.009766,-72.937891],[-60.148682,-72.937891],[-60.384668,-73.007324],[-60.532324,-72.832129],[-60.532324,-72.67334],[-60.724121,-72.646875],[-60.93916,-72.699707],[-61.286133,-72.600781],[-61.279785,-72.468262],[-61.04751,-72.470508],[-60.730322,-72.425977],[-60.6646,-72.3625],[-60.719434,-72.072656],[-60.951758,-72.050195],[-61.310254,-72.112695],[-61.628027,-72.052734],[-61.894043,-72.070996],[-62.256641,-72.017578],[-61.938916,-71.903613],[-61.644531,-71.862891],[-61.035059,-71.82002],[-60.949023,-71.747266],[-61.081348,-71.588574],[-61.213574,-71.564063],[-61.562793,-71.675293],[-61.789551,-71.616016],[-61.515918,-71.479102],[-61.369287,-71.452344],[-61.148438,-71.341895],[-61.003076,-71.319336],[-60.962256,-71.244629],[-61.017236,-71.166895],[-61.25166,-71.002246],[-61.312842,-70.867578],[-61.702148,-70.856738],[-61.961084,-70.900586],[-62.04043,-70.801367],[-61.994141,-70.728613],[-61.696484,-70.675781],[-61.491406,-70.569922],[-61.504687,-70.490527],[-62.000781,-70.497168],[-62.377783,-70.364844],[-62.331494,-70.278906],[-62.217871,-70.233203],[-62.013965,-70.278906],[-61.934619,-70.199512],[-61.961084,-70.120117],[-62.202441,-70.02793],[-62.407129,-69.827246],[-62.450537,-69.584375],[-62.586816,-69.477246],[-62.994092,-69.328906],[-63.094385,-69.253027],[-63.455957,-69.041895],[-63.478223,-68.951172],[-63.343506,-68.810449],[-63.442725,-68.76416],[-63.747021,-68.70459],[-63.707324,-68.592188],[-63.34751,-68.499414],[-62.933301,-68.442578],[-63.216602,-68.418848],[-63.796484,-68.469727],[-64.169238,-68.58252],[-64.156836,-68.686914],[-64.078467,-68.771191],[-64.428906,-68.746094],[-64.898291,-68.67334],[-65.241602,-68.583203],[-64.996484,-68.407813],[-65.089746,-68.370215],[-65.331396,-68.36416],[-65.365186,-68.2875],[-64.895947,-68.168359],[-64.829492,-68.127441],[-64.884717,-68.056348],[-65.218018,-68.140039],[-65.639502,-68.130566],[-65.469434,-68.009473],[-65.600049,-67.875684],[-65.574023,-67.788379],[-65.418066,-67.65957],[-65.523438,-67.444629],[-65.443115,-67.326172],[-65.248535,-67.341992],[-64.819287,-67.307324],[-64.858252,-67.242773],[-65.026904,-67.214063],[-64.838721,-67.156055],[-64.878125,-67.024512],[-64.793359,-66.971973],[-64.686279,-66.80625],[-64.554004,-66.851758],[-64.400977,-66.85332],[-64.042578,-66.927246],[-63.8396,-66.912012],[-63.754736,-66.872949],[-63.808789,-66.760938],[-64.077734,-66.654102],[-63.964355,-66.58877],[-63.755664,-66.408984],[-63.654395,-66.38291],[-63.752539,-66.277734],[-63.586621,-66.241699],[-63.25752,-66.26377],[-63.179541,-66.352539],[-62.996729,-66.452832],[-62.704785,-66.680078],[-62.536523,-66.707031],[-62.543164,-66.620996],[-62.655078,-66.556055],[-62.615381,-66.435742],[-62.754834,-66.310156],[-62.682031,-66.237305],[-62.24126,-66.19707],[-62.116504,-66.208984],[-61.875439,-66.296094],[-61.841992,-66.402734],[-61.756006,-66.429199],[-61.675635,-66.249512],[-61.526123,-66.225684],[-61.431934,-66.144727],[-61.149756,-66.211719],[-61.134277,-66.290234],[-61.028418,-66.336523],[-60.902734,-66.191016],[-61.009277,-66.110547],[-60.856445,-66.065332],[-60.743994,-66.105078],[-60.565381,-65.979395],[-60.618311,-65.933105],[-60.988135,-65.940234],[-61.039258,-65.991992],[-61.266113,-65.97998],[-61.359131,-66.058789],[-61.574707,-66.071484],[-61.839062,-66.119531],[-62.005029,-66.112891],[-62.169141,-66.031348],[-62.293262,-65.916406],[-62.305029,-65.84043],[-62.150586,-65.698828],[-61.991406,-65.58916],[-61.756006,-65.569238],[-62.053662,-65.456836],[-62.145312,-65.331738],[-61.947852,-65.192285],[-61.855615,-65.235352],[-61.663428,-65.238574],[-61.577441,-65.185645],[-61.736182,-65.033496],[-61.603223,-64.987793],[-61.331836,-65.023828],[-61.059863,-64.98125],[-60.915381,-64.906836],[-60.659961,-64.729199],[-59.963086,-64.431348],[-59.765039,-64.451367],[-59.734375,-64.558887],[-59.573193,-64.530762],[-59.612158,-64.440137],[-59.546777,-64.358789],[-59.229395,-64.443555],[-59.050684,-64.451367],[-58.891895,-64.537402],[-58.786084,-64.524219],[-58.805908,-64.444824],[-58.895459,-64.388867],[-58.799316,-64.292676],[-59.047314,-64.234473],[-58.838965,-64.186816],[-58.531885,-63.91543],[-58.262988,-63.763379],[-57.856738,-63.656836],[-57.460645,-63.513574],[-57.152246,-63.479102],[-57.119189,-63.637793],[-56.834766,-63.63125],[-56.781836,-63.57168],[-56.927344,-63.505566],[-57.020654,-63.372852]]]},"properties":{"scalerank":0,"featurecla":"Land","min_zoom":0}}
]}